Company Name,Key ID,Address Line 1,City,Phone,URL,Revenue (As Reported),Employees,Match Status,CRM Company Name,CRM Group ID,CRM Company ID
Union Defence Force,123228858,Po Box 128889,Abu Dhabi,24415300,,,90100.0,low=60,Union Precast Factory,1535007,3475531
Arabtec Holding PJSC,42386653,Al Muhairy Centre,Abu Dhabi,971-2-3336666,http://www.arabtecholding.com,8293031300.0,42000.0,low=58,Arabtec AUH,1713303,89949
Al Jaber Transport & General Contracting Llc,123046055,Po Box 2175,Abu Dhabi,25554300,,,40000.0,high=81,Al Rafeh Transport and General Contracting Est.,343597,63943
Arabian Construction Company - W L L,122882369,Po Box 2113,Abu Dhabi,26771225,,,30000.0,low=62,Arabian International Company for Steel Strucure,851151,3035155
Abu Dhabi Group,104158751,PO Box 44222,Abu Dhabi,971-26266406,http://www.abudhabiigroup.com,71250203000.0,25000.0,not matched=0,,,
EMKE Group LLC,42385871,PO Box 4048,Abu Dhabi,971-2-4182000,http://www.emkegroup.com,19830000000.0,22000.0,not matched=0,,,
National Central Cooling Co PSC,44600285,"Abu Dhabi Mall, West Tower, 13th Floor,",Abu Dhabi,971-2-6455007,http://www.tabreed.ae,1130612100.0,16116.0,high=83,"Tabreed, National Central Cooling Co. (PJSC)",506599,62846
Abu Dhabi Water & Electricity Authority,107923724,,Abu Dhabi,971-26943333,http://www.adwea.ae,,15000.0,high=95,Abu Dhabi Water and Electricity Authority,89901,27162
Al Jaber Group LLC,42385943,PO Box 2175,Abu Dhabi,971-2-5554300,http://www.aljaber.com/,28297900000.0,15000.0,high=100,Al Jaber Group LLC,21232,89867
Abu Dhabi National Oil Company,42385736,"Zayed The 1 Street,",Abu Dhabi,971-2-6020000,http://www.adnoc.ae/,30850000000.0,14000.0,high=82,Abu Dhabi Vegetable Oil Company,336049,66121
Abu Dhabi National Hotels Company - Compass Middle East - L L C,123156937,Po Box 48606,Abu Dhabi,24447228,,,14000.0,low=69,Abu Dhabi National Hotels Company,161819,26632
W S Atkins & Partners Overseas,42385786,Po Box 7562,Abu Dhabi,26249100,http://www.atkinsglobal.com,1775500000.0,13211.0,low=48,HDP Overseas,1284948,560394
Mubadala Technology Investments LLC,106299382,HQ Building,Abu Dhabi,971-2-4134333,http://www.mubadala.com,3500000000.0,13000.0,low=62,advanced technology investment company atic,1283798,3375982
The National Petroleum Construction Company,42386020,PO Box 2058,Abu Dhabi,971-25549000,http://www.npcc.ae,562900020.0,10000.0,high=88,National Petroleum Construction Company (NPCC),5136,29299
Al Jaber Energy Services LLC,98725641,Al Jaber Building,Abu Dhabi,971-2-5546550,http://ajes.ae/,3897899900.0,10000.0,low=61,Al Jaber Group LLC,21232,89867
Abu Dhabi National Hotels,42385734,Abu Dhabi National Hotels Building,Abu Dhabi,971-2-4447228,http://www.adnh.com,1340166000.0,9156.0,high=86,Abu Dhabi National Hotels Company,161819,26632
Galfar Engineering & Contracting WLL,42385891,PO Box 72218,Abu Dhabi,971-26336111,http://www.emirates.net.ae,,9000.0,medium=73,Pivot Engineering & General Contracting Co WLL,1442347,29598
Etihad Airways PJSC,48960720,PO Box 35566,Abu Dhabi,+971 2 511 0000,http://www.etihadairways.com,4084500000.0,9000.0,high=85,Etihad Airways,502399,27847
Gac Marine Equipment Industry & Maintenance - L L C,123278891,Po Box 8101,Abu Dhabi,25014900,,,8000.0,low=60,Emmet Machining and Maintenance Co. LLC,1741161,3512380
National Petroleum Construction Company,123246169,Po Box 2058,Abu Dhabi,25549000,,,7130.0,high=92,National Petroleum Construction Company (NPCC),5136,29299
United Arab Emirates Money Exchange Centre - L L C - Abu Dhabi,123730653,Po Box 170,Abu Dhabi,26105555,,,7000.0,low=53,Emirates Park Resort - Abu Dhabi,1628363,3490072
International Engineering Technology L L C,120030328,Po Box 31859,Abu Dhabi,26816770,http://www.g4s.com,,7000.0,high=90,International engineering Technology,262874,59165
Expeditors Intertnational Llc.,122048132,Po Box 51473,Abu Dhabi,26723003,,,7000.0,not matched=0,,,
Group 4 Securicor Security Services UAE L.L.C.,48609243,PO Box 31859,Abu Dhabi,971-02 4491510,http://www.g4s.ae,918599980.0,6528.0,low=56,Epta UAE Technical Services L.L.C,1575440,3484741
General Information Authority,122940147,Po Box 3870,Abu Dhabi,26160444,,,6500.0,medium=70,General Civil Aviation Authority GCAA,1371750,557073
Fair Green International Landscaping,50835923,PO Box 6391,Abu Dhabi,971-02 6337002,http://www.fairgreen-intl.com/contactus.asp,3330300000.0,6000.0,high=91,FairGreen International Landscaping (LLC),342947,59840
Al Jaber L E G T Engineering & Contracting (Alec) L L C,123332911,Po Box 27639,Abu Dhabi,25567540,,,6000.0,low=44,Al Jaber Group LLC,21232,89867
West Coast Cleaning & Environmental Services Company - L L C,122461398,Po Box 5724,Abu Dhabi,6266676,http://www.westcoastme.com,,6000.0,high=80,West Coast Enviromental Services Company,1386746,92320
Actco General Contracting Company W L L,122044256,Po Box 2361,Abu Dhabi,6812255,,,6000.0,not matched=0,,,
M+W Singapore Pte Ltd - Abu Dhabi,122044368,Po Box 61637,Abu Dhabi,26538051,,,6000.0,not matched=0,,,
Eastern Bechtel Company Limited,133360996,Po Box 2661,Abu Dhabi,26998400,,,5300.0,low=39,United Eastern Group,8715,89378
Samsung-Saif Bin Darwish Jv,122461991,Po Box 53581,Abu Dhabi,24949600,,800000000.0,5200.0,medium=74,Saif Bin Darwish,278520,26996
Al Dar Laing O'Rouke Construction - L L C,123262644,Po Box 110800,Abu Dhabi,25017017,,,5000.0,low=65,Dar Al Wad Construction LLC,1680525,3506094
Noor Al Khaleej Trading Company - W L L,123282622,Po Box 45261,Abu Dhabi,26273270,,4931500.0,5000.0,low=56,AL Khaleej Bitumen Co LLC,465000,56272
Drake & Scull International L.L.C,121726456,Airport Road Opposite Abu Dhabi Chamber of comm,Abu Dhabi,971-26226005,,,5000.0,high=84,Drake and Scull International PJSC,301733,30320
Al Geemi & Partners Contracting Company W L L,123284616,Po Box 2877,Abu Dhabi,26328438,,,5000.0,low=50,algeemi contracting,781151,537674
Emirates Holdings Electronics And Communications,122882385,Po Box 34895,Abu Dhabi,26449088,,,5000.0,low=58,ADmission Communications,1587874,3433775
Samsung C&T Corporation - Abu Dhabi,123249948,Po Box 42654,Abu Dhabi,26671707,,,5000.0,high=79,Samsung C&T Corporation,1505775,1330069
Al Nasser Holdings,42386004,PO Box 46611,Abu Dhabi,971-02 6391100,http://www.anholdings.com,5131000000.0,5000.0,low=58,Liwa Trading Services - Al Nasser Holding,1504023,86608
Bam International,92507447,P.O. Box 25685,Abu Dhabi,26444100,http://www.interbeton.nl,,5000.0,not matched=0,,,
NMC Hospitals,124754330,Electra Street,Abu Dhabi,971-26332255,,,5000.0,low=67,Zulekha Hospitals,1520309,84726
Al Hamed Enterprises,43523276,PO Box 592,Abu Dhabi,971-02 6675555,http://www.alhamed.com,17032100000.0,4600.0,not matched=0,,,
Jan De Nul Dredging Limited - Abu Dhabi,123262653,Po Box 73422,Abu Dhabi,26267234,,,4500.0,low=45,National Marine Dredging Company,1597139,31464
Square General Contracting Company - L L C,121882170,Po Box 46575,Abu Dhabi,26670650,,,4000.0,high=76,Square General Contracting,889848,64532
Porcellan Company Llc,122048026,Po Box 74684,Abu Dhabi,26576418,,,4000.0,not matched=0,,,
National Ready Mix Concrete Co.,43762999,PO Box 568,Abu Dhabi,971-02 6323227,http://www.lootahgroup.com,28131199000.0,4000.0,high=75,TransGulf Ready Mix Concrete Company,219219,27840
Code Contracting Company - L Lc,121848623,Po Box 25224,Abu Dhabi,24464616,,,4000.0,not matched=0,,,
Gibca Trading & Contracting Company - W L L,123229938,Po Box 2570,Abu Dhabi,26260222,,,4000.0,not matched=0,,,
Belhasa Six Construct Company Llc,121848029,Po Box 226,Abu Dhabi,6715400,,,4000.0,low=66,Gusan Construction company ltd.,1489087,3455136
International Mechanical & Electrical Company W L L,123229952,Po Box 46527,Abu Dhabi,26444700,,,4000.0,low=68,IMECO (International Mechanical And Electrical Company )/ Al Shirah recruitment services,242870,30506
NMC Group,120011440,Street 5 Warehouse 120,Abu Dhabi,971-26734300,http://www.nmc.ae,,4000.0,low=24,Bite Rite (part of NMC Specialty Hospital),1396547,3395882
Al Noor Hospitals Group PLC,122895558,Mussafah,Abu Dhabi,,http://www.alnoorhospital.com/,449056000.0,3922.0,medium=74,Al Noor Hospital,1031895,54353
International Management and Construction Corp.,50835924,PO Box 2739,Abu Dhabi,971-02 5553395,http://www.imcc.ae,2056899900.0,3700.0,low=63,Garnet Management Consulting LLC,1746202,3514977
MAPCO L.L.C.,42385970,PO Box 2035,Abu Dhabi,971-02 6783626,http://www.mapcouae.com,1912200000.0,3500.0,high=78,MAPCO L L C,631149,234585
National Drilling Co.,133360913,Po Box 4017,Abu Dhabi,971-02 6776100,http://www.ndc.ae,9448500000.0,3500.0,low=42,ESNAAD (Abu Dhabi Drilling Chemicals and Products),649750,60091
Abu Dhabi Gas Industries Limited,42385726,,Abu Dhabi,971-26030000,http://www.gasco.ae,4948799800.0,3500.0,high=82,Abu Dhabi Gas Industries Ltd (Gasco),1644260,23841
Gulf Piping Co Wll,133363574,Po Box 2739,Abu Dhabi,25553395,,,3500.0,high=76,Gulf Piping Company,151665,27174
Al Nabooda Contracting Company - L L C,123109587,Po Box 52224,Abu Dhabi,25506550,,,3000.0,not matched=0,,,
Punj Lloyd Ltd,122786515,P.O. Box 28907,Abu Dhabi,26261604,,,3000.0,low=44,LLoyd and Co.,1510046,3466450
Spark Development & Trading,121882883,Po Box 26061,Abu Dhabi,26777522,,,3000.0,low=65,Dhafir Development and contracting LLC,346452,30617
Aecom Middle East Limited. - Abu Dhabi,120029806,Po Box 43266,Abu Dhabi,26134000,http://www.aecom.com,,3000.0,not matched=0,,,
Armed Forces Officer Club Hotel,122044210,Po Box 29810,Abu Dhabi,24415900,http://www.afoc.mil.ae,,3000.0,low=39,Al Ain Sports and Cultural Club,971392,3035363
Abu Dhabi Aircraft Technologies PJSC,42385905,Abu Dhabi Aircraft Technologies Building,Abu Dhabi,971-2-5757555,http://www.adat.ae,4041000000.0,3000.0,low=52,"Abu Dhabi Aircraft Technologies, ADAT (previously Gulf Aircraft Maintenance Company - GAMCO)",1366452,31684
Middle East Energy & Industrial Services Company - L L C,123217428,Po Box 519,Abu Dhabi,26442600,,,2800.0,low=53,Folcra Beach Industrial Company,261470,80422
Abu Dhabi Aircraft Technologies,123283175,Po Box 46450,Abu Dhabi,25757555,,,2800.0,low=50,"Abu Dhabi Aircraft Technologies, ADAT (previously Gulf Aircraft Maintenance Company - GAMCO)",1366452,31684
Freyssinet Middle East - L L C,123249653,Po Box 28752,Abu Dhabi,26422962,,,2700.0,not matched=0,,,
National Bank of Abu Dhabi,42386005,One National Bank of Abu Dhabi Tower,Abu Dhabi,971-2-6111352,http://www.nbad.com,11185451000.0,2544.0,high=100,National Bank of Abu Dhabi,1706060,27818
Emirates Technical Thermal Systems Company - L L C,122981040,Po Box 43155,Abu Dhabi,6678080,,21200001.0,2500.0,medium=73,ETTS (Emirates Technical & Thermal Systems),1137452,3034543
Abu Dhabi Supplies & Commercial Services Establishment.,122985882,Po Box 768,Abu Dhabi,26767400,,,2500.0,high=78,(GULF) Abu Dhabi Supplies & Commercial Services,61600,26667
Tekfen Construction And Installation Company,122044354,Po Box 52237,Abu Dhabi,25591301,,,2500.0,low=49,Al Weqaya Fire Fighting Equipment Installation LLC,1673417,3502933
Al Jaber Signs L.L.C.,124754244,M 20 Plot No 5 12 & 23,Abu Dhabi,971-25553707,http://www.aljaber.com,,2500.0,low=67,Al Jaber Group LLC,21232,89867
Abu Dhabi National Oil Company for Distribution,42385737,PO Box 4188,Abu Dhabi,971-02 6771300,http://www.adnoc-dist.ae,34770602000.0,2500.0,low=64,Abu Dhabi Company for Onshore Oil Operations,11279,26680
Voltas Limited,107976552,Po Box 25513,Abu Dhabi,26504511,http://www.voltas.com,,2450.0,not matched=0,,,
NMC Opticals,124754433,,Abu Dhabi,971-26332255,http://www.nmc.com,,2400.0,low=35,NMC Speciality Hospital / NMC Medical Trading,1544076,1272488
Gulf Contractors Company L.L.C.,42385907,PO Box 45363,Abu Dhabi,971-02 6267510,http://www.gcc.ae,6847899900.0,2400.0,high=87,Gulf Contractors Company,80302,27057
Abu Dhabi Marine Operating Company,123730292,Po Box 303,Abu Dhabi,26060000,,,2346.0,high=85,Abu Dhabi Marine Operating Company (ADMA OPCO),352797,29649
Arabian Construction Company SAL - Abu Dhabi,42385779,PO Box 2113,Abu Dhabi,971-02 6771225,http://www.accsal.com,1276800000.0,2300.0,low=62,Arabian Unigaz Abu Dhabi,1747810,3515694
Kelvin Catering Services (Emirates) Llc,122874181,Po Box 3210,Abu Dhabi,26734780,,,2300.0,high=95,Kelvin Catering Services (Emirates) LLC,1518624,227305
Pal Group Of Companies L L C,122940735,Po Box 34036,Abu Dhabi,28155555,,,2300.0,high=85,PAL Group of Companies LLC,1385948,1250487
Worley Parsons Engineering Pty Limited - Abu Dhabi,121850876,Po Box 44169,Abu Dhabi,26766439,,,2200.0,high=81,Worley Parsons Engineering Pty Ltd,339702,63340
Control and Applications Group,120010491,Po Box 3687,Abu Dhabi,971-2-6767-965,http://www.cagroup.ae,,2173.0,low=66,Control & Applications Technology Solutions,1304698,32365
Abu Dhabi Media Company PJSC,104146714,P.O.Box 63,Abu Dhabi,971-2-4144000,http://www.admedia.ae,5260500000.0,2098.0,high=79,ADMC (Abu Dhabi Media Company),1521159,52880
Abu Dhabi Media Company Pjsc,133363581,Po Box 63,Abu Dhabi,4144001,,,2000.0,high=79,ADMC (Abu Dhabi Media Company),1521159,52880
Western Bainoona Group For General Contracting - Llc,122190613,Po Box 44252,Abu Dhabi,25513222,,,2000.0,low=60,Western Bainoona Group (WBG),327585,30887
S N C Lavalin International,122873344,Po Box 54130,Abu Dhabi,26445561,,,2000.0,low=58,SNC Lavalin,308583,27684
Abu Dhabi Judicial Department,123278882,P.O. Box 84,Abu Dhabi,26512222,http://www.adjd.gov.ae,,2000.0,high=100,Abu Dhabi Judicial Department,954146,549194
Emirates Telecommunication Corp Ltd,51373208,PO Box 3838,Abu Dhabi,971-2-6283333,http://www.etisalat.ae,48766875000.0,2000.0,high=78,Emirates Telecommunications Corporation - Etisalat,389949,27747
Alsa Engineering & Construction Company Llc,122190616,Po Box 54294,Abu Dhabi,26581551,,,2000.0,low=47,Alsa Apollo Kitchens International,1742949,3391447
Automatic System Corporation,92460731,Po Box 5297,Abu Dhabi,25511111,http://www.ascorpuae.com,,2000.0,low=56,Abu Dhabi Systems Integration (ADSI),1026344,224332
Emirates Holdings Co.,42385864,PO Box 984,Abu Dhabi,971-02 6447373,http://www.emiratesholdings.com,1110100000.0,2000.0,high=89,Emirates Holdings,186764,27704
Ghantoot Transport & General Contracting L.L.C.,122459681,Po Box 27557,Abu Dhabi,26413388,,,2000.0,medium=72,Al Rafeh Transport and General Contracting Est.,343597,63943
Emirates Aluminum Company Limited P J S,122895537,Po Box 111023,Abu Dhabi,25092222,,,2000.0,low=62,Emirates Insurance Company P.S.C,980350,3035713
Abu Dhabi - Flight Catering Company - L L C,122920946,Po Box 3167,Abu Dhabi,25757571,,,2000.0,medium=70,Abu Dhabi In-flight Catering,1385898,3394454
Agthia Group PJSC,51487650,PO Box 37725,Abu Dhabi,971-2-5960600,http://www.agthia.com,1655067000.0,2000.0,low=42,Al Agthia Al Libnania,1497731,3460790
Bin Jabr Fire Fighting & Safety Equipment Co. - Llc,122895544,Po Box 46711,Abu Dhabi,26418284,,,2000.0,low=63,Emirates Fire Fighting Equipment Factory LLC,1507463,3453722
Thales Geosolutions Overseas,122873529,Po Box 8625,Abu Dhabi,25554817,,347850010.0,2000.0,low=46,MI Overseas,910390,2626410
Al Jaber Trading L L C,123253308,Po Box 2175,Abu Dhabi,5559559,,,2000.0,medium=70,Al Jaber Group LLC,21232,89867
Gulf Dunes Landscaping & Agricultural Services L.L.C.,136967197,,Abu Dhabi,971-2-6677288,http://www.gdlandscapeu.ae,,2000.0,high=86,Gulf Dunes Landscaping and Agricultural Services Company,478900,88941
Ghantout Transporting & General Contracting Establishment,122480700,Po Box 27557,Abu Dhabi,26413388,,,2000.0,low=45,Desert Man General Transporting,1500201,3459023
Insulco Emirates Establishment,123278626,Po Box 103,Abu Dhabi,25500025,,34557301.0,2000.0,low=62,Emirates Autism Center,1526767,3472564
Consolidated Contracting Engineering & Procurement Co.-Sal Offshore,123280606,Po Box 224,Abu Dhabi,26276500,,,2000.0,low=53,CCC - Consolidated Contractors Co.,261580,53435
Abu Dhabi Company For Onshore Oil Operations (Adco),123730294,Po Box 270,Abu Dhabi,26040000,,,1900.0,high=91,Abu Dhabi Company for Onshore Oil Operations,11279,26680
Mohammed Bin Masaood and Sons,42385977,PO Box 322,Abu Dhabi,971-02 6722300,http://www.masaood.com,1038000000.0,1900.0,medium=74,Mohammed Kharafi and Sons,972292,1309909
Keo International Consulants - Abu Dhabi,123262648,Po Box 27594,Abu Dhabi,24173000,,,1900.0,high=75,KEO International Consultants,1485130,29473
National Corp. for Tourism and Hotels,44600284,"Airport Road,",Abu Dhabi,971-2-4099999,http://www.ncth.com,781336910.0,1845.0,high=80,National Corporation for Tourism & Hotels NCTH,1002492,32609
Massar Solutions PJSC,140114203,7th Floor Tower 2,Abu Dhabi,971-2-5075000,http://massarsolutions.ae,478810000.0,1813.0,low=63,ACE Solutions BPO,1568817,3483149
Ranya General Construction,122940150,Khalifa Street,Abu Dhabi,26773063,,,1800.0,high=88,Ranya General Construction CO LLC,92804,23783
Abu Dhabi Oil Refining Company,48261561,,Abu Dhabi,971-26027001,http://www.takreer.com,5489799800.0,1800.0,low=69,Abu Dhabi Vegetable Oil Company,336049,66121
Abu Dhabi Municipality,123158228,Po Box 263,Abu Dhabi,26788888,http://adm.gov.ae,,1800.0,high=100,Abu Dhabi Municipality,972293,3038549
Abu Dhabi Polymers Co. Ltd,48960728,"Borouge Tower, Shaikh Khalifa Energy Complex Corniche Road",Abu Dhabi,971-2-6070300,http://www.borouge.com,671900020.0,1700.0,high=84,Abu Dhabi Polymers Co. Ltd (Borouge),573650,28324
Al Dhafra Irigation Systems - L L C,123217429,Po Box 127519,Abu Dhabi,26428812,,,1600.0,low=67,Intuitive Systems - L L C,943390,551524
Etihad Airport Services - Catering L.L.C.,123158209,Airline Catering Building Abu Dhabi International Airport,Abu Dhabi,25757428,,,1600.0,low=56,Baguette Catering L.L.C,1479766,3449243
Abu Dhabi Airport Services,42385714,PO Box 94449,Abu Dhabi,971-02 5757032,http://www.adac.ae,853299990.0,1520.0,low=62,Abu Dhabi Airport Company (ADAC),1673068,87387
Abu Dhabi Marine Operating Company,42385731,,Abu Dhabi,971-26060000,http://www.abudhabimargroup.com,4313700200.0,1504.0,high=85,Abu Dhabi Marine Operating Company (ADMA OPCO),352797,29649
New Marketing & Trading Co Llc,122896036,Po Box 6222,Abu Dhabi,26734300,,,1500.0,low=52,Kenzi Marketing SXolution House,311686,86267
Clientsoft Technology L L C,121848231,Po Box 41777,Abu Dhabi,6216868,,,1500.0,medium=72,Concrete Technology LLC,1708311,62862
Technip France,92461395,Po Box 7657,Abu Dhabi,26116000,http://www.technip.com,,1500.0,low=67,Technip,53997,26561
UAE Exchange Centre LLC,121745515,,Abu Dhabi,971-43537378,http://www.uaeexchange.com,,1500.0,low=54,Epta UAE Technical Services L.L.C,1575440,3484741
Hadeed Emirates Contracting (L.L.C),122874190,Salam Street Behind Salam Hospital,Abu Dhabi,26713416,,,1500.0,high=94,Hadeed Emirates Contracting LLC,1524364,29489
Mousa Industrial Company (Minco),122044252,Po Box 47190,Abu Dhabi,26664227,,,1500.0,high=78,Mousa Industrial Co (MINCO),132664,80792
Al Falah Readymix Factory Llc,123280589,Po Box 35090,Abu Dhabi,25511006,,,1500.0,low=51,Al Falahi General Services,358347,93384
Transco Abu Dhabi Transmission & Despatch Company,133363770,Po Box 173,Abu Dhabi,26414000,,,1500.0,medium=74,Abu Dhabi Transmission & Despatch Co. ( TRANSCO),49997,27104
National Health Insurance Company - Daman - Pjsc,123284547,Po Box 128888,Abu Dhabi,26149555,,,1500.0,high=76,Daman National Health Insurance Company,310588,81473
National Food Products Company Milco WLL,95527444,PO Box 2403,Abu Dhabi,971-2-5582808,http://www.milcodairy.com,2291200000.0,1500.0,low=51,Tablez Food Company,1511793,3467474
ADMAK General Contracting Company W.L.L.,42385749,,Abu Dhabi,971-2-6264626,http://www.makahara.net,951799990.0,1500.0,low=63,Pivot Engineering & General Contracting Co WLL,1442347,29598
National Marine Dredging PSC,42386017,"Mussafah Industrial Area,",Abu Dhabi,971-2-5130000,http://www.nmdc.com,1629204000.0,1487.0,high=87,National Marine Dredging Company,1597139,31464
First Gulf Bank PJSC,42385885,PO Box 6316,Abu Dhabi,971-2-6816666,http://www.fgb.ae,9261826200.0,1454.0,high=100,First Gulf Bank PJSC,488,27148
Abu Dhabi Company for Onshore Oil Operat,42385719,Abu Dhabi Co fr Onshr Oil Oprtns Bldg,Abu Dhabi,971-2-6040000,http://www.adco.ae,8684700200.0,1450.0,high=95,Abu Dhabi Company for Onshore Oil Operations,11279,26680
National Catering Company Llc,123058796,Shiekh Mohammed Bin Butti Al Hamed Building Khalidiyah,Abu Dhabi,26345151,,,1400.0,low=51,Al Bandar Catering,1468010,3432131
Al Habtoor Specon Hastie International Jv (Hsh),123098476,Po Box Procurrement Manager,Abu Dhabi,566037922,,,1400.0,not matched=0,,,
Almansoori Specialized Engineering,42385969,PO Box 3374,Abu Dhabi,97128157000,http://www.almansoori.biz,756000000.0,1400.0,high=96,Al Mansoori Specialized Engineering,1530156,54327
Tristar Transport & Contractng,122047946,Po Box 918,Mussafah,25553437,,120000000.0,1400.0,high=92,Tristar Transport and Contracting,1588345,29525
Emirates Technical Associates L.L.C.,122874207,Po Box 3532,Abu Dhabi,26937222,,,1399.0,low=65,Emirates Float Glass L.L.C,644450,535577
Abu Dhabi Commercial Bank PJSC,42385720,PO Box 939,Abu Dhabi,971-2-6962297,http://www.adcb.com,7855222200.0,1366.0,high=90,Abu Dhabi Commercial Bank ADCB,246670,31488
Petroleum Services Company - Esnaad - P J S,122373484,Po Box 46121,Abu Dhabi,26029000,,,1355.0,low=28,ESNAAD (Abu Dhabi Drilling Chemicals and Products),649750,60091
Larsen & Toubro Limited - Ecc Construction Group - Abu Dhabi,123167912,Po Box 30803,Abu Dhabi,26729136,,,1300.0,low=52,Larsen and Toubro Limited,957296,3031841
Nael Energy & General Enterprises Establishment - Abu Dhabi Branch,122143897,Po Box 2045,Abu Dhabi,26776757,,,1300.0,low=54,Al Sultan Engineering Consultancy Bureau - Abu Dhabi Branch,881446,58075
Readymix Beton Establishment,42386052,Po Box 3610,Abu Dhabi,26337580,http://www.readymixbeton.com,,1300.0,low=36,Ghantoot Group - Bin Mehran Readymix Concrete,1527062,93310
Al Fahim,42385881,Al Fahim Group Building,Abu Dhabi,971-2-6567000,http://www.alfahim.com/,,1300.0,medium=73,Al Fahim Group,11187,29570
Abu Dhabi Islamic Bank PJSC,43871889,Abu Dhabi Islamic Bank Building,Abu Dhabi,971-2-6100000,http://www.adib.ae,4632240200.0,1228.0,high=90,Abu Dhabi Islamic Bank,1489939,90771
Parsons International Limited,92460815,Po Box 5498,Abu Dhabi,26142416,http://www.parsons.com,,1215.0,low=58,Parsons Corporation,134315,28501
Royal Garden Agricultural Contracting Company,123228862,Opposite Star Cement Factory,Abu Dhabi,25500822,,,1213.0,low=57,Gulf Dunes Landscaping and Agricultural Services Company,478900,88941
Zakum Development Company,42386124,PO Box 46808,Abu Dhabi,+9712-6050000,http://zadco.ae/en/Pages/default.aspx,5776200200.0,1200.0,low=63,Zadco Zakum Development Company / شركة تطوير حقل زاكوم,1545852,27639
Bin Salem Group - L L C,133363592,Po Box 7969,Abu Dhabi,24122222,,,1200.0,medium=70,Bin Salmeen Group,1484068,3450645
Hyundai Engineering & Construction Company,120010398,Po Box 46101,Abu Dhabi,26432865,http://www.en.hdec.kr,,1200.0,low=56,hyundai engineering,1417597,1295858
Siemens LLC,46490318,PO Box 47015,Abu Dhabi,971-26165100,http://w1.siemens.com,769200010.0,1200.0,high=78,Siemens,394849,3121740
The Kanoo Group,42385951,Po Box 245,Abu Dhabi,971-2-677-4444,http://www.kanoogroup.com,,1200.0,not matched=0,,,
Danway Abu Dhabi,42385849,Near Neopharma,Abu Dhabi,971-2-5994444,http://www.danwayllc.com,347500000.0,1200.0,not matched=0,,,
Agencies & Trading Company,121842832,Po Box 27599,Abu Dhabi,26948384,,,1200.0,low=44,Medik Trading Agencies Estb.,23,89530
Dhabia Trading Establishment,121843546,Po Box 4875/4192,Abu Dhabi,6904555,,,1200.0,low=46,Dhabian security Consultancy services,10279,27627
Electrical Centre,122153217,Po Box 4037,Abu Dhabi,26722400,,,1200.0,low=68,MAM Electrical Cont. Est,1488685,3457927
Southern Franchise Company (L.L.C),121851586,Po Box 44145,Abu Dhabi,42868878,,,1200.0,high=79,SFC Group / Southern Franchise Company LLC,1525492,31582
Dodsal Engineering And Construction Pte. Limited - Abu Dhabi,123167645,Po Box 701,Abu Dhabi,24093812,,,1193.0,not matched=0,,,
Engineering Maintenance Co.mpany EMCO,42385873,PO Box 3532,Abu Dhabi,971-02 6340600,http://emcouae.com,734099980.0,1150.0,low=63,Emmet Machining and Maintenance Co. LLC,1741161,3512380
Abu Dhabi National Energy Company PJSC,50779454,Al Maryah Island,Abu Dhabi,971-2-6914900,http://www.taqaglobal.com,27325000000.0,1119.0,medium=70,Abu Dhabi National Energy - ADNE - Taqa,894842,612373
Galfar Engineering & Contracting -W L L- Uae,123282638,Po Box 72218,Abu Dhabi,25502515,,258000000.0,1100.0,low=46,Guthrie UAE Engineering L.L.C.,1240350,3381033
Ali and Sons Contracting Company L.L.C.,42387135,PO Box 2153,Abu Dhabi,971-02 5546611,http://asc.ali-sons.com,,1100.0,low=59,Ali and Sons Interiors,351402,91726
A B J Industries P J S C,122044422,Po Box 26831,,25130522,,,1100.0,low=65,RAF OIL Industries LLC,1685553,3509662
Aldar Properties PJSC,92498670,"Al Raha Beach,  51133",Abu Dhabi,971-2-8105555,http://www.aldar.com,6551078100.0,1062.0,low=47,AlDar Copy Bureau,1537170,3476385
Xervon Industrial Services L.L.C.,123046236,Po Box 47616,Abu Dhabi,5587159,,,1060.0,low=65,Al Nasser Industrial Ent. L.L.C.,792251,563654
Saaed For Traffic Systems - L L C,121849462,Po Box 113966,Abu Dhabi,25563333,,,1027.0,low=63,Alliance Traffic Systems,1674020,3502635
Abu Dhabi General Transport Co.,42708422,PO Box 493,Abu Dhabi,971-02 5555700,,2855800000.0,1000.0,low=69,Al Asab General Transport and Contracting,1171249,3336197
ESNAAD,42385722,,Abu Dhabi,971-26029000,http://www.esnaad.com,429500000.0,1000.0,low=21,ESNAAD (Abu Dhabi Drilling Chemicals and Products),649750,60091
China Petroleum Engineering & Construction Corporation-Abu Dhabi,123262652,Po Box 127345,Abu Dhabi,26789991,,,1000.0,high=87,China Petroleum Engineering & Construction Corporation (CPECC),1342610,3375374
Seidco General Contracting Company - L L C - Abu Dhabi,123158203,Po Box 44072,Abu Dhabi,26766635,http://www.seidco.net,,1000.0,medium=71,Seidco General Contracting LLC,1518618,23894
NMC Special Medical Services,124754328,,Abu Dhabi,971-26332255,,,1000.0,high=76,The Health Medical Services,1519766,3470077
Combined Group Contracting Co (K.S.Cc) - Alain,122940152,Po Box 112364,Abu Dhabi,26121999,,,1000.0,high=78,Combined Group Contracting Company,1537165,3476188
Abu Dhabi National Oil Company (Adnoc),123156938,Po Box 898,Abu Dhabi,6020000,,,,medium=72,Abu Dhabi Vegetable Oil Company,336049,66121
Kawader Services,121396064,Najda St 11th Fl - Abu Dhabi Islamic Bank Bldg,Abu Dhabi,971-26100900,http://www.kawader.ae,,1000.0,low=47,Kawader HR Consultancy,1037995,3038497
Khalidiyah Intersystems Company -L L C,121851757,Po Box 46554,Abu Dhabi,26665337,,,1000.0,high=77,Khaldia Intersystems LLC,471599,28232
Electrolux Maintenance & Commercial Services Ltd,122048050,Tourist Club Area,Abu Dhabi,6764200,,,1000.0,low=57,(GULF) Abu Dhabi Supplies & Commercial Services,61600,26667
Technip Abu Dhabi,121662729,31-29 st muroor road holiday day inn,Abu Dhabi,971-26116000,,,1000.0,low=58,Technip,53997,26561
Abu Dhabi Investment Authority,102157216,PO Box 3600,Abu Dhabi,971-2-4150000,http://www.adia.ae,618000000.0,1000.0,high=92,Abu Dhabi Investment Authority ADIA,927841,28402
NMC Hearing Care Centre,124754331,Airport Road Corner Elektra,Abu Dhabi,971-26332255,,,1000.0,low=64,NWB Home Health Care Center,1561711,3482052
Oil & Gas Construction Llc,123058503,Po Box 53266,Abu Dhabi,25500300,,138000000.0,1000.0,low=66,Oil and Gas Construction Company (OGASCO),1460421,296614
Abu Dhabi Authority For Culture And Heritage,123262646,Po Box 2380,Abu Dhabi,26215300,,,1000.0,high=78,Abu Dhabi Culture and Heritage,965342,3036330
Beach Rotana Hotel and Towers,42385717,Po Box 45200,Abu Dhabi,971-02 6979071,http://www.rotana.com,,1000.0,low=62,Rotana Hotels,1480279,26810
Al Taif Technical Services PJSC,111192695,Dusit Thani Complex Offices Tower,Abu Dhabi,971-2-4185500,http://www.altaif.ae,,1000.0,high=91,Al Taif Technical Services,513900,310273
"Smith International Inc.,",122967251,Po Box 47080,Abu Dhabi,25553700,,,1000.0,not matched=0,,,
Sunshine Tours,121417286,Abu Dhabi National Hotels,Abu Dhabi,971-4446856,,,1000.0,low=47,houseoftours.com,1485970,3453135
Global Aerospace Logistics - Llc,123227528,Po Box 128628,Abu Dhabi,5567556,http://www.gal.ae,,,high=88,"Global Aerospace Logistics, LLC.",1517298,3402606
Al Nasser Industrial Enterprises LLC,100971497,"Falcon Towers, 11th Floor,",Abu Dhabi,971-2-5059160,http://www.anieuae.com,912200010.0,1000.0,high=82,Al Nasser Industrial Ent. L.L.C.,792251,563654
Gulf Piping Company W L L,133360944,Po Box 2739,Abu Dhabi,25553395,,,1000.0,high=86,Gulf Piping Company,151665,27174
Mabani Delma General Contracting Co (L.L.C),122895663,Po Box 692,Abu Dhabi,26775949,,,1000.0,low=50,Delma Laboratory For Soil & Construction Material Inspection L.L.C,1527364,3115818
Technical Supplies And Service Co - Tssc,122895662,Investment Park,Abu Dhabi,26768748,,,1000.0,low=61,Petroland Technical & Specialized Services,1315750,1295716
Wadi Zuhoor General Contracting & Maintenance - L L C,122044449,Al Mussaffah Commercial,Abu Dhabi,501820049,,,1000.0,low=61,CIRTA electro Mechanical Contracting Maintenance,1503968,3457148
William Hare U A E - L L C,122044205,Po Box 9838,Abu Dhabi,25510444,,,1000.0,low=43,Al Wafi Shares Center LLC,1401327,3336276
Bin Ham Electrical & Mechanical Installations Company - W L L,122896042,Po Box 46844,Abu Dhabi,24444050,,,1000.0,low=69,Bin Ham Electro Mechanical Ent Co LLC,878345,549123
Union National Bank PJSC,42386106,PO Box 3865,Abu Dhabi,971-2-6741600,http://www.unb.co.ae,3510590100.0,968.0,high=88,Union National Bank,4338,29539
Amb Hertel - L L C,122044234,Po Box 113955,Abu Dhabi,25501644,,,950.0,low=46,Amber Real Estate,1734115,3513951
Valentine Maritime( Gulf) L.L.C.,127936603,Po Box 45877,Abu Dhabi,5555868,,,900.0,high=92,Valentine Maritime Gulf LLC,87607,27115
Site Technology Limited Company,121882662,Po Box 44942,Abu Dhabi,26346900,http://www.site-technology.com,,900.0,low=67,Falcon Eye Technology Company,1463160,92150
Senaat Co,42385895,Etihad Towers 3,Abu Dhabi,971-2-6144444,http://www.ghc.ae/,7343899900.0,900.0,low=31,SENAAT (General Holding Corporation),1696996,32602
Farah Leisure Parks Management - L L C,122044387,Po Box 128717,Abu Dhabi,6964444,,,850.0,high=76,Farah Leisure Parks Management (Ferrari World),1474537,3335494
Al Foah Company - L L C,123229934,Po Box 18454,Abu Dhabi,34170400,http://www.alfoah.ae,,818.0,low=47,Al Foah,422600,93300
U.T.S Kent - L L C,123227554,Po Box 34826,Abu Dhabi,24013200,,110000000.0,817.0,not matched=0,,,
Toledo Electrical & Mechanical Works Company - L L C,122044257,Po Box 43542,Abu Dhabi,25550999,,,800.0,low=69,Al Aberah Electrical & Mechanical Works Est.,1560405,313693
Butec .Co . Abudhabi Bransh,123262650,Po Box 109829,Abu Dhabi,24439869,,,800.0,low=62,Butec Abu Dhabi,1099599,3125165
United Printing & Publishing - Llc,123284555,Po Box 39955,Abu Dhabi,25039860,,,800.0,low=57,BIRTH Advertising and Publishing LLC,1479889,3449241
Park Inn Yas Isand Hotel,122044430,Po Box 93725,Abu Dhabi,26562222,,,800.0,low=54,The Yas Hotel,1475732,3373411
"Hanna Shaikh Holding Company, L.L.C.",122044198,Po Box 693,Abu Dhabi,26772309,,,800.0,not matched=0,,,
Mission General Services - Llc,122044194,Po Box 38093,Abu Dhabi,,,6613599.8,800.0,low=41,ADmission Communications,1587874,3433775
Petrofac Emirates LLC,111088230,PO Box 9398,Abu Dhabi,971-2-8104000,http://www.petrofac.com,226102200.0,800.0,high=78,PF Emirates LLC,1484074,3034701
Aldar Sorouh Properties PJSC,138507073,PO Box 51133,Abu Dhabi,971-2 8105555,http://www.aldar.com,1783552700.0,794.0,low=43,Sorouh Real Estate,727551,59929
Johnson Controls International - L L C - Abu Dhabi,123284554,Po Box 32905,Abu Dhabi,6262773,,,781.0,not matched=0,,,
Dorsch Holding Gmbh - Abu Dhabi,50089960,Po Box 26417,Abu Dhabi,26721923,http://www.dorsch.ae,,770.0,low=67,Dorsch Holding Group,829101,91290
Spinneys Abu Dhabi LLC,42386083,PO Box 243,Abu Dhabi,971-2-5563643,http://www.spinneys-dubai.com/,850700010.0,754.0,not matched=0,,,
Contracting & Trading Company - C A T,42385839,Po Box 250,Abu Dhabi,26417460,http://www.catgroup.net,,750.0,not matched=0,,,
Bainounah Power Company,92461560,,Abu Dhabi,971-26731100,http://www.bpc.ae,,750.0,low=68,Taweelah Asia Power Company,316937,57097
Litwin Pel Co - Llc,133363773,Po Box 44715,Abu Dhabi,25070100,,,722.0,low=57,Litwin PE,817501,26938
Litwin PEL LLC,111088165,44715 Mussaffah,Abu Dhabi,971-2-5070100,http://www.litwinme.ae,,722.0,high=78,Litwin PE,817501,26938
Alpha Data L.L.C.,48584162,PO Box 45384,Abu Dhabi,971-02 6333644,http://www.alpha.ae,,700.0,medium=74,Alpha Data,125117,27025
Contracting And Trading Company,122874200,Po Box 250,Abu Dhabi,26417460,,,700.0,not matched=0,,,
Beijing Construction Engineering Group Company - Abu Dhabi,123262651,Po Box 127363,Abu Dhabi,46740001,,,700.0,low=35,Jangho Group / J and H Emirates LLC (Beijing Jangho Curtain Wall Co. Ltd.),1514624,614494
Universal Voltas L L C,133363586,Po Box 25513,Abu Dhabi,26338920,,,700.0,low=56,Universal Group of Companies,293072,83060
Securigaurd Middle East - L L C,123249958,Po Box 73696,Abu Dhabi,26426667,,,700.0,not matched=0,,,
The Yas Hotel,120029889,Po Box 131808,Abu Dhabi,6560000,http://www.theyashotel.com,,700.0,high=100,The Yas Hotel,1475732,3373411
Al Rahba Hospital,123228877,Po Box 34555,Abu Dhabi,25064034,,,700.0,high=94,Al Rahba hospital,1244103,3383665
Abu Dhabi Ship Building PJSC,42708423,P.O. Box 8922,Abu Dhabi,971-2-5028000,http://www.adsb.ae,700979980.0,688.0,low=49,Al Qabdah Building Contracting L.L.C.,1416473,3116338
Al Theeb Electrical & Mechanical Materials Trading - L L C,123109589,Po Box 25599,Abu Dhabi,25547636,,,670.0,low=63,Al Aberah Electrical & Mechanical Works Est.,1560405,313693
Abu Dhabi Aviation,42385715,Abu Dhabi International Airport,Abu Dhabi,971-2-5758000,http://www.abudhabiaviation.com/,1611413000.0,653.0,low=60,Aeuroala Aviations FZC,483799,306164
Liwa Trading Enterprises L.L.C.,42385964,PO Box 45326,Abu Dhabi,971-02 6329600,http://www.liwastores.com,678299990.0,620.0,low=53,Liwa Trading Services - Al Nasser Holding,1504023,86608
National Projects & Construction - L L C,107377822,Po Box 7856,Abu Dhabi,25097200,http://www.npcuae.com,,600.0,low=58,Glamour International Turnkey Projects Contracting,1699306,3509041
Sts Abu Dhabi Electro-Mechanical Company,123278874,Po Box 111123,Abu Dhabi,24488891,,,600.0,low=69,EFECO - Abu Dhabi (Emirates Falcon Electromechanical Company),1578141,3486679
Gulf Piping Company WLL,103597501,PO Box 2739,Abu Dhabi,971-02 5553395,http://www.imcc.ae,315700010.0,600.0,high=90,Gulf Piping Company,151665,27174
Agility ( Abudhabi ) Pjsc,123730649,Po Box 93971,Abu Dhabi,5099599,,,600.0,low=47,Agility Global Integrated Logistics,1494112,3473218
Experts Computer Consultants - L L C,122044247,Po Box 54867,Abu Dhabi,26765722,,,600.0,low=65,Reach Group (Experts Computer Consulting),1552476,26692
International Metal and Construction Co.,96352919,PO Box 25156,Abu Dhabi,971-2 5553975,http://www.imcc.ae,794700010.0,600.0,high=83,Sabat International Metal Construction LLC,889642,615287
Al Jaber Precision Engineering Establishment,124579463,,Abu Dhabi,971-25020602,http://www.ajeprecision.com,,600.0,low=39,Al Jaber Group LLC,21232,89867
Reach Contracting & General Maintenance,122044224,Po Box 54867,Abu Dhabi,26765722,,,600.0,high=76,Al Ghafran Contracting and General Maintenance Est.,1596859,3492213
Zener Electrical & Electronics Services L.L.C.,121851736,Po Box 3905,Abu Dhabi,25585285,,,600.0,high=87,Zener Electrical and Electronics Services,349098,32018
Bam International Abu Dhabi - Llc,123158206,Po Box 47100,Abu Dhabi,26444100,,,600.0,not matched=0,,,
United Printing & Publishing,133363578,Po Box 39955,Abu Dhabi,25039999,,,595.0,low=60,Afkar Advertising and Publishing,1465216,76501
Petrofac-Gs Joint Venture,122940144,Po Box 9398,Abu Dhabi,28104289,,,580.0,low=65,Restaurant Venture,1114802,3452102
Gulf Marine Services PLC,111192644,Mussafah Base,Abu Dhabi,971-2-5028888,http://www.gmsuae.com/,196554000.0,573.0,high=88,Gulf Marine Services co.,883290,53798
Abu Dhabi Pipe Factory - L L C,123730648,Po Box 4526,Abu Dhabi,25821600,,,550.0,low=47,APCC - Al Dhafra Pipeline & Contracting Co WLL,328984,58194
Astraco Construction - L L C,121881517,Po Box 46370,Abu Dhabi,26343433,,,550.0,high=83,Astraco Construction,255971,55696
Central Bank of The United Arab Emirates,42385828,P.O.Box 854,Abu Dhabi,971-2-6652220,http://www.centralbank.ae,2735000000.0,530.0,low=69,"Presidential Flight, United Arab Emirates",1613757,25393
Arkan Building Materials Company PJSC,95896176,PO Box 40307,Abu Dhabi,971-2-6666724,http://www.arkan.ae/,751797000.0,527.0,medium=71,Mahrajan Building Materials Trading LLC,1484768,3452083
Al Reyami Steel Industries,123109593,Po Box 45873,Abu Dhabi,25512588,,,525.0,high=75,Emirates Steel Industries,1497454,3383670
National Media Council,120029874,P.O. Box 3790,Abu Dhabi,24044333,http://www.abudhabi.ae,,501.0,medium=70,Higher National Security Council,1467241,3440662
Thomas Cook Al Rostamani Company L L C,121882691,Po Box 261,Abu Dhabi,26727500,,,500.0,low=27,Camel Cookies,1579618,3485803
Euro Mechanical & Electrical Contractors Ltd.,42385876,PO Box 46153,Abu Dhabi,971-26781133,http://www.euromechanical.com,,500.0,low=63,Al Naser Electrical Constructions Est.,1569368,3488794
Abu Dhabi National Foodstuff Company - W L L,123114707,Po Box 2378,Abu Dhabi,26731000,,,500.0,low=67,Foodco Holding (Abu Dhabi National Foodstuff Co),446749,27910
Al Otaiba and Garg Contracting Company Ltd.,48609190,PO Box 43089,Abu Dhabi,971-02 6274936,,274600010.0,500.0,low=51,Al Otaiba Advocates & Legal Consultants,890890,565633
Engineering Maintenance Company-Emco,133363591,Po Box 3532,Abu Dhabi,26340445,,,500.0,low=56,Emmet Machining and Maintenance Co. LLC,1741161,3512380
Voltas Ltd,122882504,Po Box 25513,Abu Dhabi,24457882,,,500.0,not matched=0,,,
Maf Hypermarkets Llc - Abu Dhabi Branch,122044202,Po Box 4933,Abu Dhabi,26817100,,,500.0,low=67,Mac Al Gurg - Abu Dhabi Branch,1740269,3514348
Al Mariah United Co.,42385971,"PO Box 206, Hamdan St.",Abu Dhabi,971-02 6771741,http://www.almariah.com,144000000.0,500.0,high=86,Al Mariah United Group,1558310,3450886
Compass Camea Fze,122044427,P O Box 46806,Abu Dhabi,24494769,,,500.0,low=37,Base Control Tech FZE,1517315,3387299
Future Pipes Industrial Company - W L L,122781994,Po Box 29205,Abu Dhabi,26270008,,,500.0,low=66,Folcra Beach Industrial Company,261470,80422
Control Contracting & Trading Company Pvt Ltd,122882371,Po Box 46089,Abu Dhabi,25548000,,45262299.0,500.0,medium=73,Control Contracting and Trading Co. (Pvt.) W.L.L. (CCTC),290420,56183
Abu Dhabi Oilfield Services Establishment,42385741,PO Box 4015,Abu Dhabi,971-2 6344441,http://www.adosuae.com,1783000000.0,500.0,not matched=0,,,
Industrial Development Company Llc (Al Tanmiya Industrial C,122895540,Po Box 37388,Abu Dhabi,25500785,,,500.0,low=50,Emirates Development Industrial Co . Ltd (EDICO),1341803,57346
International Turnkey Systems L.L.C. - Dubai,42386977,PO Box 7087,Abu Dhabi,971-04 3972220,http://www.its.ws,236899990.0,500.0,low=60,Glamour International Turnkey Projects Contracting,1699306,3509041
Arabian Castles General Contracting & Maintenance Establishment,123229939,Po Box 3930,Abu Dhabi,26214678,,,500.0,low=61,Al Ghafran Contracting and General Maintenance Est.,1596859,3492213
Supervision Committee For Expansion Of The Abu Dhabi International Airport,121851670,Po Box 38811,Abu Dhabi,25095000,,,500.0,low=52,Fujairah International Airport,1484945,3451983
Al Tafseer Contracting & General Maintenance Company - W L L,122895550,Po Box 47804,Abu Dhabi,26419805,,,500.0,medium=72,Al Ghafran Contracting and General Maintenance Est.,1596859,3492213
Schlumberger Middle East S.A.,96352922,PO Box 21,Abu Dhabi,971-02 6333600,http://www.slb.com,1327100000.0,500.0,high=98,Schlumberger Middle East S.A,145368,24130
Dorsch Consult Abu Dhabi,125631532,Salam Street,Abu Dhabi,971-26721923,http://www.dorsch.com,,500.0,medium=72,KHP Consulting - Abu Dhabi,1743864,3513949
Al Masaood Oil Industry Supplies & Services Co.,42385979,,Abu Dhabi,971-26267666,http://www.almasaoodoiss.com,,500.0,high=87,Al Masaood Oil Industry Supplies & Services Company (MOISS),360002,93754
Mabani,42386050,PO Box 692,Abu Dhabi,971-02 6775949,http://www.mabani.org,277899990.0,500.0,not matched=0,,,
Emirates Motor Co.,92028287,,Abu Dhabi,971-2-444-000,http://www.emc.mercedes-benz.com,1164400000.0,500.0,low=67,Emirates Computers,14880,26774
Target Engineering Construction Company - L L C,123730290,National Bank Of Umm Al Quwain Building Hamdan Road,Abu Dhabi,26714700,http://www.target.ae,,500.0,low=41,Target Electrical,266822,80512
Al Madina Group Of Establishments,123167911,Po Box 4148,Abu Dhabi,26795999,,,500.0,low=44,Al Madina Medical Center for Specialty Clinic LLC,1731830,3509717
Al Ain Dairy,48584155,Al Ain Dairy Farm Building,Abu Dhabi,971-3-7832111,http://www.alaindairyuae.com/,1425200000.0,500.0,medium=70,Al Ain Mall,1467015,91281
Future Pipes Industrial Company - W L L,122783147,Po Box 29205,Abu Dhabi,26270008,,,500.0,low=66,Folcra Beach Industrial Company,261470,80422
Injazat Data Systems,95677002,"Mohamed Bin Zayed City,  8230, Z-23",Abu Dhabi,971-2-6992700,http://www.injazat.com/,253800000.0,500.0,high=100,Injazat Data Systems,1495129,308444
Al Bawardi Computer Est,123109133,Po Box 4118,Abu Dhabi,6346999,,,500.0,medium=73,Al Garbiyah Computers,1461834,3434242
Orient Contracting Company WLL,42386035,PO Box 348,Abu Dhabi,971-02 6276761,http://www.adcecogroup.com,200399990.0,500.0,high=87,Orient Contracting Co LLC,1544657,3033054
International Turnkey Systems L.L.C.,42385941,PO Box 7087,Abu Dhabi,971-02 6726111,http://www.its.ws,237200000.0,500.0,low=60,Injazat Data Systems LLC,500650,3515257
Neopharma LLC,92509504,Neopharma Building,Abu Dhabi,971-2-5501000,http://www.neopharma.ae/,,500.0,not matched=0,,,
Al Jazira Sports And Cultural Club,123228873,Po Box 2750,Abu Dhabi,4454455,,,500.0,low=47,Al jazira Hotel & Resorts,282624,56601
Support Services & Catering Company L.L.C,121840536,"Khalefa Hareb Al Khalili Building Um Al Nar ,Corniche Street",Abu Dhabi,25585274,,,450.0,low=56,Baguette Catering L.L.C,1479766,3449243
Foresight Heavy Machinery Equipments Trading - L L C,122189654,Po Box 128288,Abu Dhabi,25508088,,,450.0,low=56,Europe Machinery Equipment,296280,84065
Hi Tech Concrete Products L.L.C.,122048038,Po Box 5151,Abu Dhabi,25501220,http://www.hitechad.ae,,450.0,low=54,Qtes - Technology Enabled Solutions L.L.C.,367349,95038
Abu Dhabi Coating Enterprises L.L.C.,48609236,PO Box 2603,Abu Dhabi,971-02 5559136,http://www.imcc.ae,162600010.0,450.0,low=40,Al Marzouqi & BinSalem Fire Fighting Coatings LLC (MBS),1058396,183786
Intergulf General Contracting - L L C,122189620,Po Box 514,Abu Dhabi,26274180,,,440.0,not matched=0,,,
Global Process Systems Llc,123230005,Po Box 107176,Abu Dhabi,25822233,,,440.0,low=62,Global Intelligent Systems,128766,27041
Le Royal Meridien - Abu Dhabi,120029908,Po Box 45505,Abu Dhabi,26742020,http://www.leroyalmeridien-abudhabi.com,,435.0,low=41,Royal Green Flowers and Plants LLC,1736308,3510647
Trans Gulf Ready Mix Concrete - L L C,122485705,Po Box 9009,Abu Dhabi,25511777,,,430.0,high=82,TransGulf Ready Mix Concrete Company,219219,27840
Time Electro & Contracting Company W L L,122048020,Po Box 70148,Abu Dhabi,26788621,,,430.0,low=63,Hi Electromechanical Contracting LLC,1667763,3499796
Abu Dhabi J & P - L L C,123158214,Po Box 2536,Abu Dhabi,6221533,,,421.0,not matched=0,,,
Gulf Specialized Mechanical and Engineering Services Company L.L.C.,48284254,PO Box 8865,Abu Dhabi,971-02 5552855,http://www.imcc.ae,233399990.0,420.0,low=59,Gulf Dunes Landscaping and Agricultural Services Company,478900,88941
Lulu Centre - L L C,122145304,Po Box 4048,Abu Dhabi,24182000,,,414.0,low=42,Lluludi Flower Shop,1637620,3495237
MDS UAE Holdings,42385990,PO Box 7899,Abu Dhabi,971 (2) 6276354,,864900020.0,400.0,low=44,UAE Royal Family,1736014,3509892
Booz And Company - Middle East,92460889,Adcb Building 8Th Floor Office 801 Salam Street,Abu Dhabi,26992400,http://www.booz.com,,400.0,not matched=0,,,
Emirates Float Glass LLC,121419842,,Abu Dhabi,971-25994000,http://www.dubaiinvestments.com,,400.0,high=96,Emirates Float Glass L.L.C,644450,535577
Bin Hamoodah Trading and General Services,48609183,"14th Floor, Bin Hamoodah Tower, Sheikh Khalifa Street",Abu Dhabi,971-2 6276600,http://www.bht.ae,115200000.0,400.0,low=51,Bin Hamoodah Group,1636804,3425582
Crowne Plaza Hotel Yas Island,123284568,Po Box 41880,Abu Dhabi,26563000,,,400.0,low=43,The Yas Hotel,1475732,3373411
Al Mutawa Marine Work L L .C,136878285,Po Box 46100,Abu Dhabi,25552800,,,400.0,low=62,Blue Marine Computers L.L.C,1619665,3494492
Al Reem General Trading & Representation Of Companies Establishment,123108846,Po Box 3984,Abu Dhabi,26722356,,,400.0,low=38,Reem Emirates Aluminum (Part of Trojan Holding Group),1164650,3125438
Al Ghaith Oil-Field Supplies & Services Company Limited,123249959,Po Box 268,Abu Dhabi,25553422,,,400.0,low=67,Al Masaood Oil Industry Supplies & Services Company (MOISS),360002,93754
Alba Tech Construction & Development Llc,122044383,Po Box 52134,Abu Dhabi,26266654,,,400.0,low=69,Orient House Construction and Development,1492662,1261633
African & Eastern Company (Near East) L L C,121882649,Po Box 32520,Abu Dhabi,26771763,,39000000.0,400.0,low=51,Finan Middle East Contracting L.L.C,1733811,3509054
Abu Dhabi Precast L L C,123262645,Po Box 38605,Abu Dhabi,25501033,,,400.0,low=50,Gulf Precast Concrete Co.,46001,27071
Abu Dhabi National Indust Projects Co,111192682,PO Box 25905,Abu Dhabi,971-2-5500577,http://www.adnip.com/,223000000.0,400.0,high=84,Abu Dhabi National Industrial Projects (ADNIP),778751,27995
Cape East LLC,42385825,14 Al Mussafah,Abu Dhabi,971-02 5555199,http://www.capeplc.com/cape/pages/contactus/regionalcontacts/regionalgulf,222000000.0,400.0,low=57,OilExec MiddleEast LLC,1455550,3125507
Al Ruwais Industrial Gases Company - L L C,42386059,Al Ruwais Industrial Gases Company Street 10 And 12; Mussafah In,Abu Dhabi,25553809,http://www.eigco.com,,400.0,low=60,Folcra Beach Industrial Company,261470,80422
Gulf Air,42385904,Po Box 573,Abu Dhabi,26323741,http://www.gulfairco.com,,400.0,low=59,Gulf  NYK,683251,551303
Al Ghurair Iron & Steel - L L C,122895535,Po Box 106065,Abu Dhabi,26593400,http://www.agis.ae,,400.0,low=48,Al Doun Steel Work Shop,821501,566613
Asmak Seafood Processing Co. LLC,136809643,Delma Island Western region,Abu Dhabi,971-2-8782161,,,400.0,low=47,Liwa Center for Dates Processing and Trading,1406102,3397479
Enerflex Middle East Ltd. - Abu Dhabi,123278930,Po Box 48294,Abu Dhabi,24430015,,,400.0,not matched=0,,,
Ghobash Trading and Investment,100971512,PO Box 47233,Abu Dhabi,971-02 6447111,http://www.ghobash.com,3470500000.0,400.0,not matched=0,,,
Al Fahad Smart Systems,123227527,Po Box 59519,Abu Dhabi,25565800,,,400.0,medium=74,Smart Systems,84955,23848
National Technical Services Co. Llc,123278884,Po Box P O Box 32571,Abu Dhabi,,,,400.0,medium=71,Epta UAE Technical Services L.L.C,1575440,3484741
Gulf Diagnostic Centre Hospital - W L L,92461009,Po Box 30702,Abu Dhabi,26658090,http://www.gdc-hospital.com,,400.0,high=86,Gulf Diagnostic Center Hospital,1455447,29161
Bin Hamoodah Company L.L.C.,50095781,PO Box 203,Abu Dhabi,971-02 6276600,http://www.binhamoodah.ae,910599980.0,400.0,low=67,Bin Hamoodah Group,1636804,3425582
Booz & Company (M E) Ltd - Abu Dhabi,123278935,Po Box 43754,Abu Dhabi,26992400,,,400.0,not matched=0,,,
Al Firas General Contracting,123278878,Po Box 4490,Abu Dhabi,26669600,,150000000.0,400.0,high=100,Al Firas General Contracting,1417255,3413925
Gulf Ready Mix,123098467,Po Box 8556,Abu Dhabi,25511117,,,400.0,high=76,Delta Ready Mix,1590512,3489879
United Arab Bank - Abu Dhabi,123114576,Po Box 3562,Abu Dhabi,6275000,,,396.0,low=65,Arabian Unigaz Abu Dhabi,1747810,3515694
Abu Dhabi Sheraton Hotel,123114574,Po Box 640,Abu Dhabi,26773333,,96000000.0,390.0,not matched=0,,,
Itm O&M Company Limited - Abu Dhabi,123249951,Po Box 46421,Abu Dhabi,25582700,,,386.0,low=46,Advanced Recruitment Services Abu Dhabi,1696586,3502815
Halliburton Worldwide Limited - Abu Dhabi,92511725,Po Box 57,Abu Dhabi,26942200,http://www.halliburton.com,,385.0,low=44,Aquarius Worldwide FZE,1589284,3475424
MERCURY INTERNATIONAL ELECTRO-MECHANICAL CONTRACTING LLC,122044450,Office 1204 Emirates National Investment Building Dalma Street,Abu Dhabi,971-2-4438300,,,385.0,low=20,Emirates Electromechanical and Industry LLC,902040,2625701
Al Fahad Electrical Systems L.L.C.,122970704,Po Box 59519,Abu Dhabi,25565800,,,380.0,low=60,Power House Electricals L.L.C,1546105,3478543
White Aluminium Enterprises - L L C,122873526,Po Box 30665,Abu Dhabi,25500830,,,370.0,high=85,White Aluminium Enterprise,268280,80532
Al Mansoori Specialized Engineering Company - Llc,135836350,Po Box 3374,Abu Dhabi,26776335,,,368.0,high=83,Al Mansoori Specialized Engineering,1530156,54327
Thales Advanced Solutions - L L C,122895667,Po Box 5254,Abu Dhabi,6421133,,,360.0,medium=70,C4 Advanced Solutions,1056708,101544
Ruwais Fertiliser Industries FERTIL,42386058,PO Box 2288,Abu Dhabi,971-02 6021111,http://www.fertil.com,355200010.0,360.0,high=77,Abu Dhabi Fertilizer Industries (ADFERT),460549,52850
Al Fujairah Asia Power . Co- Psc-,122482850,Po Box 110865,Abu Dhabi,24918098,,,350.0,low=57,Taweelah Asia Power Company,316937,57097
Australian Piling Technology Co. Llc,122044412,Al Najda Street,Abu Dhabi,6341127,,,350.0,low=58,International engineering Technology,262874,59165
Emke Store,122922253,Po Box 4048,Abu Dhabi,26732131,,,350.0,low=52,Avenue Superstore,1542504,3477508
Al Gurg Building Services,123257601,Po Box 4938,Abu Dhabi,26721244,,,350.0,low=47,Mac Al Gurg - Abu Dhabi Branch,1740269,3514348
Abu Dhabi Refreshmets Company - L L C,123262661,Po Box 996,Abu Dhabi,24447234,,,350.0,not matched=0,,,
Tecnimont S P A,121851696,Po Box 51120,Abu Dhabi,26450988,,,350.0,not matched=0,,,
Electromechanical Company - L L C,46490064,Po Box 732,Abu Dhabi,26262800,,,350.0,high=84,Electromechanical Co LLC,1697359,3503018
Fibrex - Llc,122471366,Po Box 462,Abu Dhabi,25511462,,,350.0,low=67,Fibrex,335348,29573
Ed Zublin Ag,121851689,Po Box 28708,Abu Dhabi,26344039,,,350.0,not matched=0,,,
Gulf Industrial Services Company,42385908,PO Box 46625,Abu Dhabi,971-2-4067888,http://www.gisco-uae.com/,45599998.0,350.0,low=68,Gulf Contractors Company,80302,27057
Saipem Abu Dhabi,123249947,Po Box 47117,Abu Dhabi,26989898,,,350.0,not matched=0,,,
Weir Engineering Services Company Llc,92683084,Po Box 4752,Abu Dhabi,25554108,http://www.wescouae.com,74000000.0,350.0,not matched=0,,,
Le Meridien Hotel Abu Dhabi,42385986,Tourist Club Area,Abu Dhabi,971-02 6446666,http://www.lemeridien-abudhabi.com,779000000.0,350.0,not matched=0,,,
Emke Store,122787017,Po Box 4048,Abu Dhabi,6421800,,,,low=52,Avenue Superstore,1542504,3477508
Al Jaber Shipping Agency & Marine Works,123119070,Mussafah Next to Mina Mussafah,Abu Dhabi,971-25554300,http://www.ajshipping.com,,350.0,low=53,Al Aberah Electrical & Mechanical Works Est.,1560405,313693
Mohammed Al Quebaisy  Enterprises L.L.C,122874203,Po Box 2333,Abu Dhabi,26423999,,,350.0,low=52,Mohammed Al Fandi Al Mazroui General Trading Est.,50601,28109
Tebodin Middle East Ltd.,42386094,PO Box 2652,Abu Dhabi,971-02 4066000,http://www.tebodin.com,62092999.0,350.0,high=88,Tebodin Middle East,158668,26598
Hyder Consulting Middle East Ltd.,42385748,Po Box 2774,Abu Dhabi,971-02 6333400,,100000.0,341.0,high=98,Hyder Consulting Middle East Ltd,103414,29436
Honeywell Middle East Company Limited Abu Dhabi,123730650,Po Box 45595,Abu Dhabi,44505800,,,340.0,not matched=0,,,
Emirates Cement Factory,42385755,"17th floor, Prestige Tower, Mohammed Bin Zayed City",Abu Dhabi,971-2-6666724,http://www.arkan.ae,352000000.0,340.0,medium=70,Teba Cement Factory LLC,1748724,3515930
Abu Dhabi Petroleum Ports Operating Company,42385743,,Abu Dhabi,971-26028000,http://www.irshad.ae,1205400000.0,338.0,high=81,Abu Dhabi Petroleum Ports Operating Company (IRSHAD) ex. ADPPOC,49198,27103
UTS Carrier L.L.C.,42386115,PO Box 3977,Abu Dhabi,971-02 6724243,http://www.carrieruae.com,156000000.0,330.0,not matched=0,,,
Al Mansouri Wireline Services Company - L L C,123249942,Po Box 3374,Abu Dhabi,25554134,,96129997.0,328.0,not matched=0,,,
Foodco Holding PJSC,43871885,FOODCO Holding Building,Abu Dhabi,971-2-6731000,http://www.foodco-uae.com,151435590.0,326.0,low=48,Foodco Holding (Abu Dhabi National Foodstuff Co),446749,27910
Gulf Star Commodities,123229958,Po Box 27608,Abu Dhabi,226420700,,,325.0,low=63,Gulf Computers,268574,80538
Al Masaood Bergum W L L,123084619,Po Box 322,Abu Dhabi,26742100,,,320.0,high=85,Al Masaood Bergum,1204703,23759
Jamal Al Nuaimi General Contracting Llc,122044266,Po Box 42158,Abu Dhabi,224459949,,128000000.0,320.0,not matched=0,,,
Adyard Abu Dhabi L.L.C.,42385967,PO Box 7604,Abu Dhabi,971-02 5547722,http://www.topazworld.com,,320.0,not matched=0,,,
National Marine Services Co.,138909884,PO Box 7202,Abu Dhabi,971-02 6029500,,,320.0,high=77,Gulf Marine Services co.,883290,53798
Electra Abu Dhabi L.L.C.,51575146,PO Box 121,Abu Dhabi,971-02 6778077,http://www.electra.ae,37500000.0,312.0,high=89,Electra Abu Dhabi W.L.L,1459813,235509
Crowne Plaza Abudhabi,133363758,Po Box 3541,Abu Dhabi,22610000,,,310.0,low=27,Abudhabi Airport Catering and DutyFree,994393,281454
C C C Under Water Eng.S.A.L Shj.Br.,122873889,Po Box 224,Abu Dhabi,25553656,,,310.0,low=36,Riviere Water Company,255078,29507
Al Bawardi Group,42385806,PO Box 4118,Abu Dhabi,971-2 6815957,http://www.ae.ae,113600000.0,300.0,low=65,Emdad LLC ( Al Bawardi group ),277470,29204
Dhafir Group of Cos.,42385853,PO Box 62192,Abu Dhabi,971-02 6774670,http://dhafirgroup.com,166500000.0,300.0,low=45,Dhafir Development and contracting LLC,346452,30617
Al Hasoun Sejong Electromechanical Establishment,122881338,Po Box 34974,Abu Dhabi,25500301,,,300.0,low=61,Link In Advanced For Electromechanical & General Maintenance Establishment,1597079,3492434
Concorde Trading Company L.L.C.,42385835,PO Box 2617,Abu Dhabi,971-2 6668770,http://www.concordeuae.com,112000000.0,300.0,not matched=0,,,
United Carrier Company - L L C,123227550,Po Box 3977,Abu Dhabi,26724243,,6290000.0,300.0,low=52,United Eastern Group,8715,89378
Technical Supplies & Services Company - L L C,122882405,Po Box 410,Abu Dhabi,26447912,,65000000.0,300.0,low=60,Al Masaood Oil Industry Supplies & Services Company (MOISS),360002,93754
D G Jones and Partners Limited - Abu Dhabi,42385949,P.O. Box 631,Abu Dhabi,971-02 6725999,http://www.dgjonesworld.com,390299990.0,300.0,not matched=0,,,
Crowne Plaza Abu Dhabi,42385925,"PO Box 3541, Sheikh Hamdan St.",Abu Dhabi,971-02 6210000,http://www.ichotelsgroup.com,664200010.0,300.0,not matched=0,,,
Al Seer Marine Supplies & Equipment Company - L L C,123109588,Po Box 33639,Abu Dhabi,25511336,,,300.0,low=55,Al Masaood Oil Industry Supplies & Services Company (MOISS),360002,93754
Hotel Inter-Continental Abu Dhabi,92461033,PO Box 4171,Abu Dhabi,971-2 6666888,http://www.ihg.com/intercontinental/hotels/gb/en/reservation,667799990.0,300.0,not matched=0,,,
General Womens Union,122940734,Karama,Abu Dhabi,24475333,,,300.0,low=61,Chart General Construction,920640,1226249
Euro Mechanical Instrument Services L L C,122873515,Po Box 4615,Abu Dhabi,26766412,,,,low=59,Electro Mechanical Company LLC,254370,29229
Falcon Aviation Services Llc,122895549,Po Box 62030,Abu Dhabi,24448866,http://www.falconaviation.ae,,300.0,high=76,Falcon Aviation Services / Corporation,1176353,550854
Al Faris International Heavy Equipment Rental,123227556,Po Box 106003,Abu Dhabi,25554701,,,300.0,low=65,SOS International Mechanical Equipment,1731188,3426113
Al Ghazal Transport Co.,124754563,,Abu Dhabi,971-24447228,http://www.adsh.com,,300.0,high=88,Al Ghazal Transport Company,1582390,3401833
Alas Emirates Ready Mix,122873882,Po Box 47679,Abu Dhabi,25828802,,,300.0,low=67,Emirates Belbadi,346449,91356
Grand Stores,42385901,,Abu Dhabi,971-26312100,http://www.grandstores.com,338399990.0,300.0,low=39,"Grand Duchy of Luxembourg, Embassy",1551908,3479451
WESCO Abu Dhabi,42386119,Coriniche St Mussafah Industrial Area,Abu Dhabi,971-25554108,http://www.wescouae.com,108600000.0,300.0,low=12,"Midwesco Filter Resources, Inc (MFRI)",1181399,3336309
Al Jaber Carpentry & Decor L.L.C,124718388,,Abu Dhabi,971-25547075,http://www.aljaber.com,,300.0,low=60,Al Jaber Group LLC,21232,89867
New York University In Abu Dhabi Corporation - Abu Dhabi,123278872,Po Box 129188,Abu Dhabi,26284000,,,300.0,low=66,New York University Abu Dhabi (NYU),1204298,3391967
Fathima Supermarket Wll,122376002,Po Box 4710,Abu Dhabi,24433490,,400000000.0,300.0,medium=72,Star Supermarket,1462667,3435635
"Al Ahlia Oil-Fields Development Co., Owned By Al Ahlia Gen Trading Co Pvt Ltd.",123262659,Po Box 4033,Abu Dhabi,25553555,,,300.0,low=47,Dhafir Development and contracting LLC,346452,30617
Cebarco - Wct - W L L - Abu Dhabi,123262654,Po Box 127717,Abu Dhabi,25013433,,,300.0,not matched=0,,,
Serco-IAL Limited,121402656,Abu Dhabi Islamic Bank Building Najda Street,Abu Dhabi,971-26335547,,,300.0,not matched=0,,,
Fabtech Abu Dhabi - L L C,123158207,Po Box 42287,Abu Dhabi,25500167,,,300.0,not matched=0,,,
Al Otaiba Group of Establishments,42386037,PO Box 467,Abu Dhabi,971-02 4443333,,,300.0,low=53,Al Otaiba Advocates & Legal Consultants,890890,565633
Arabian Industrial Gas Company - L L C - Abu Dhabi,123262660,Po Box 30242,Abu Dhabi,26320620,,,300.0,low=57,Arabian Unigaz Abu Dhabi,1747810,3515694
Gulf & Safa Dairies Co. L.L.C - Abu Dabi,123257651,Po Box 2422,Abu Dhabi,25582441,,,300.0,low=57,Al Sharia Hotel - Abu Dhabi,281026,54147
Delight Cleaning Services Est,122374166,Po Box 71535,Abu Dhabi,6789216,http://www.delightcleaning.com,,300.0,low=65,Green Mountains Cleaning Services,1328799,3388511
Spaceage Electrical Switchgear Company Co Wll,123284567,Po Box 43693,Abu Dhabi,25500150,,,300.0,low=61,Electrical Lighting Company,883841,91743
Matrix Construction,121881591,Po Box 46370,Abu Dhabi,26341575,,36262299.0,300.0,low=41,"Matrix Trading, Clearing and Forwarding",11583,53897
Corrpro Companies Middle East,123249934,Al Nasser Street,Abu Dhabi,26391100,,,300.0,not matched=0,,,
Civil Power General Contracting - L.L.C,122044240,Po Box 3514,Abu Dhabi,26678812,http://www.cpcemirates.ae,,300.0,medium=74,Civiltech General Contracting Co. - llc,954191,1281660
Galva Coat Galvanizing & Lighting Poles,121882593,Po Box 8485,Abu Dhabi,25511188,,,300.0,low=45,Electrical Lighting Company,883841,91743
Sahari Trading And Importing Est,121881435,Po Box 687,Abu Dhabi,26445899,,60000000.0,300.0,low=55,"Cleanco Trading, Importing & Services Establishment",1298398,58079
Al Raha Gardens Property LLC,121396663,,Abu Dhabi,971-26964444,,,300.0,low=51,Al Raha Beach Hotel,1467246,93795
Professional Security Systems,122088644,First Zayed Road Khalidiya,Abu Dhabi,26350087,,,297.0,medium=71,Progress Security And Safety Systems,1458503,3430654
Arab Bank for Investment & Foreign Trade,42385773,PO Box 46733,Abu Dhabi,971-2-6721900,http://www.arbift.com,743338010.0,293.0,low=49,VAP Offshore Engineering and Trade FZE,1289450,1193139
Khatib and Alami - Abu Dhabi,42385956,PO Box 2732,Abu Dhabi,971-02 6662885,http://www.khatibalami.com,103500000.0,292.0,low=60,Khatib and Alami Engineering Consulting,1416950,53761
"Rolf Jensen & Associates, International, Inc",121849424,Al Ghaith Holding Tower Airport Road,Abu Dhabi,24146663,,,280.0,low=53,"Carter Goble Associates, Inc",1591595,95154
Al Diar Gulf Hotel and Resort,138909898,PO Box 73837,Abu Dhabi,971-02 4414777,http://www.southtravels.com/middleeast/uae/abudhabi.html,598799990.0,269.0,medium=70,Al jazira Hotel & Resorts,282624,56601
Arab Bank PLC-Abu Dhabi,42385774,PO Box 875,Abu Dhabi,971-02 6392225,http://www.arabbank.ae,,267.0,low=68,Arabian Unigaz Abu Dhabi,1747810,3515694
Total Abu Al Bu Khoosh S.A.,42386102,11th Floor East Tower Abu Dhabi Mall Tourist Club Area,Abu Dhabi,971-2-6986666,http://www.tabka.ae,747400020.0,260.0,high=83,Total Abu Al Bukhoosh,1500991,3381331
Hilton International Al Ain,42385924,PO Box 1333,Al Ain,971-03 7686666,http://www.hilton.com,578700010.0,260.0,low=64,Al Ain International Group,613199,53009
Abu Dhabi National Insurance Co. PSC,42385735,PO Box 839,Abu Dhabi,971-2-6264000,http://www.adnic.ae,1588133100.0,257.0,not matched=0,,,
Union Pipes Industry - L L C,123229957,Po Box 9650,Abu Dhabi,25500102,,697804690.0,250.0,low=65,National Glass Industry LLC,1481997,3450531
Chateau Building Materials,120010787,P.O. Box 94684,Abu Dhabi,26423226,http://www.chateaubp.com,,250.0,high=100,Chateau Building Materials,1470762,3444122
Mubadala Development Company PJSC,98725639,PO Box 45005,Abu Dhabi,971-2-4130000,http://www.mubadala.com,32661227000.0,250.0,low=50,Mubadala GE Capital,1547853,3457583
Al Jaber Protective Coating L.L.C.,124718393,,Abu Dhabi,971-25541050,http://www.aljaber.com,,250.0,low=58,Al Jaber Group LLC,21232,89867
Anticorrosion Protective Systems L.L.C.,42385770,PO Box 4705,Abu Dhabi,971-02 6722894,http://www.aps-corporate.com,159700000.0,250.0,low=59,Intuitive Systems - L L C,943390,551524
National Gas Shipping Company Ltd. (NGSCO),42386015,Sheikh Khalifa Energy Complex,Abu Dhabi,971-26028600,http://www.adnatcongsco.com,,250.0,low=62,Abu Dhabi National Tanker Co. / National Gas Shipping Company (ADNATCO NGSCO),95063,3446961
White Rose Tradind,122635893,Po Box 4330,Abu Dhabi,26342555,,35000000.0,250.0,low=41,The Victorian Rose Beauty and Spa Center,1597112,3491188
Emirates Steel Industries,92500563,PO Box 9022,Abu Dhabi,971-02 5072144,http://www.esi-steel.com,572700010.0,250.0,high=100,Emirates Steel Industries,1497454,3383670
Aldar Laing O'Rourke Plant Llc,120029920,Po Box 110800,Abu Dhabi,25566246,,55000000.0,247.0,low=44,Royal Green Flowers and Plants LLC,1736308,3510647
Abu Dhabi Motors L.L.C.,92460754,PO Box 46468,Abu Dhabi,971-02 5588000,http://www.alhamid-group.com,461100010.0,243.0,low=61,Abu Dhabi Motors / Al Hamid Group,1474117,3335027
United Alsaqer Group of Cos.,42385918,PO Box 46468,Abu Dhabi,971-02 6981111,http://www.alsaqergroup.com,188600010.0,243.0,low=67,United Eastern Group,8715,89378
Aloft Abu Dhabi Hotel,120000134,Po Box P.O.Box 5546,Abu Dhabi,26545000,http://www.aloftabudhabi.com,,235.0,not matched=0,,,
Gulf Steel Industries Company Ltd.,100971498,PO Box 9054,Abu Dhabi,971-02 5510098,http://www.anieuae.com,241800000.0,230.0,low=59,Gulf Contractors Company,80302,27057
Al Sultan Cement Factory (Adic),120012262,Po Box 8423,Abu Dhabi,25824110,http://www.alsultanfactory.com,,225.0,low=63,Teba Cement Factory LLC,1748724,3515930
United Arab Bank PJSC - Abu Dhabi,42386107,PO Box 3562,Abu Dhabi,971-02 6275000,http://www.uab.ae,9996700200.0,223.0,low=60,Arabian Unigaz Abu Dhabi,1747810,3515694
Emirates Driving Company PJSC,92499770,"Street no. 17, Mussafah Industrial Area,",Abu Dhabi,971-2-5027100,http://www.edcad.ae/,199855190.0,221.0,high=91,Emirates Driving Company,1091351,3123271
Al Jaber Steel Products L.L.C.,124718386,,Abu Dhabi,971-25020705,,,220.0,low=67,Al Jaber Group LLC,21232,89867
International Fish Farming Holding Co,51347617,"Silver Wave Tower, Unit 404, Meena Road,",Abu Dhabi,971-2-6448090,http://www.asmak.biz,299087010.0,218.0,not matched=0,,,
Novotel Centre Hotel,42386028,PO Box 47136,Abu Dhabi,971-02 6333555,http://www.novotel.com,438299990.0,206.0,not matched=0,,,
British Embassy,92460871,Khalid Bin Al Waleed Road,Abu Dhabi,26344216,http://www.ukinuae.fco.gov.uk,,201.0,high=100,British Embassy,1639825,3495533
Embassy Of Islamic Republique Of Iran,92460855,P.O. Box 4080,Abu Dhabi,24447618,http://www.iranembassy.org.ae,,201.0,low=47,zayed house islamic culture,1590748,3375701
Embassy Of Eritrea,92460910,P.O. Box 2597,Abu Dhabi,26331838,,,201.0,not matched=0,,,
Embassy Of Bahrain,92460907,P.O. Box 3367,Abu Dhabi,26657500,,,201.0,not matched=0,,,
Embassy Of Sri Lanka,92460923,P.O. Box 46534,Abu Dhabi,26426666,http://www.srilankaembassyuae.com,,201.0,low=30,Yousef AlAnkar Trading Est,2576,26577
Embassy Of Belgium,92460849,P.O. Box 3686,Abu Dhabi,26319449,http://www.diplomatie.be,,201.0,low=29,Belgium Electromechanical Works,1500916,3469289
Embassy Of Switzerland,92460924,P.O. Box 46116,Abu Dhabi,26274636,http://www.eda.admin.ch/uae,,201.0,not matched=0,,,
Japan Embassy,92460857,Manaseer Al-Batenyia Street No. 26 From Al-Nahyan Street,Abu Dhabi,24435696,http://www.uae.emb-japan.go.jp,,201.0,not matched=0,,,
Embassy Of Bosnia & Herzegovina,92507441,P.O. Box 43362,Abu Dhabi,26444164,http://www.bhmc.ae,,201.0,not matched=0,,,
Embassy Of Spain,92460922,P.O. Box 46474,Abu Dhabi,26269544,http://www.maec.es,,201.0,not matched=0,,,
Embassy Of Algeria,92460904,P.O. Box 3070,Abu Dhabi,24448949,http://www.mae.dz,,201.0,not matched=0,,,
Embassy Of The State Of Qatar,92460870,P.O. Box 3503,Abu Dhabi,24493300,http://www.embassyconsulates.com,,201.0,low=48,Emirates Real Estate Corp,920993,1299494
Holiday Inn - Abu Dhabi,120029817,Po Box 48111,Abu Dhabi,4454777,http://www.holidayinn.com/abudhabi,,200.0,low=51,Holiday Travel & Tourism,256572,31869
Abu Dhabi Oil Company Ltd.,42385740,PO Box 630,Dubai,971-2 6661100,http://www.cosmo-oil.co.jp,573599980.0,200.0,medium=74,Abu Dhabi Vegetable Oil Company,336049,66121
Nama Mott MacDonald LLC,121707182,Hamdaan Street No706 Algaith Twr,Abu Dhabi,971-26262966,,,200.0,medium=74,Mott MacDonalds,242124,29665
Athena Emirates LLC,126344148,PO Box 54008,Abu Dhabi,971-2-679-7666,http://www.athena-sa.gr,,200.0,high=76,PF Emirates LLC,1484074,3034701
Taweelah Asia Power Company PSC,92461559,"Taweelah Power Complex,  32255",Abu Dhabi,971-2-5627000,http://www.tapco.ae/,,200.0,high=93,Taweelah Asia Power Company,316937,57097
Al Jaber Fusion-Bonded Epoxy Coating Plant,124754272,,Abu Dhabi,971-25541050,,,200.0,low=43,Al Jaber Group LLC,21232,89867
C & J Gulf Pipe Coating Est.,139494448,,Abu Dhabi,971-2-5553-453,http://www.cjengg.com,,200.0,low=55,Gulf Piping Company,151665,27174
Al Hashem Marble Co.,44040249,PO Box 941,Abu Dhabi,971-02 5515700,http://www.ahmc.ae,395500000.0,200.0,high=86,Al Hashem Marble Company,203268,26799
Velosi Certification Services L.L.C,121399702,No 201 & 205 Block B Abu Dhabi Bus Hub ICAD-1,Abu Dhabi,971-25502600,,,200.0,low=38,Velosi Group,252326,80336
Emircom,94184582,PO Box 34895,Abu Dhabi,971-02 6449088,http://www.emircom.com,84599998.0,200.0,high=100,Emircom,1487054,27508
Cebag Middle East L L C,92460764,Po Box 7125,Abu Dhabi,26730400,http://www.cebag.com,,200.0,not matched=0,,,
Precision Drilling Services Me Wll,50092982,Po Box 2146,Abu Dhabi,26747333,http://www.meintranet.wetherford.com,,200.0,low=48,Engineering Building Materials Co WLL,532899,28561
Abu Dhabi General Services - Musanada - P J S C,120011378,Po Box 3700,Abu Dhabi,24042222,http://www.musanada.co.ae,,200.0,low=29,Musanada,956746,3035550
Gulf Total Tractebel Power Company,98460545,Najda Street,Abu Dhabi,971-2-694-3333,http://www.adwea.ae,,200.0,medium=72,Gulf Contractors Company,80302,27057
Elenco General Trading Est,42385862,PO Box 103,Abu Dhabi,971-02 6778880,http://www.elenco.co.ae,57700001.0,200.0,low=47,Elenco Group,1496872,55523
Abu Dhabi Gas Liquefaction Limited,42385727,,Abu Dhabi,971-26061111,http://www.adgas.com,23993600000.0,200.0,low=60,Abu Dhabi Gas Industries Ltd (Gasco),1644260,23841
Giffin Graphics Company - W L L,122469191,Po Box 955,Abu Dhabi,26730555,,325000000.0,200.0,low=42,Leo Graphics,1476787,3447794
Securities & Commodities Authority,120011147,,Abu Dhabi,971-26277888,http://www.sca.ae,,200.0,low=62,Executive Affairs Authority,937990,3033782
Abu Dhabi National Co. for Build. Mater.,42385733,P.O. Box 2443,Abu Dhabi,971-2-6455500,http://www.bildco.ae,25277000.0,199.0,low=48,Chateau Building Materials,1470762,3444122
NMC Trading Services,124754459,,Abu Dhabi,971-26734300,http://www.nmct.ae,,185.0,low=34,NMC Speciality Hospital / NMC Medical Trading,1544076,1272488
Genipo Company Ltd.,42385896,PO Box 4126,Abu Dhabi,971-02 6445286,,101100000.0,182.0,not matched=0,,,
Gulf Paints and Adhesives Factory,44040250,"PO Box 15381, Industrial Area, Al Ain",Abu Dhabi,971-03 7212888,http://www.gulfpaints.com,135800000.0,180.0,high=94,Gulf Paints & Adhesives Factory,1416868,29133
"Mazroui Supplies, Contracts and Maintenance Est",42385984,PO Box 4265,Abu Dhabi,971-02 6723185,http://www.mscmest.com,100000000.0,180.0,low=63,Al Ghafran Contracting and General Maintenance Est.,1596859,3492213
Central Motors & Equipment LLC,42385944,,Abu Dhabi,971-2-554-6262,http://www.cmeuae.ae,230700000.0,180.0,low=66,Kelvin Electrical Equipment LLC,1486251,3453361
Western Motors LLC,121681497,Hamdan St,Abu Dhabi,971-25546333,http://www.alfahim.ae,,180.0,low=60,Viper Motors,1584025,3490579
Abu Dhabi Oil Company Limited (Japan) Adoc,123696041,PO Box 630,Abu Dhabi,971-26661100,,19061000000.0,175.0,low=58,Abu Dhabi Vegetable Oil Company,336049,66121
AssetCo UAE,121399047,,Abu Dhabi,971-25587707,,,172.0,low=56,Intertouch UAE,1624853,3506245
Emirates Data Clearing House,122895666,Po Box 17500,Abu Dhabi,508115450,,128292010.0,170.0,low=67,Emirates Taste Catering Services,1533311,3392244
"Inchcape Shipping Services, Abu Dhabi",42385732,PO Box 247,Abu Dhabi,971-02 4081593,http://www.iss-shipping.com,501000000.0,170.0,high=94,Inchcape Shipping Services Abu Dhabi LLC,1489536,226213
Abu Dhabi Travel Bureau,42385747,PO Box 278,Abu Dhabi,971-2 6338700,http://www.abudhabitravelbureau.com,405100010.0,160.0,low=56,AlBadi Travel Agency,1552757,3391493
The Bank of Baroda Ltd.-Abu Dhabi,42385795,PO Box 2303,Abu Dhabi,971-02 6330244,http://www.bankofbarodauae.ae,7428799800.0,160.0,low=61,The Office of The Brand of Abu Dhabi,1086747,3383677
Insulco Emirates L L C,92461068,Po Box 103,Abu Dhabi,25553855,http://www.insulco.co.ae,,158.0,medium=70,PF Emirates LLC,1484074,3034701
Al Ain Ahlia Insurance Co PSC,42385754,Al Ain Ahlia Insurance Company Building,Abu Dhabi,971-2-6119999,http://www.alaininsurance.com,262392000.0,151.0,low=54,Al Ain Plastic Industry,615849,542623
Bin Omair Building Maintenance,123228885,Po Box 25172,Abu Dhabi,26721127,,16000000.0,150.0,low=47,Bin Salem Holding,267573,80519
Reliance Infotech,121418085,Build 2,Abu Dhabi,971-26323296,http://www.nmc.ae,,150.0,low=64,Infotech,1510820,3466997
VINCI Construction Grands Projets (Abu Dhabi),125631425,12 - Al Omran Tower Tourist Club Area,Abu Dhabi,971-267-644-01,http://www.vinci.net,,150.0,not matched=0,,,
NATIONAL SHIPPING GULF AGENCY COMPANY (ABU DHABI) LTD. L.L.C.,42386022,Plot 211 Freeport Area,Abu Dhabi,971-2-673-0500,http://www.gac.com/abudhabi,379799990.0,150.0,low=38,GULF COAST ELECTRO MECHANICAL CO. W.L.L,1730895,3506769
Consolidated Contractors Company (Underwater Engineering) S A L - Abu Dhabi,122882418,Po Box 224,Abu Dhabi,5553656,http://www.cccuwe.ae,90000000.0,150.0,low=50,CCC - Consolidated Contractors Co.,261580,53435
Balfour Beatty (Abu Dhabi) Llc,92460741,Po Box 47770,Abu Dhabi,26767628,http://www.balfourbeatty.com,,150.0,not matched=0,,,
Boskalis Westminster Middle East Ltd.,42385814,"PO Box 4831, 19th Floor Al Mansoor Tower, Al Salam St.",Abu Dhabi,971-2 6447306,http://www.boskalis.com,130800000.0,150.0,medium=70,Boskalis Westminster,533001,102945
Arab Monetary Fund,42385777,PO Box 2818,Abu Dhabi,971-2 6171400,http://www.amf.org.ae,,150.0,high=100,Arab Monetary Fund,138370,28067
Cimel Abu Dhabi Co.,51094377,PO Box 2889,Abu Dhabi,971-02 6773963,http://www.forrestgroup.com,83300003.0,150.0,not matched=0,,,
Dar Al Binaa Contracting Co.,42385850,PO Box 201,Abu Dhabi,971-02 6391140,,83300003.0,150.0,medium=73,Dar Al Wad Construction LLC,1680525,3506094
Al Mazroui International Cargo Company L.L.C.,50664554,P.O. Box 2035,Abu Dhabi,971-02 6776096,,453200010.0,145.0,low=52,Al Mazroui Trading and General Services LLC,1737625,3511071
CEGELEC UAE,42385827,PO Box 47055,Abu Dhabi,971-02 6272680,http://www.cegelec.com,40500000.0,140.0,low=50,Cell City UAE,1729824,3507671
Tyco Fire and Security UAE L.L.C.,92461442,Po Box 3333,Abu Dhabi,971-02 6777776,http://www.tycofireuae.com,,139.0,low=52,German International Safety and Security LLC,1549177,3478999
City Pharmacy And Stores L L C,106238132,Po Box 2098,Abu Dhabi,22284969,http://www.citypharmacy.com,,135.0,low=60,City Pharmacy,805951,29495
Al Quebeisi S G B - L L C,42386047,Po Box 7574,Abu Dhabi,25554129,http://www.sgb.co.uk,,130.0,not matched=0,,,
Shuweihat C M S International Power,120029819,Po Box 32398,Abu Dhabi,26342480,http://www.ipplc.com,,130.0,low=58,MultiPower International,944794,3034407
Summit Trading Company - L L C,92461402,Po Box 2390,Abu Dhabi,26743100,http://www.summit.ae,,125.0,not matched=0,,,
Emirates Insurance Company P.S.C.,42385867,PO Box 3856,Abu Dhabi,971-2-6440400,http://www.eminsco.com,429240200.0,120.0,high=98,Emirates Insurance Company P.S.C,980350,3035713
Al-Mansoori 3B Construction,120012176,P.O. Box 399,Abu Dhabi,26785918,http://www.m3b.co.ae,,120.0,not matched=0,,,
PricewaterhouseCoopers - Abu Dhabi,42385841,"PO Box 45263, 9th Fl., E Twr., Abu Dhabi Trade Centre, Abu Dhabi Mall",Abu Dhabi,971-02 6946800,http://www.pwc.com,568799990.0,120.0,high=79,PricewaterhouseCoopers,50097,24088
Baniyas Building Materials Company L.L.C.,42385793,PO Box 3475,Abu Dhabi,971-2 6444477,http://www.bbmcgroup.com,,120.0,medium=70,Mahrajan Building Materials Trading LLC,1484768,3452083
Al Dhafra Insurance Company P.S.C.,42385854,Al Dhafra Insurance Company Building,Abu Dhabi,971-2-6721444,http://www.aldhafrainsurance.ae,230406600.0,115.0,low=52,Al Dhafra Private School,1570163,3479509
Al Sagar Engineering Company L.L.C.,42386062,PO Box 697,Abu Dhabi,971-2 6778700,http://www.alsagareng.com,63799999.0,115.0,high=89,Al Sagar Engineering Company,322535,60372
Dascam Consulting Limited - Abu Dhabi  Branch,121851691,Po Box 108664,Abu Dhabi,26656439,,70000000.0,115.0,low=64,Mac Al Gurg - Abu Dhabi Branch,1740269,3514348
Abu Dhabi National Paper Mill L.L.C.,98191436,PO Box 27683,Abu Dhabi,971-02 5501886,http://www.adnpm.ae,742500000.0,112.0,low=37,Al Watan Newspaper,1254949,90468
Emirates Western Petroleum Services,124718178,PO Box 8107,Abu Dhabi,971-26725637,http://www.ewpsco.ae,,110.0,medium=72,Emirates Taste Catering Services,1533311,3392244
Punj Lloyd Limited - Abu Dhabi,123249582,Po Box 28907,Abu Dhabi,26972222,,202000000.0,102.0,low=33,LLoyd and Co.,1510046,3466450
China Airlines,92461498,P.O. Box 346,Abu Dhabi,26264070,http://www.china-airlines.com,,101.0,medium=71,Midex Airlines,843951,608993
Fugro Survey (Middle East) Ltd.,92461215,,Abu Dhabi,971-2-554-7810,http://www.fugro-uae.com,15200000.0,100.0,high=80,Fugro Survey Middle East LTD (ADH),977543,1311921
Hyssna International,42385929,"PO Box 46641, European Exhibition Furniture, Electra Rd.",Abu Dhabi,971-02 6767525,http://www.hyssnauae.com,61799999.0,100.0,not matched=0,,,
Ernst and Young Abu Dhabi,42385874,PO Box 136,Abu Dhabi,971-02 6277522,http://www.ey.com,474000000.0,100.0,low=36,Young Victoria,1478494,3034952
Two Four 54 -Fz - L L C,122479747,Po Box 2454,Abu Dhabi,24012454,,,100.0,low=56,TwoFour54,1505629,3038753
Emirates Petrochemical Services Est,42385868,PO Box 44414,Abu Dhabi,971-02 6774545,,360000000.0,100.0,low=69,Emirates General Services Enterprises,32198,26989
Al Khazna Insurance Company PSC,43871887,PO Box 73343,Abu Dhabi,971-2-6969700,http://www.alkhazna.com,18029499.0,100.0,high=95,Al Khazna Insurance Company P.S.C.,1339242,3034857
Jotun Abu Dhabi (LLC),50084121,Mussafah Industrial Area West 4,Abu Dhabi,971-25510300,http://www.jotun.com,,100.0,not matched=0,,,
Brothers Electro-Mechanical Contracting Est,42385819,PO Box 43758,Abu Dhabi,971-2 6794499,http://www.joysgroup.com,27400000.0,100.0,high=76,Hi Electromechanical Contracting LLC,1667763,3499796
Arab African International Bank - Abu Dhabi,48584267,P.O. Box 928,Abu Dhabi,26323400,http://www.aaib.com,,100.0,low=63,Arabian Unigaz Abu Dhabi,1747810,3515694
Gulf Commercial Group Establishment,104248327,Po Box 43044,Abu Dhabi,6442999,http://www.gcg-es.com,15000000.0,100.0,low=57,S & B Commercial Investments,620950,546244
Praxair Gulf Industrial Gases LLC,44120541,4th Floor Office No 3 Al Wahda Commercial Tower Hazza Bin Zayed Street,Abu Dhabi,971-26437210,http://www.gigcl.ae,224800000.0,100.0,low=55,Al Nasser Industrial Ent. L.L.C.,792251,563654
Middle East Equipment & Trading,125631564,,Abu Dhabi,971-25559559,http://www.aljaber.com/en/Menu/Index.aspx,,100.0,low=51,Arabian Equipment Rental,1004296,56886
Folcra Beach Industrial Company LLC,121419846,,Abu Dhabi,971-25510888,http://www.dubaiinvestments.com,,100.0,high=94,Folcra Beach Industrial Company,261470,80422
Janata Bank Limited - Abu Dhabi,42385947,"Box 2630, Obeid Sayah Al-Mansuri Bldg., Electra Rd.",Abu Dhabi,971-02 6344542,http://www.janatabank-bd.com,4674600100.0,100.0,not matched=0,,,
Foodlands Restaurant,121418086,,Abu Dhabi,971-26330099,http://www.foodlands.com,,100.0,medium=70,Al Rowdha Restaurant,616449,542673
ABB Energy Automation S.p.A.,92460644,Al Ghaith Office Tower 15th Floor Hamdan Street,Abu Dhabi,971-26264062,http://www.mena.abb.com,,100.0,low=46,Spazio Design & Build International S.A.L.,805701,565053
Salem Travel Agency,97182833,"Murror Rd., Opp Madina Zayed Shopping Ctr.",Abu Dhabi,971-02 6218000,http://salemtravelagency.com,146899990.0,100.0,high=100,Salem Travel Agency,1262152,215760
Emirates Steel Establishment,123249709,Po Box 8975,Abu Dhabi,5511436,,11000000.0,99.0,medium=72,Emirates Steel Industries,1497454,3383670
Fanoy Gas - L L C,122044264,Po Box 46689,Abu Dhabi,26455227,,10000000.0,98.0,low=48,Dana Gas,589600,98225
Kaddas Oilfield Services and Trading Co.,42385950,PO Box 3808,Abu Dhabi,971-02 5510051,http://www.kostco.ae,76500000.0,95.0,not matched=0,,,
Weatherford Oil Tool Middle East Ltd.,124754592,Warehouse No 17 Roundabout No 5,Abu Dhabi,971-25544100,http://www.weatherford.com,,92.0,low=54,OilExec MiddleEast LLC,1455550,3125507
Euro Mechanical & Electrical Contracting Company - Llc,123284563,Po Box 46153,Abu Dhabi,26781133,,175000000.0,92.0,low=66,Creative Electrical and Plumbing Contracting Company,1468163,3442011
Talal Abu Ghazaleh & Company International - Abu Dhabi,104248332,Po Box P.O.Box4295,Abu Dhabi,26724425,http://www.tagorg.com,,90.0,low=62,Canadian International School Abu Dhabi,1734082,3501333
Masaood John Brown Ltd.,42385976,PO Box 322,Abu Dhabi,971-02 6418814,http://www.masaoodjohnbrown.com,66500000.0,90.0,low=54,Al Masaood / Mohammed Bin Masaood,170120,24074
Gulf Business Machines (GBM) L.L.C.,48609208,PO Box 37543,Abu Dhabi,971-26275165,http://www.gbm4ibm.com/,14200000.0,90.0,low=58,Gulf Business Centre,1541113,3477137
SNC-Lavalin Gulf Contractors LLC,50086514,Abu Dhabi Trade Center Bldg West Tower 4th Floor,Abu Dhabi,971-26440001,http://www.snclavalin.com,,90.0,low=64,Gulf Contractors Company,80302,27057
Al Khazna Insurance Company - Al Mussafah,123784237,Villa No 86 Opp Al Nahyan Campus Delma Street No 13,Abu Dhabi,971-26969700,http://www.alkhazna.com/,,88.0,high=75,Al Khazna Insurance Company P.S.C.,1339242,3034857
Abu Dhabi Fund for Development,42385725,PO Box 814,Abu Dhabi,971-2 6677100,http://www.adfd.ae,,85.0,high=100,Abu Dhabi Fund for Development,1235848,238416
Arab Development Establishment,120012189,Po Box 2761,Abu Dhabi,26447719,,,83.0,low=59,Development Enterprises Company,927647,215591
Bin Brook General Contracting,42385808,"PO Box 879, Baniyas St.",Abu Dhabi,971-02 5584888,http://www.binbrook.com,124400000.0,80.0,high=75,Bin Yameela General Contracting LLc,1465595,3439132
Gulf Capital PJSC,99413948,PO Box 27522,Abu Dhabi,971-26716060,http://www.gulfcapital.com,,80.0,low=60,Gulf Capital/ Gulf Related,648549,3335707
Mi Overseas,42385966,Po Box 4076,Abu Dhabi,26456677,http://www.miswaco.com,,80.0,high=91,MI Overseas,910390,2626410
Marjan Industrial Development Co.,42385710,Liwa Street,Abu Dhabi,971-26222114,http://www.alfahim.com/en/?T=1&ID=22,209800000.0,80.0,low=61,Baniyas Investment and Development Company,1546907,3383773
Gulf Technical Construction Company L.L.C,121707374,Electra St,Abu Dhabi,971-48112300,http://www.gulftcc.com,,80.0,low=65,Gulf Contractors Company,80302,27057
National Telesystems & Services - L L C,92461208,Po Box 46787,Abu Dhabi,26763500,http://www.binjabr.com,,80.0,not matched=0,,,
New Mix Ready Mix Industry - L L C,123098459,Po Box 33252,Abu Dhabi,25516660,,97000000.0,78.0,low=56,National Glass Industry LLC,1481997,3450531
National Engineering Services & Trading Company- L.L.C,92507453,Po Box 7392,Abu Dhabi,28157777,http://www.nestuae.com,,77.0,not matched=0,,,
Engineering Building Materials Company WLL,42385872,PO Box 3256,Abu Dhabi,971-02 6771179,,133500000.0,75.0,high=94,Engineering Building Materials Co WLL,532899,28561
Bildco Reinforcing Steel Services,136809854,,Abu Dhabi,971-2-5559183,,,75.0,low=47,Arabian International Company for Steel Strucure,851151,3035155
Emirates Kitchen Equipment Company L.L.C.,122895554,Po Box 46711,Abu Dhabi,26448182,,45000000.0,75.0,low=68,Emirates Fire Fighting Equipment Factory LLC,1507463,3453722
Construtora Norberto Odebrecht S.A.,121418919,,Abu Dhabi,971-26679911,http://www.odebrecht.com,,75.0,low=41,Odebrecht,955540,3034759
Weatherford Bin Hamoodah L.L.C.,42386118,PO Box 4503,Abu Dhabi,971-02 5544100,http://www.weatherford.com,253300000.0,70.0,low=54,Bin Hamoodah Auto,934841,223356
Solus Emirates,42386079,PO Box 47044,Abu Dhabi,971-02 6742739,,38200001.0,70.0,high=77,Roly-Pub Emirates,53696,27158
Al Injazat Technical Services,126194481,Po Box 42895,Abu Dhabi,26226030,,,70.0,high=100,Al Injazat Technical Services,1456300,60058
Emirates Property Investment Co.,92028286,,Abu Dhabi,971-800-37426,http://www.epico.ae,146000000.0,70.0,medium=71,Emirates International Investment Company,884145,24269
Intertek Moody,92461191,"Po Box 47754, Nahyan",Abu Dhabi,26428005,http://www.moodyint.com,,70.0,low=42,Moody International,1241400,28223
Axiome Pipes & Fittings Trading L.L.C,122044197,"M-6, Mubarak Salem Hamad Rukadh Al Amiri Building Al Dhafra Stre",Abu Dhabi,26428844,,147800000.0,70.0,low=34,Emirates Preinsulated Pipes Industries (EPPI),1539910,82092
Sigma Specialised Inspection,48960700,"PO Box 3555, 75 St., Zone 6, Mussafah Industrial Area",Abu Dhabi,971-02 5510400,http://www.sigma.ae,36599998.0,68.0,low=53,STS - Specialised Technical Services,1748348,564033
Abu Dhabi National Tanker Company,42385739,Sheikh Khalifa Energy Complex Takreer Tower 11th & 12th Floors,Abu Dhabi,971-26028400,http://www.adnatco.com,186899990.0,68.0,low=60,Abu Dhabi National Tanker Co. / National Gas Shipping Company (ADNATCO NGSCO),95063,3446961
Waha Capital PJSC,43563918,PO Box 28922,Abu Dhabi,971-26677343,http://www.wahacapital.ae,159847790.0,66.0,low=65,Amanah Capital,424849,102524
Electrical Lighting Company W L L,122882370,Po Box 4109,Abu Dhabi,26731177,,89000000.0,63.0,high=90,Electrical Lighting Company,883841,91743
Al Wathba National Insurance Company,51326102,P.O Box 45154,Abu Dhabi,971-2-6770566,http://www.awnic.com,302238010.0,62.0,high=86,Al Wathba National Insurance Co. PSC,1577458,3029047
Snamprogetti,92461375,Najda Street Micco Building  Ninth Floor,Abu Dhabi,26780122,http://www.snamprogetti.eni.it,,61.0,not matched=0,,,
Freight International L L C,92460984,Po Box 26945,Abu Dhabi,56322372,http://www.freightinternational.ae,542400.0,61.0,low=48,Al Ryan Freight LLC,1529425,3473996
Electra Abu Dhabi W L L,123730654,Po Box 121,Abu Dhabi,6778077,,40000000.0,60.0,high=91,Electra Abu Dhabi W.L.L,1459813,235509
Hydra Properties LLC,100971467,PO Box 62162,Dubai,971-2-6581898,http://www.hydraproperties.com/,125100000.0,60.0,low=65,Hydra Trading LLC,1491236,3456851
Al Hamad General Contracting Est,123087504,Po Box 30331,Abu Dhabi,25511888,,4000000.0,60.0,low=43,Hamad Autism Center,1643558,3496008
Zakum Construction Co.,51094385,PO Box 3611,Abu Dhabi,971-02 6775094,,33299999.0,60.0,low=32,Zadco Zakum Development Company / شركة تطوير حقل زاكوم,1545852,27639
Elcome International L.L.C.,42386817,PO Box 53460,Abu Dhabi,971-02 5511136,http://elcome.com,17400000.0,60.0,not matched=0,,,
Abu Dhabi National Takaful Co. PSC,51373166,Al Bateen,Abu Dhabi,971-2-4107700,http://www.takaful.ae,191054900.0,58.0,high=85,Abu Dhabi National Takaful Company,1573723,29720
Ec Harris International Ltd.,120029763,Po Box 93540,Abu Dhabi,,http://www.echarris.com,,57.0,not matched=0,,,
Prismo Gulf Company Est,42386046,PO Box 367,Abu Dhabi,971-02 5555939,http://www.prismogulf.ae,35099998.0,55.0,low=59,Arison Gulf co,1165198,81705
VAM Drilling Protools Oil Equipment Manufacturing LLC,124704598,Mussafah Industrial Area Plant,Abu Dhabi,971-2-551-3234,,,55.0,low=57,Abu Dhabi Fertilizer Manufacturing,1419546,3398465
Global Intelligent Systems Establishment,123227552,Po Box 32661,Abu Dhabi,26277808,,8000000.0,55.0,high=79,Global Intelligent Systems,128766,27041
Sodap Emirates (Uae),92461411,Po Box 71779,Abu Dhabi,26222301,http://www.sodamco.com,,55.0,low=65,Emirates Dates,222769,26897
Al Manara International Jewellery,125195496,PO Box 114441,Abu Dhabi,971-02 6272222,http://www.amij.com,,51.0,high=100,Al Manara International Jewellery,1488149,3454063
Vincotte International Middle East,92460657,P.O. Box 4788,Abu Dhabi,5510041,http://www.vincotte.ae,,51.0,not matched=0,,,
Lucherini Association Ing Arch Consulting,92461122,P.O. Box 6905,Abu Dhabi,24458310,http://www.arch-lucherini.it,,51.0,low=62,Neptune Aviation Consulting,1158998,3335293
Chemetall Plc,92461569,P.O. Box 43539,Abu Dhabi,26273359,http://www.chemetall.com,,51.0,not matched=0,,,
Flowserve Al Mansoori Services,92461041,Po Box 26443,Abu Dhabi,5542464,http://www.flowserve.com,,51.0,high=91,Flowserve AL Mansoori Services LLC,1417454,164224
Pb Power Ltd,92461157,P.O. Box 47445,Abu Dhabi,26786060,http://www.pbworld.com,,51.0,low=50,Power Design,1538734,3476587
Tuv Akademie Middle East,92461312,Near Al Badr Mosque Street No. 7 Opposite Blue Marine Building A,Abu Dhabi,24478500,http://www.tuv-nord.com,,51.0,low=67,TUV Middle East,103860,26704
Intergraph Middle East Llc (Imel),92683078,P.O. Box 45805,Abu Dhabi,26273800,http://www.intergraph.com,,51.0,low=26,Calcium Advertising / Limelight Production Services,1559560,63161
Kingsfield Burns Uae Llc,120010956,P.O. Box 44908,Abu Dhabi,26729762,,,51.0,low=43,Combined Cargo UAE LLC,215122,27825
Embassy Of The Islamic Republic Of Afghanistan,92460903,P.O. Box 5687,Abu Dhabi,26655560,http://www.afghanembassy-uae.eedevelopment.com,,51.0,low=61,Embassy of the Czech Republic,1516043,3468968
Sfc Group,92461258,Lulu Centre Building 3Rd Floor Room 301 Al Salam Street,Abu Dhabi,26776999,http://www.sfcgroup.com,,51.0,low=27,SFC Group / Southern Franchise Company LLC,1525492,31582
Simmons And Simmons,92461406,P.O. Box 5931,Abu Dhabi,26275568,http://www.simmons-simmons.com,,51.0,not matched=0,,,
Alliance Francaise D Abu Dhabi,92460679,P.O. Box 2646,Abu Dhabi,26666232,http://www.af-aboudabi.net,,51.0,high=75,Alliance Francaise,1458313,1310053
Italian Embassy,92460856,P.O. Box 46752,Abu Dhabi,24435622,http://www.ambabudhabi.esteri.it,,51.0,not matched=0,,,
Embassy Of Brazil,92460850,P.O. Box 3027,Abu Dhabi,26320606,http://www.brazilpradenet.com,,51.0,not matched=0,,,
Khalidia Palace Hotel,120011096,Po Box 4010,Abu Dhabi,6662470,http://www.rotana.com,,51.0,low=50,Emirates Palace,1495361,86108
Petrogas Services Establishment,92507458,Saifulla Mohammed Khoory Bldg P.O. Box 261457,Abu Dhabi,26326135,http://www.petrogas.ae,,50.0,low=31,Bin Sidra National Petrogas,293123,30736
Allied Investment Partners P J S C,120029906,Po Box 109248,Abu Dhabi,26266776,,,50.0,low=42,Allied Arms Co.Ltd.,200527,26762
Middle East Trading & Contracting Company (Metco) W L L,42385989,Po Box 851,Abu Dhabi,26263900,,9000000.0,50.0,medium=73,Middle East Trading and Contracting (METCO),1490817,3459203
Star Petroleum Technical Services - L L C,122940132,Po Box 55028,Abu Dhabi,26769033,,3651700.0,50.0,medium=70,Epta UAE Technical Services L.L.C,1575440,3484741
Aabar Investment PJSC,42390800,,Abu Dhabi,971-26264466,http://www.aabar.com,564900020.0,50.0,high=78,Aabar Investments Company,264022,29029
Penspen International Ltd.,42386041,PO Box 46562,Abu Dhabi,971-02 6792526,http://www.penspen.com,27799999.0,50.0,high=91,Penspen International Limited,1508115,27080
Industrial Gas Plants,42385931,PO Box 4273,Abu Dhabi,971-02 5554040,,112500000.0,50.0,low=53,Emirates industrial bank,311284,29123
Abu Dhabi Marine Equipment & Industrial Supplies,123730652,Po Box 4164,Abu Dhabi,6732300,,24000000.0,50.0,low=58,Arabian Equipment Rental,1004296,56886
Abu Dhabi Shipping Agency L.L.C.,42385745,PO Box 46103,Abu Dhabi,971-2 6449100,http://www.adsa.ae,128000000.0,50.0,low=50,Inchcape Shipping Services Abu Dhabi LLC,1489536,226213
STALCO Abu Dhabi L.L.C.,42386084,PO Box 3768,Abu Dhabi,971-02 6731318,http://www.stalco.ae,127700000.0,50.0,not matched=0,,,
"Hill International Inc.- Abu Dhabi, U.A.E.",50091039,Ste 1601 16th Fl D O Buttti Al Otaiba Bldg Sheikh Khalifa St,Abu Dhabi,971-43372145,http://www.hillintl.com,,50.0,low=46,Intertouch UAE,1624853,3506245
Fujitsu Services Limited,42385936,PO Box 7237,Abu Dhabi,971-2-6335200,http://www.fujitsu.com,5300000.2,50.0,not matched=0,,,
Eldiar Furniture Manufacturing and Decoration L.L.C.,100971500,Mussafah Industrial Area,Abu Dhabi,971-2-5555656,http://www.eldiarfurniture.com,227300000.0,50.0,high=93,Eldiar Furniture Manufacturing & Decoration LLC,348700,89978
Demar Property Management,120010700,P.O. Box 43636,Abu Dhabi,26222690,http://www.demaruae.com,,50.0,high=93,Demar Property Management LLC,1417278,1306745
Lycee Louis Massignon,92461169,P.O. Box 2314,Abu Dhabi,24448085,http://www.llm.ae,,50.0,low=48,Lycee Francais Theodore Monod,1738457,3511025
Abu Dhabi Engineering & Trading Group Of Establishments - Tawam Commercial Est,122985883,Po Box 6767,Abu Dhabi,26730333,,10000000.0,50.0,low=48,(GULF) Abu Dhabi Supplies & Commercial Services,61600,26667
Dresser-Rand Arabia,126538766,Industrial Estate Plot 131 Sector M42,Abu Dhabi,971-25014200,,,50.0,low=53,Sky News Arabia,1465073,3437248
Abu Dhabi Water & Electricity Company,92461557,Al Falah Street,Abu Dhabi,97126943333,http://www.adwec.ae,,49.0,high=79,Abu Dhabi Water and Electricity Authority,89901,27162
Kvaerner Engineering A S,96408627,Po Box 47825,Abu Dhabi,26740400,http://www.akersolutions.com,,45.0,not matched=0,,,
Steel Construction Engineering Company L.L.C.,48609186,PO Box 3922,Abu Dhabi,971-02 6346334,,29799999.0,45.0,low=47,Consolidation Steel Construction,859801,611033
Autochim Systems - Abu Dhabi - (Asad) L L C,96930352,Po Box 26166,Abu Dhabi,26265774,http://www.autochimsystems.com,,45.0,low=56,Intuitive Systems - L L C,943390,551524
Alnasr Technical Trading Agencies,42385766,Abu Dhabi,Abu Dhabi,971-2-5512900,http://www.alnasr-uae.com/,119900000.0,45.0,low=68,Jetta Technical Trading,97960,26627
Habib Exchange Co.Llc.,133363761,2370,Abu Dhabi,26272316,,53657001.0,45.0,low=43,Bin Shabib and Associates,1458582,3430877
Y&R Abu Dhabi,125631520,Corniche Road Arab Monetary Fund Building 3rd Floor,Abu Dhabi,971-2-621-5050,http://www.yr.com,,45.0,not matched=0,,,
Conseco International L T D,120029885,Po Box 3068,Abu Dhabi,26262062,http://www.conseco-international.com,,43.0,high=88,Conseco International,365299,29165
National Centre For Management And Training,120029870,P.O. Box 7796,Abu Dhabi,26721777,http://www.ncmt-uae.com,,41.0,low=60,Merit For Management and Economic Consulting,498299,87007
Mc Connel Dowell Abu Dhabi - L L C,103636931,Po Box 46512,Abu Dhabi,26737339,http://www.mcconnelldowell.com.au,,41.0,not matched=0,,,
Crown Printing Centre,120011579,P.O. Box 46415,Abu Dhabi,26725747,,,40.0,low=68,Carlton Printing Press LLC,1590272,1189893
Telefon AB LM Ericsson,121414388,Technical Office UAE Office S 404 Al Ferdous Tower,Abu Dhabi,971-26968600,,,40.0,not matched=0,,,
SNEF Abu Dhabi,42386078,"PO Box 46388, Al Qubaisi Bldg., Hamdan St.",Abu Dhabi,971-02 62727119,http://www.snef.fr,11600000.0,40.0,not matched=0,,,
Precision Drilling Corporation - Middle East,121662788,Bin Arar Bld Alnajda St,Abu Dhabi,971-26747333,http://www.precisiondrilling.com,,40.0,low=36,ESNAAD (Abu Dhabi Drilling Chemicals and Products),649750,60091
Llj Property,120011215,Po Box 107729,Dubai,22255555,http://www.lljproperty.com,,40.0,not matched=0,,,
Det Norske Veritas,120010704,Po Box 3149,Abu Dhabi,26436439,http://www.dnv.com,,40.0,low=47,Veritas Film,1466637,3388215
European Exhibition For Modern Furniture Ltd,42385877,Po Box 4127,Abu Dhabi,26772871,http://www.europeanexhibition.co.ae,4383500.1,40.0,low=52,Emirates Exhibitions Services,1489990,3455947
Yara Decor,48609238,PO Box 7349,Abu Dhabi,971-02 6266610,http://www.adcecogroup.com,23600000.0,40.0,low=59,Samaya Decoration,271722,64891
Costain Abu Dhabi Company,42385842,PO Box 3069,Abu Dhabi,971-25553920,http://www.costain-abudhabi.ae,,40.0,not matched=0,,,
Rimal Engineering Products,42386053,,Abu Dhabi,971-26332267,http://www.rimal.ae,115800000.0,40.0,high=100,Rimal Engineering Products,1505854,3461001
Falcor Engineering & Contracting Services - L L C,92460892,Po Box 48576,Abu Dhabi,26342555,http://www.falcor-eng.com,,40.0,high=91,Falcor Engineering & Contracting Services,1553659,26899
Tolico Trading & Oilfield Services L L C,120010604,Po Box 7510,Abu Dhabi,6770111,http://www.tolicotrading.com,,40.0,not matched=0,,,
Energo Consult L.L.C.,121402657,Hamadan Street Al Qubaissi Building,Abu Dhabi,971-26763554,,,40.0,low=66,Pioneer Engineering Consultancy L.L.C,1470521,1222438
National Industrial Company L.L.C.,42386016,"PO Box 706, Bin Hamuda Bldg., Opposite Electra Rd.",Abu Dhabi,971-02 6721000,,30799999.0,35.0,low=67,Al Nasser Industrial Ent. L.L.C.,792251,563654
Al Dhabi Brokerage Services LLC,123849977,Al Salam St Abu Dhabi Commercial Bank Building 5th Floor,Abu Dhabi,971-26962330,http://www.adbtrade.com,,35.0,high=76,Abu Dhabi Sewerage Services,412149,95996
PLS Pipeline Services Ltd.,42386043,PO Box 4500,Abu Dhabi,971-02 5554513,http://www.piggingassnppsa.com,13000000.0,35.0,low=42,APCC - Al Dhafra Pipeline & Contracting Co WLL,328984,58194
Pearl Emirates Auto and Machinery Company L.L.C.,42385809,PO Box 46918,Abu Dhabi,971-02 6411446,http://www.peamco.ae,4000000.0,35.0,low=65,Emirates Insurance Company P.S.C,980350,3035713
Veolia Environmental Services Qatar L.L.C.,125518340,,Abu Dhabi,971-2-55-11-557,,,35.0,high=82,Veolia Environmental Services,1204599,3373312
Fichtner Consulting Engineers - Abu Dhabi,92460945,Po Box 3657,Abu Dhabi,24453066,http://www.fichtner.de,,35.0,not matched=0,,,
Syscoms Information Technology,42386091,"Syscoms College Building,Near Central Market, Opp. Abu Dhabi Chamberof Commerce, Opp. Abu Dhabi Chamber of Commerce",Abu Dhabi,971-02 6355554,http://www.syscomscollege.com,18299999.0,35.0,not matched=0,,,
Baynunah Well Pipes Factory Limited,122146057,Po Box 3353,Abu Dhabi,26794242,,20000000.0,33.0,low=54,Baynunah Laboratories,462549,229515
New India Assurance,92507454,Abu Bakr Al-Sediq Road Building Number 21,Abu Dhabi,26440428,http://www.newindia.co.in,,31.0,low=50,New Dental Clinic,1540604,3476883
Pasteur Central Laboratories Ltd,106238183,P.O. Box 43300,Abu Dhabi,,http://www.pcl-uae.com,,31.0,low=65,Emirates Audiology Center and Laboratories,86550,27109
Eastern Bechtel Co Ltd,92460842,P.O. Box 2661,Abu Dhabi,26318999,http://www.bechtel.com,,31.0,low=43,United Eastern Group,8715,89378
Viola Communications Llc,120011375,Abu Dhabi Mall West Tower  6Th Floor,Abu Dhabi,26449444,http://www.viola.ae,,31.0,medium=71,KBS Communications,1668488,3485577
Jgc Corporation,92461077,P.O. Box 28543,Abu Dhabi,,http://www.jgc.co.jp,,31.0,not matched=0,,,
Fluor Mideast Limited,92460965,Al Obaidly Tower 5 1St 2Nd  14Th And 15Th Floor Al Istiqlal Stre,Abu Dhabi,26172700,http://www.fluor.com,,31.0,low=49,Mideast Data Systems,126821,23930
Trowers & Hamlins,92461332,P.O. Box 45628,Abu Dhabi,26267274,http://www.trowers.com,,31.0,not matched=0,,,
Guardian Insurance Brokers,120011458,P.O. Box 51012,Abu Dhabi,26777116,http://www.gib-uae.com,,31.0,low=67,Guardian Industries,1481740,3125579
Amideast,92460686,P.O. Box 5464,Abu Dhabi,,http://www.amideast.org,,31.0,not matched=0,,,
Dassault Aviation,120010316,P.O. Box 70356,Abu Dhabi,26268388,http://www.dassault-aviation.com,,31.0,low=67,Rotana Jet Aviation,1595982,3488595
Technical Insurance Services,120012213,P.O. Box 45610,Abu Dhabi,24483444,http://www.technicalinsuranceuae.com,,31.0,low=68,United Technical Services,1502603,27076
Daly Fluid Technologies Llc,120010381,Mena Abu Dhabi Warehouses,Abu Dhabi,26736349,http://www.dalyft.com,,31.0,low=38,Rotork Fluid Systems,826901,26661
Turner Construction International Llc,92461350,Etisalat Street Old Jashanmal Building  Al Fandal Mazrooey,Abu Dhabi,26500888,http://www.turnerconstruction.com,,31.0,low=34,Turner ECS,1587727,3488438
Waagner-Biro Bin Butti Engineering L.L.C.,120010347,Hamdan Street,Abu Dhabi,971-2-674-16-36,http://www.waagner-biro.com,,31.0,low=44,Bin Butti International Holdings,1360449,3036483
Thales,92461338,P.O. Box 47186,Abu Dhabi,26761418,http://www.thalesgroup.com,,31.0,not matched=0,,,
Mothercare Ltd.,92461186,P.O. Box 26754,Abu Dhabi,26219700,http://www.mothercare.com,,31.0,not matched=0,,,
Ginorse Uae Wll,92461485,P.O. Box 4492,Abu Dhabi,26727681,http://www.ginorse.com,,31.0,low=32,Verger Delporte UAE LTD,1496169,62933
Safar Travel Services,92028288,Liwa Street,Abu Dhabi,971-26225225,http://www.safar.ae,49000000.0,30.0,medium=71,Al Masaood Travel and Services,1270349,63856
International Development Company,42385937,PO Box 2621,Abu Dhabi,97126222444,http://www.idcuae.com,217800000.0,30.0,not matched=0,,,
Hanscomb Consultants Inc,92461063,Po Box 41124,Abu Dhabi,26262461,http://www.hanscomb.com,,30.0,not matched=0,,,
Driver Project Services (UAE) LLC,121399048,Ofc 105 Al Mansoori Plz Sheikh Hamdan St,Abu Dhabi,971-26780466,,,30.0,low=66,"Pure Project Management Services, LLC",958391,3035164
Al Hilal Takaful PSC,123762059,PO Box 111644,Abu Dhabi,971-02 4994400,http://www.alhilalbank.ae,225600010.0,30.0,high=89,Al Hilal Takaful,1219999,3335857
Northcroft Middle East - Abu Dhabi,92507455,Po Box 4670,Abu Dhabi,26446237,http://www.northcroftmiddleeast.com,,30.0,not matched=0,,,
Daff Trading and Oil Services,42385847,PO Box 7399,Abu Dhabi,971-02 6778000,http://www.daffgroup.ae,24100000.0,30.0,low=60,Zakher Marine Oilfield Services,1396446,30061
ESCAN PJSC,102157221,PO Box 93888,Abu Dhabi,971-04 4474202,http://www.escan.ae,52599998.0,30.0,low=15,Escan Real Estate,810051,58058
United Technical Services,42386111,PO Box 277,Abu Dhabi,971-26774400,http://www.uts.ae,60000000.0,30.0,high=100,United Technical Services,1502603,27076
Gray Mackenzie & Partners - Abu Dhabi - Limited - Wll,121882480,Po Box 247,Abu Dhabi,24462424,,70000000.0,30.0,low=32,Pivot Engineering & General Contracting Co WLL,1442347,29598
Nexans France - Abu Dhabi,123249949,PO Box 47889,Abu Dhabi,971-26328724,,,28.0,low=62,Agence France-Museums (Louvre Abu Dhabi),1655404,3474482
NCR,42386023,PO Box 350,Abu Dhabi,971-02 6333700,,36000000.0,28.0,low=8,Concrete Technology LLC,1708311,62862
Al Moherbie Thermoplast L.L.C.,42385993,PO Box 46767,Abu Dhabi,971-02 6448936,,,28.0,not matched=0,,,
Atiq Al Dhaheri & Company - L L C,122896049,Po Box 44719,Abu Dhabi,25540676,http://www.aadtra.com,32000000.0,28.0,low=62,Atiq Al Dhaheri,37095,27998
Habib Exchange Co.Llc.,120010933,Po Box 2370,Abu Dhabi,26272656,http://www.habibexchange.com,,28.0,low=43,Bin Shabib and Associates,1458582,3430877
Bovis Lend Lease International Limited,50407619,Po Box 47029,Abu Dhabi,26275677,http://www.bovislendlease.com,,26.0,not matched=0,,,
Union Gulf Services L.L.C.,92460975,Po Box 46800,Abu Dhabi,26282121,http://www.uniongulf.ae,,26.0,high=84,Union Gulf Services Est.,1398798,3396057
Mohammed Bin Ghalib Energy Enterprises,42386708,PO Box 2177,Abu Dhabi,971-02 6263132,,13900000.0,25.0,low=55,Millennium Energy Industries,1213248,3374892
Abu Dhabi National Leasing LLC,125228728,One NBAD Tower 17th Floor Sheikh Khalifa Street,Abu Dhabi,971-26112000,http://www.adnl.ae,,25.0,not matched=0,,,
Spaceage Electrical Company,92461376,P.O. Box 43693,Abu Dhabi,25500150,http://www.spaceageelectrical.com,,25.0,low=67,Electrical Lighting Company,883841,91743
Complete Engeneering - L L C,122044236,Po Box 38068,Abu Dhabi,26774323,,500000.0,25.0,low=46,Complete Technical Solutions,933990,3033895
Emirates Safety Services Ltd.,42385869,"PO Box 6322, Mussafah",Abu Dhabi,971-2 5555725,http://www.emisafe.ae,6300000.2,25.0,low=69,Emirates Taste Catering Services,1533311,3392244
Dutco Tenant Llc,93130925,Po Box 2534,Abu Dhabi,26348495,http://www.dutcotennant.com,,25.0,not matched=0,,,
Emirates National Shipping Services - L L C,123249970,Po Box 30180,Abu Dhabi,26338100,,10000000.0,25.0,medium=71,Emirates Engineering Services LLC,1561008,3481880
KPMG Abu Dhabi,42385957,PO Box 7613,Abu Dhabi,971-02 6343318,http://www.kpmg.com,118500000.0,25.0,low=44,KPMG,1596442,3492085
Power Transmission (Gulf) Ltd.,42386044,PO Box 376,Abu Dhabi,971-02 6767628,,13900000.0,25.0,low=64,Serck Services (Gulf) Ltd.,1504329,3390406
NMC Pharmacies,124754329,Electro St Airport Rd,Abu Dhabi,971-26332255,,,25.0,low=51,Al Amal Medical Center and Pharmacies,1735595,3509915
Cimac Electrical and Control Systems LLC,125643301,2nd Floor Sahara Residence Khalifa Street,Abu Dhabi,971-2-6263222,,,25.0,low=61,Americana Computer Systems,1462033,3387870
BP Exploration Operating Co Ltd,42385815,PO Box 46600,Abu Dhabi,971-2-493-5555,http://www.bp.com/contacts.do?categoryId=436&contentId=2000550,636299990.0,25.0,low=47,Abu Dhabi Marine Operating Company (ADMA OPCO),352797,29649
Marina Insurance Brokers,120010364,P.O. Box 42032,Abu Dhabi,26311130,http://www.marinaib.com,,25.0,high=100,Marina Insurance Brokers,583150,54154
Al Fuad Trading Establishment,123167892,Po Box 46395,Abu Dhabi,26774436,http://www.alfuad.com,45000000.0,25.0,not matched=0,,,
Serck Services Co. (LLC),92461283,,Abu Dhabi,971-2-5553108,http://www.serckgulf.com,,25.0,low=68,Serck Services (Gulf) Ltd.,1504329,3390406
National Bank of Oman SAOG,42386009,"PO Box 3822, Najda St.",Abu Dhabi,971-02 6348111,http://www.nbo.co.om,1168200000.0,25.0,high=89,National Bank of Oman,352248,29233
Abu Dhabi National Exhibitions Co.,42385729,PO Box 5546,Abu Dhabi,971-02 4446900,http://www.adnec.ae,24100000.0,22.0,high=82,Abu Dhabi National Exhibitions Company (ADNEC),439299,537663
Grafik International Llc,96930356,Po Box 51527,Abu Dhabi,6321000,http://www.giuae.ae,,21.0,not matched=0,,,
French Business Group,92460986,P.O. Box 73390,Abu Dhabi,26741137,http://www.fbgabudhabi.com,,21.0,low=47,French Dental Aesthetic Center,1741021,3513203
Baynunah Hilton Tower,92461028,Corniche Road,Abu Dhabi,26327777,http://www.hilton.com,,21.0,low=57,Baynunah Laboratories,462549,229515
Club,120011577,P.O. Box 658,Abu Dhabi,26731111,http://www.the-club.com,,21.0,low=57,Viavi Club,1585403,3487759
Alliot Hadi Shahid,92460680,P.O. Box 46198,Abu Dhabi,26222300,http://www.alliottuae.com,,20.0,low=32,Hadir Projects and Environment Systems,1471660,31070
Syscoms College,48284258,Airport Rd.,Abu Dhabi,971-02 6355554,http://www.syscomscollege.com,10500000.0,20.0,low=44,Brighton College Abu Dhabi,1477546,3448007
FURNICON,96930428,PO Box 51528,Abu Dhabi,971-02 6352570,http://www.furnicon.ae,16299999.0,20.0,not matched=0,,,
Data Capture Systems Company W.L.L.,48609235,Po Box 47663,Abu Dhabi,26450110,http://www.dcsme.ae,10000000.0,20.0,low=54,Injazat Data Systems LLC,500650,3515257
Grafik International L.L.C.,92502007,PO Box 4118,Abu Dhabi,971-02 6321000,http://www.giuae.ae,15100000.0,20.0,not matched=0,,,
"Falcon Tours, Travel and Cargo",50835918,"PO Box 43832, Back of Al Muhairy Shopping Ctr., Khalidia",Abu Dhabi,971-02 6348000,http://www.alhamed.com/fttcinfo.htm,62500000.0,20.0,low=54,Toubkal travel and Tourism,1520786,3470430
Gibca Information Technology - L L C - Gibtek,92461491,P.O. Box 44457,Abu Dhabi,26277100,http://www.gibca.com,,20.0,not matched=0,,,
Belmour Trading Agencies Establishment,122044255,Po Box 27406,Abu Dhabi,26668880,,15000000.0,20.0,medium=70,Medik Trading Agencies Estb.,23,89530
ITQAN-Al Bawardi Computers,42385805,PO Box 51526,Abu Dhab,971-02 6767666,http://www.itqan.ae,8500000.0,20.0,low=68,Al Garbiyah Computers,1461834,3434242
Al Benaa Real Estate Investment Co PJSC,111192741,PO Box 107781,Abu Dhabi,971-2-6722285,http://albenaauae.com,55000000.0,20.0,high=81,Albenaa Real-Estate Investment,307134,85391
Sheraton Khalidiya Hotel,92461240,Zayed The First Street Khalidiya Area P.O. Box 6727,Abu Dhabi,26666220,http://www.sheraton.com,,20.0,not matched=0,,,
Al Hutaib Electromechanical Company- W L L,122895655,Po Box P.O.Box 36170,Abu Dhabi,26211740,,3500000.0,20.0,medium=72,Hi Electromechanical Contracting LLC,1667763,3499796
Ojaco Engineering Co.,43871861,PO Box 46372,Abu Dhabi,971-2 6272340,http://www.adcecogroup.com,19100000.0,20.0,not matched=0,,,
National Bank of Bahrain BSC,50779895,PO Box 46080,Abu Dhabi,971-02 6335288,http://www.nbbonline.com,887799990.0,19.0,not matched=0,,,
Shell Abu Dhabi B.V.,42386071,,Abu Dhabi,971-2-6333620,http://www.shell.com/home/content/are/footer/contact_us/,51700001.0,18.0,not matched=0,,,
Middle East Container Repair Company Limited - Abu Dhabi,42385988,PO Box 4501,Abu Dhabi,971-02 6732434,http://www.mecrc.ae,8899999.6,18.0,low=36,Overseas Cans & Containers L.L.C.,973392,3035956
Fortune Promoseven,137067693,2454 Pink Building 2nd Floor Eastern Ring Road,Abu Dhabi,971-2-449-4405,http://www.promoseven.com,,18.0,high=100,Fortune Promoseven,91852,26567
Leaders International Technology Co.,42385961,PO Box 45125,Abu Dhabi,971-02 6760111,,8500000.0,18.0,low=54,Leaders Training Center,1319848,3386861
BICC Al Jallaf WLL,42385807,PO Box 46707,Abu Dhabi,971-02 6222320,,11500000.0,18.0,low=41,APCC - Al Dhafra Pipeline & Contracting Co WLL,328984,58194
Tecsol Electrical Installation & Maintenance,122044352,Po Box P.O.Box 110876,Abu Dhabi,26718907,,2000000.0,17.0,low=65,CIRTA electro Mechanical Contracting Maintenance,1503968,3457148
Mideast Data Systems,122882372,Po Box 7899,Abu Dhabi,26276354,,1182640000.0,17.0,high=100,Mideast Data Systems,126821,23930
Tata Communications Middle East And North Africa,92461315,City Center Building Block A  Office 204 2Nd Floor Hamdan Street,Abu Dhabi,26266223,http://www.tatacommunications.com,,16.0,low=54,Telecommunications Regulatory Authority - TRA,1579759,310163
Al Muhairy General Trading Company L.L.C.,120012179,Po Box 26288,Abu Dhabi,26772040,http://www.almuhairytrading.com,,15.0,high=91,Al Muhairy General Trading Company,348703,30678
Al Areef Computer Institute,120010429,P.O. Box 37628,Abu Dhabi,26268570,http://www.areef.ae,,15.0,low=68,Al Ashraf Computers ,106363,27864
I H I Emirates Company Limited,122982047,Po Box 2374,Abu Dhabi,26789400,,12000000.0,15.0,low=62,Emirates Computers,14880,26774
Sembawang UAE Pte Ltd.,121405205,501-504 Al Gaith Tower Hamdan Street,Abu Dhabi,971-48815165,http://www.sembawangenc.com,,15.0,low=45,Combined Cargo UAE LLC,215122,27825
United Arab Shipping Company,42386108,Tourist Club Area Omar Bin Zayd Bldg 3rd Foor 304,Abu Dhabi,971-26332111,http://www.uasc.com,,15.0,low=55,Anhui Arabest General Contracting Company,1491354,3456810
Gulf Commercial Agency,42385906,PO Box 46962,Abu Dhabi,971-02 5553456,,14300000.0,15.0,medium=73,Alyazya Commercial Agencies,1565813,3479618
"Bainuna Mechanical, Electrical Equipment & Oil-Field Services",122048005,Po Box 642,Abu Dhabi,26393303,,15000000.0,15.0,low=56,IMECO (International Mechanical And Electrical Company )/ Al Shirah recruitment services,242870,30506
Nahla Medical Supplies,106238176,Po Box 29348,Abu Dhabi,26764975,http://www.nahlamed.ae,120000000.0,15.0,high=86,nahla medical supplies,102168,26698
Al Badri Traders Company L.L.C.,42385788,PO Box 3476,Abu Dhabi,971-02 6789956,http://www.albadri.org,7300000.2,15.0,not matched=0,,,
Icapital,121851714,Po Box 37148,Abu Dhabi,26581050,http://www.icapital.ae,35000000.0,15.0,high=75,iCapital,1427151,23792
I H I Uae Company Limited,92461038,Po Box 2374,Abu Dhabi,26789400,http://www.ihiuae.com,,14.0,low=34,UAE Royal Family,1736014,3509892
Salem Ibrahim Al Saman,48609265,PO Box 271,Abu Dhabi,971-02 6268888,,8500000.0,14.0,high=88,Salem Ibrahim Al Saman Group,1727780,3507066
Mace International Limited,92461168,Po Box 37501,Abu Dhabi,,http://www.macegroup.com,,13.0,low=65,Mace Contractors Ltd,937844,3032982
Gulf Net Security Systems Co. Llc,123278625,Po Box 28607,Abu Dhabi,26728847,,32599998.0,13.0,low=59,Gulf National Securities Centre,636649,545604
KNDT UAE Techno Inspection LLC,121700819,M-36 Plot 58 Warehouse 3 Mussafah,Abu Dhabi,971-2-553-5825,,,13.0,low=54,Epta UAE Technical Services L.L.C,1575440,3484741
Waha Maritime,111192810,"NA02, NA02,",Abu Dhabi,971-2-6677343,http://www.wahacapital.ae/,,13.0,low=50,Valentine Maritime Gulf LLC,87607,27115
Al Hamed ITC,42385940,PO Box 592,Abu Dhabi,971-02 6674777,http://www.alhamed.com/itcinfo.htm,6500000.0,12.0,low=26,Alsa Apollo Kitchens International,1742949,3391447
Accenture Middle East B V - Abu Dhabi,92461522,Po Box 29002,Abu Dhabi,26429644,http://www.accenture.com,,12.0,medium=72,Accenture Middle East,1505061,1357787
Abu Dhabi Commercial Corp.,42385721,PO Box 4214,Abu Dhabi,971-02 6722828,,14500000.0,12.0,high=79,Abu Dhabi Commercial Bank ADCB,246670,31488
Ranya Trading WLL,42386049,PO Box 602,Abu Dhabi,971-02 6773063,,6699999.8,12.0,low=52,Ranya General Construction CO LLC,92804,23783
"Mitsui & Co., Middle East Ltd.",50664444,Ste 1002 10th Fl Al Masaood Tower Sh Hamdan St,Abu Dhabi,971-26322119,http://www.mitsui.com,,12.0,not matched=0,,,
Crescent Oilfield Supplies Est,42385845,PO Box 7355,Abu Dhabi,971-02 5547800,http://www.alnasr-uae.com,11900000.0,12.0,low=67,Al Ghaith Oilfield Supplies,489549,306854
Bae Systems,120010705,Po Box 4049,Abu Dhabi,26338831,http://www.baesystems.com,,12.0,high=75,Smart Systems,84955,23848
Technical Scientific Enterprises Company (Techni) - L L C,92461514,Po Box 5100,Abu Dhabi,26727888,http://www.techni-uae.com,,10.0,low=51,"Technical Centre Ltd General Contracting Co LLC, The",610650,57535
Van Leeuwen Pipe & Tube (Middle East) Ltd.,50087272,Al Karmaneh St Internatinal Tower Ste 2105,Abu Dhabi,971-26271840,http://www.vanleeuwen.ae,,10.0,low=53,Perma-Pipe Middle East FZC,912695,89093
Sainrapt Contracting Co L.L.C.,42386065,PO Box 661,Abu Dhabi,971-2-676-4007,,183200000.0,10.0,not matched=0,,,
Sultan International Establishment,92461151,Po Box 3486,Abu Dhabi,26224411,,,10.0,low=63,KEO International Consultants,1485130,29473
Amalgamated National Diversified Offshore Company Ltd.,100971444,"PO Box 7333, Al Nasr St., Falcon Twr.",Abu Dhabi,971-02 6326677,http://www.anholdings.com,5400000.1,10.0,low=40,Tek Signals SAL (Offshore),1522056,57650
Qatar Insurance Company - Abu Dhabi,98460544,,Abu Dhabi,971-26769466,http://www.qatarinsurance.com,,10.0,not matched=0,,,
Sharjah Islamic Bank PJSC - Abu Dhabi,42386011,PO Box 43153,Abu Dhabi,971-02 6743153,http://www.sib.ae,467100010.0,10.0,medium=70,Sharjah Islamic Bank,352547,24572
ADCECO Group,48609229,"PO Box 47029, ADCECO Building, Port Zayed, Free Zone",Abu Dhabi,971-2 6732111,http://www.adcecogroup.com,5400000.1,10.0,not matched=0,,,
Habib Trading Company - W L L,120011384,Po Box 30929,Abu Dhabi,26315001,http://www.habibtrading.com,,10.0,low=37,Bin Shabib and Associates,1458582,3430877
Mansoori Industrial Supply,42385968,PO Box 287,Abu Dhabi,971-02 6339795,http://www.mansoori-industrial.com,8100000.4,10.0,low=56,Discrete Industrial Group - UAE,1668067,3499824
Oracle Systems Limtied,101788426,Arab Monitary Fund Bldg. P.O. Box 30339,Abu Dhabi,26323216,http://www.oracle.com,,10.0,low=53,Maverick Systems,298882,84575
GIBCA Abu Dhabi,42385898,"PO Box 2570, Head Office, Gibca Bldg.",Abu Dhabi,971-02 6260222,http://www.gibca.com,2900000.1,10.0,not matched=0,,,
Agricultural Engineering Company L.L.C.,48584136,PO Box 16015,Abu Dhabi,971-03 7217912,,,10.0,low=51,Gulf Dunes Landscaping and Agricultural Services Company,478900,88941
Al Mazroui Engineering Co.,50664555,PO Box 97,Abu Dhabi,971-02 6724422,http://www.mengineering.info,5400000.1,10.0,low=62,Al Mazroui Group,1440796,104464
Abu Dhabi Equipment Co.,42385723,PO Box 4303,Abu Dhabi,971-02 5554079,http://www.mobh.ae,10900000.0,9.0,low=64,Arabian Equipment Rental,1004296,56886
Samer Engineering Consultancy Group,42386067,"PO Box 2764, Emirates Dates Bldg., Sheikh Khalifa St.",Abu Dhabi,971-02 6744359,http://www.samergroup.com,3200000.0,9.0,high=100,Samer Engineering Consultancy Group,714852,29663
Liechtensteinische Landes Bank (Switzerland Ltd - Abu Dhabi,120010420,Po Box 48230,Abu Dhabi,26655666,http://www.llb.ae,,9.0,not matched=0,,,
Aabharan Jewellery LLC,121418083,UAE Exchange Centre Building Hamdan Street,Abu Dhabi,971-26339433,http://www.nmc.ae,,9.0,low=58,Al Manara International Jewellery,1488149,3454063
Al-Salam Express Cargo,120012182,P.O. Box 7201,Abu Dhabi,26260510,http://www.alsalamcargo.com,,8.0,high=95,Al Salam Express Cargo,121564,27004
Asi Trading - Middle East - Llc,123249132,Po Box 4108,Abu Dhabi,26447500,,3000000.0,8.0,low=39,Asian Philippine Medical Center,1732976,3509026
The Commercial Counsellor's Office At The Austrian Embassy,92460906,"Al Hazna Tower, 7Th Flr., 702",Abu Dhabi,26766633,http://www.austrianembassy.ae,,8.0,low=47,The Office of The Brand of Abu Dhabi,1086747,3383677
ESAB Middle East LLC,124754141,,Abu Dhabi,971-25547831,http://www.esab.ae,,8.0,not matched=0,,,
Issam Bookshop - L L C,121881518,Po Box 2295,Abu Dhabi,26343557,,1000000.0,8.0,low=33,Issam Kabbani and Partners For Supply and Trade Co. Ltd.,1455627,184518
Austroconsult,92461481,P.O. Box 41306,Abu Dhabi,26763663,http://www.austroconsult.at,,8.0,low=7,AUSTROCONSULT LLC,172515,25062
Favelle Favco Machinery & Equipment L.L.C.,92461488,Level 01 Yateem Optician Building Khalifa Street,Abu Dhabi,971-26277948,http://www.favellefavco.ae,,8.0,low=62,Europe Machinery Equipment,296280,84065
Advanced Systems International L L C,122781970,Po Box 51414,Abu Dhabi,56275750,,821900.01,8.0,low=61,Abu Dhabi Systems Integration (ADSI),1026344,224332
Al Sahwa Trading Co. LLC,124718143,Khaleefa St,Abu Dhabi,971-26273270,http://www.al-hassan.com/contactus.html,,8.0,not matched=0,,,
"Taisei Saudi Arabia Co., Ltd.",121662652,Office 1603 16th Floor Sultan Tower Najda Street,Abu Dhabi,971-26341005,http://www.taisei.com,,8.0,low=43,Saudi Oger Emirates Limited LLC,343347,549065
Khansaheb Sykes Co.,42385954,PO Box 4056,Abu Dhabi,971-02 5554131,http://www.khansahebsykes.com,16700001.0,7.0,not matched=0,,,
Bin Maeem Hospital Supplies L L C,123098013,Po Box 567,Abu Dhabi,4465659,,5000000.0,7.0,low=63,Bin Ali Medical Supplies,1632657,215474
Stone and Webster International Corp.,42386087,PO Box 4722,Abu Dhabi,971-02 6728833,http://www.sw-international.co.ae,3800000.0,7.0,low=42,StoneHenge Property Management,1556114,3480686
Prolight - L L C,122044223,Po Box 54230,Abu Dhabi,26229980,,4699999.8,7.0,not matched=0,,,
Janana Trading Co.,42385946,PO Box 2502,Abu Dhabi,971-02 6784783,,94599998.0,7.0,low=33,jananah investments/Applebees International,266171,62753
Abdul Aziz Bin Rubaya and Sons L.L.C.,105436129,PO Box 107,Abu Dhabi,971-02 6272000,,4500000.0,6.0,low=60,Ali and Sons LLC,213821,27020
Credit Suisse Representative Office,139457077,PO Box 47060,Abu Dhabi,971-02 6275048,http://www.credit-suisse.com,280399990.0,6.0,low=51,UAE Foreign Aid Coordination Office,1171702,3383681
Big Red Tubular Industries - L L C,120011106,Po Box 4030,Abu Dhabi,25501871,http://www.bigredtubular.com,,6.0,low=62,Rubber World Industries LLC,1749207,1182080
G.I.T Fze,122044453,Po Box 16111,Ras Al Khaymah,26289255,,10000000.0,6.0,low=38,PBS FZe,1506156,3449214
"Hitachi Plant Technologies, Ltd.",124442422,4th Floor Al Fahim Center 10th & 17th Intersection,Abu Dhabi,971-2-555-0856,,,6.0,low=33,Royal Green Flowers and Plants LLC,1736308,3510647
Al Fandi Mazroui Travel and Tourism,42385982,PO Box 2905,Abu Dhabi,971-02 6311630,http://www.alfandigroup.com,8600000.4,6.0,medium=74,Al Faisal Travel and Tourism Agency,1490427,91458
Abu Dhabi Industrial Supplies Establishment,120029808,Po Box 27679,Abu Dhabi,26340403,http://www.adis-uae.com,,6.0,low=62,Five Continents Technical and Industrial Services Establishment,407099,90171
Pioneers World Oil & Gas Services - L L C,122940118,Po Box 94375,Abu Dhabi,26710231,,10000000.0,5.0,medium=70,pioneers  oil & gas services,1022145,1284112
Oasis Oilfield Services and Supplies,42386029,PO Box 7968,Abu Dhabi,971-02 6211885,http://www.oasisoilfield.ae,4900000.1,5.0,low=63,Al Ghaith Oilfield Supplies,489549,306854
Berns Brett Masaood Insurance  L.L.C,120010775,Po Box 111566,Abu Dhabi,26761939,http://www.bernsbrettmasaood.com,,5.0,low=42,Al Masaood Travel and Services,1270349,63856
Gulf Space Petroleum Equipment,123229971,Po Box 43316,Abu Dhabi,26266525,,57119701.0,5.0,low=57,Europe Machinery Equipment,296280,84065
DECON Middle East,42386770,PO Box 11314,Abu Dhabi,971-02 6817008,http://www.decon-mideast.com,3300000.0,5.0,low=45,DECON,893844,615883
Giffin Establishment,122146042,Po Box 955,Abu Dhabi,26730555,,10000000.0,5.0,not matched=0,,,
Petrotech Trading Company Fze,121849433,Po Box 13288,Abu Dhabi,25526864,,5000000.0,5.0,low=44,AQME Trading FZE,1674609,3507242
RAK Free Zone Promotion Centre,121419276,Abu Dhabi Mall West Tower First Floor,Abu Dhabi,971-26994888,http://www.rakftz.com/en/forms/contactus,,5.0,low=58,Truck Zone Service Centre,1726475,3506859
Sadiq Brothers,42386061,"PO Box 169, Najda Rd.",Abu Dhabi,971-02 6772542,http://www.sadiqbrothers.co.ae,4800000.2,5.0,low=45,Fakhri and Brothers A/C Trading llc,1496701,3460273
Dana Establishment - Danco Trading,92460952,Po Box 4880,Abu Dhabi,26393943,,,5.0,low=33,Dana Gas,589600,98225
Parker Hannifin United Arab Emirates,121412641,,Abu Dhabi,971-26788587,,,4.0,medium=70,"Presidential Flight, United Arab Emirates",1613757,25393
"Japan Oil, Gas & Metal National Corporation",107528367,Al Masaood Bldg P.O. Box 6270,Abu Dhabi,26330366,http://www.jogmec.go.jp,,4.0,low=49,Occidental Oil & Gas International LLC,1582421,3393948
The Bank of Tokyo-Mitsubishi UFJ Limited - Abu Dhabi,42385797,"PO Box 2174, 17th Fl., Office 17A, One NBAD Twr., Sheikh Khalifa St.",Abu Dhabi,971-02 6135900,http://www.bk.mufg.jp,186899990.0,4.0,not matched=0,,,
Empower Engineering Resources - Co L L C,122044407,Po Box 61928,Abu Dhabi,25599003,,3200000.0,4.0,low=50,ASAS Human Resources LLC,1492966,3457802
Metroyet Metropolitan Veterinary Marketing - L L C,122189626,Po Box 8047,Abu Dhabi,26449544,,2200000.0,4.0,low=50,HMC Hospitality Marketing Concepts,1662328,3501093
Velosi Quality Management International L.L.C.,121613030,No 201 & 205 Block B Abu Dhabi Bus Hub ICAD-1 Mussafah,Abu Dhabi,971-25502600,,,4.0,medium=70,Sky Management International,1561967,3482091
Leads  Textiles,121851628,Po Box 53106 / 55371,Abu Dhabi,25522477,,5000000.0,3.0,not matched=0,,,
Maersk Oil Middle East A/S,124729438,Suite 1220,Abu Dhabi,971-2-596-4896,http://www.maerskoil.com/AboutUs/Contacts/Pages/Contacts.aspx,,3.0,low=62,OilExec MiddleEast LLC,1455550,3125507
Asian Petroleum Services Llc,122470713,Po Box 94364,Abu Dhabi,26728003,,2599999.9,3.0,low=47,Asian Philippine Medical Center,1732976,3509026
Kharafi National Co .L L C,120029820,Po Box 26831,Abu Dhabi,25130513,http://www.kharafinational.com,,3.0,low=47,Mohammed Kharafi and Sons,972292,1309909
ECU Line Abu Dhabi LLC,125630803,Ahmed Bin Hmouda Bldg Mezzanine Fl Al Naser St,Abu Dhabi,971-26339597,http://www.eculine.net,,3.0,low=46,Beauty Line General Contracting LLC,1465413,3438476
Broadway Malyan Limited - Abu Dhabi,120011509,Po Box 53670,Abu Dhabi,24999100,http://www.broadwaymalyan.com,,3.0,not matched=0,,,
Mohamed Al Otaiba Group Est,100971505,PO Box 3348,Abu Dhabi,971-02 6221800,http://www.alotaiba-group.com,7800000.2,3.0,low=42,Al Otaiba Advocates & Legal Consultants,890890,565633
Al Rubaya Group,42386057,PO Box 107,Abu Dhabi,971-02 6272000,,1900000.0,3.0,not matched=0,,,
Malcolm Pirnie Middle East FZC,105438946,Abu Dhabi,Abu Dhabi,971-558841216,http://www.arcadisglobal.com,,3.0,medium=72,Einhell Middle East FZC,1423750,3418593
Wintershall Middle East GmbH-Abu Dhabi,125631567,,Abu Dhabi,971-26810517,http://www.wintershall.com,,2.0,low=57,British Embassy Abu Dhabi,1545661,93423
Linde Engineering Middle East LLC,92461135,,Abu Dhabi,971-24479313,http://www.linde.com,,2.0,low=42,Lindenberg,146516,31646
Architects International - L L C,120029875,Po Box 62922,Abu Dhabi,26666070,http://www.prp-ai.com,,2.0,not matched=0,,,
Al Mumtaz Industrial Equipments,123228894,Po Box 108778,Abu Dhabi,25512755,,4500000.0,1.0,low=64,Al Qudra Industrial,563100,149782
Al Hassan Engineering Co. Abu Dhabi LLC,121663888,,Abu Dhabi,971-25513858,,,,low=41,Hassan Al Hendasi Company,1296349,3385723
Mercantile Information & Telecommunication Technology Co. LLC,122044248,004 Office Floor Sheikha Ayesha Building Salam Street Tourist Club Are,Abu Dhabi,971-2-6458909,http://www.mittco.ae,,,medium=72,PACC Information and communication Technology,797401,564343
Technical Parts Establishment,42386096,,Abu Dhabi,971-2-6732200,http://www.technicalparts.com,,,low=59,Five Continents Technical and Industrial Services Establishment,407099,90171
GHD Global Pty Ltd,111088097,"3rd Floor Guardian Tower,",Abu Dhabi,971-2-6968700,http://www.ghd.com,,,low=52,Global Product Solutions,1464237,3437353
Norr Group Consultants International Limited,92461204,Shk.Hamdan Bin Mohammed Street,Abu Dhabi,26763360,http://www.norrlimited.com,,,not matched=0,,,
Future Decor L.L.C.,50835920,PO Box 105832,Abu Dhabi,971-02 6424911,http://www.futuredecor.ae,,,low=65,Limperatore Decor LLC,1516035,3468967
United Alsaqer Heavy Equipment LLC,111192720,46468,Abu Dhabi,971-2-6981111,http://www.alhamid-group.com/,,,low=62,Kelvin Electrical Equipment LLC,1486251,3453361
S G S Gulf Limited,92461285,Bin Saqr Tower,Abu Dhabi,25557662,http://www.sgsgroup.com,,,low=55,Serck Services (Gulf) Ltd.,1504329,3390406
Lahmeyer International Gmbh,92461124,Business Centre Building Sheikh Hamdan Bin Mohammed Street (Hamd,Abu Dhabi,26794615,http://www.load.ae,,,low=48,Dornier Consulting GmbH,1360746,91919
Abu Dhabi Knee & Sports Med Cent L LC,111192700,"6th Floor, Al Saif Tower, Electra Street",Abu Dhabi,971-2-6317774,,,,low=62,Abu Dhabi Sports Council,945242,3035545
Abu Dhabi Co Operative Society,43871886,P.O. Box 833,Abu Dhabi,971-2-6440808,http://abudhabicoop.com,,,not matched=0,,,
Al Nahda National Schools,99432153,Al Nahda Al Wataniya Building,Abu Dhabi,971-2-4452984,http://www.nahdaschools.com,,,low=38,AJ Group of Schools / Al Ain Juniors School,1596157,3373721
Abu Dhabi Future Energy Company PJSC,107923718,PJSC Building Airport Road Masdar City,Abu Dhabi,971-2-653-3333,,,,high=75,Masdar Abu Dhabi Future Energy Co,450150,99384
Universal Voltas LLC,107976551,P.O.Box 25513,Abu Dhabi,971-2-6338920,http://www.universalvoltas.com/,,,low=54,Universal Recruitment,1529794,3126141
Emirates International Investment Co WLL,111192636,Al Heel Tower,Abu Dhabi,971-2-6679777,http://www.nh.ae/,,,high=89,Emirates International Investment Company,884145,24269
Superior Abu Dhabi LLC,134635635,P.O Box 41156,Abu Dhabi,971-2-6446070,,,,low=25,SUPERIOR OIL FIELD SERVICES COMPANY - L L C,1192248,57500
Benyan Development Co. L.L.C.,121407430,102 Arab Tower Hamdan Street,Abu Dhabi,971-26724322,http://www.benyan.ae,,,high=77,Benyan Development,1155650,3334984
Kongsberg Oil & Gas Technologies,124729439,The Marina Village Bin Salem Holding,Abu Dhabi,971-2-4122255,http://www.kongsberg.com/en/kogt/contactus/officesaroundtheworld/,,,low=63,Oil and gas Technology Services,90056,28147
Al Khazna Insurance Company - Beda Zayed,124579461,,Abu Dhabi,971-28844290,http://www.alkhazna.com/branches.htm,,,high=76,Al Khazna Insurance Company P.S.C.,1339242,3034857
Idroesse Infrastrutture - Abudhabi,120011418,Po Box 52645,Abu Dhabi,24475566,http://www.idroesse.it,,,low=31,Abudhabi Airport Catering and DutyFree,994393,281454
Al Jaber Bitumen LLC,139496877,,Abu Dhabi,971-2-5553562,,,,medium=74,Al Jaber Group LLC,21232,89867
Target Engineering Construction Co LLC,111088296,960,Abu Dhabi,971-2-6714700,http://www.target.ae/,,,low=44,Target Electrical,266822,80512
Veolia Water  Ami- Middle East - Abudhabi,104248335,Pobox3659,Abu Dhabi,6774715,http://www.veoliawater-middle-east.com,,,low=41,Abu Dhabi Water and Electricity Authority,89901,27162
Star Energy Corporation Ltd.,105436130,PO Box 7474,Abu Dhabi,971-02 6351522,http://www.segl.ae,,,low=66,Emirates Nuclear Energy Corporation (ENEC),1575219,3126849
Al Dahra Agriculture - L L C.,123227537,Po Box 18011,Abu Dhabi,6565000,,150000000.0,,low=44,Al Dahra  Holding / Al Ain Holding,1237402,611503
Al Bawardi Enterprises - L L C,96930357,Po Box 4118,Abu Dhabi,6815957,http://www.ae.ae,,,medium=70,EMDAD Al Bawardi Enterprises (AE) Group,1083244,1246756
Ali and Sons Company L.L.C.,42385762,PO Box 2153,Abu Dhabi,971-02 6658000,http://ali-sons.com,,,medium=74,Ali and Sons LLC,213821,27020
Tawam Molecular Imaging Centre LLC,139492701,,Abu Dhabi,971-3-704-1777,http://www.tmic.ae,,,low=38,Tawam Hospital,1747347,560174
Advanced Pipes and Casts Company W.L.L.,136972819,Plot 40 M 35,Abu Dhabi,971-2-5511400,,,,low=62,advanced and cast comp,80249,28040
Credit Agricole CIB - Abu Dhabi,42385800,"Al Muhairy Centre, Suite 502, Sh. Zayed 1st Street, Abu Dhabi",Abu Dhabi,971-2 6351100,http://www.ca-cib.com,,,not matched=0,,,
Noor Al Khaleej LLC,46490155,,Abu Dhabi,971-12-6273270,http://www.al-hassan.com/contactus.html,,,medium=72,Nawras Al Khaleej,905344,2626264
Deloitte and Touche,42386103,PO Box 990,Abu Dhabi,971-02 6760606,http://www.deloitte.com,,,not matched=0,,,
ThyssenKrupp Xervon U.A.E. - L.L.C.,92461510,Area No 1/10 South 15 Villa 1 & 2,Abu Dhabi,971-25587159,http://www.thyssenkruppxervon.de,,,low=52,ThyssenKrupp Bautechnik,1730715,3507948
Sybase Products Middle East,92461390,Po Box P.O. Box 45652,,26275911,http://www.sybase.ae,,,high=80,Sybase Middle East,167214,27651
Al Hilal Bank PJSC,102687650,"PO Box 63111, Corniche St.",Abu Dhabi,971-2 4994444,http://www.alhilalbank.ae,,,high=84,Al Hilal Bank,663851,548624
Superior Oilfield Services Co WLL,111088289,SHK. ZAYED II,Abu Dhabi,971-2-6446070,http://www.superiorenergy.com,,,low=54,Engineering Building Materials Co WLL,532899,28561
Amadeus Gulf Llc,111087954,PO Box 46969,Abu Dhabi,971-2-4937551,http://www.amadeus.com,,,low=60,Arison Gulf co,1165198,81705
Ali & Sons Oilfield Supplies&Services Co,111087949,"Ali &Sons Bldg., Zayed 2nd Street,",Abu Dhabi,971-2-6723900,http://www.asos.ali-sons.com/,,,low=66,Dolphin Oilfield Equipment Services LLC,1561694,66236
DTZ International Limited,123841134,Mermaid Tower Mezzanine Floor Zayed 1st Street Khalidiya,Abu Dhabi,971-2667-4492,,,,not matched=0,,,
Addar Real Estate Services LLC,121396665,,Abu Dhabi,971-2-633-6886,,,,not matched=0,,,
Neo Biocon Pharmaceuticals,111088208,"NA02, AL DHAFRA ROAD - NEW AIRPORT ROAD,",Abu Dhabi,971-2-6585990,http://www.neopharma.ae,,,not matched=0,,,
Tekaniyat,96930425,PO Box 4118,Abu Dhabi,971-02 6326111,http://tekaniyat.com,,,not matched=0,,,
Uniarab Engineering & Oil Field Services,107923713,Suite 1202,Abu Dhabi,97126273400,http://www.uniarab.ae,,,low=65,Yas Oil Field Services,1669505,80516
Merck Sharp & Dohme,107377830,Al Khazna Tower 16Th Floor Nazda Street,Abu Dhabi,26998600,http://www.merck.com,,,not matched=0,,,
Royal Jet LLC,111192629,60666,Abu Dhabi,971-2-5051777,http://www.royaljetgroup.com/,,,high=82,Royal Jet,905591,31329
Al Shaheen LLC,111192861,Emirates Post Building,Abu Dhabi,971-2-8137444,http://alshaheenme.com/,,,not matched=0,,,
Abu Dhabi Ports Company PJSC,111192697,End of Mina Road Next to,Abu Dhabi,971-2-6952000,http://www.adpc.ae,,,medium=72,ADAC (Abu Dhabi Airports Company),964643,3035547
Burooj Properties LLC,111087996,"Al Bateen Business Tower C6, 1st-4th Flr",Abu Dhabi,971-2-6100100,http://www.burooj.ae,,,not matched=0,,,
International Petroleum Investment Co,102157217,Al Muhairy Center Office Tower,Abu Dhabi,971-2-6336555,http://www.ipic.ae,51183648000.0,,low=60,National Petroleum Construction Company (NPCC),5136,29299
Emirates Industrial Bank,42385866,Arab Monetary Fund Building,Abu Dhabi,971-2-6339700,http://www.eib.ae,132173000.0,,high=92,Emirates industrial bank,311284,29123
Laing Abu Dhabi L.L.C.,42385959,PO Box 27658,Abu Dhabi,971-02 6335447,http://www.emiratesholdings.com,,,low=36,Laingorouke,357548,93247
Environmental Resources Management Limited - Abu Dhabi Branch,120011645,Po Box 4118,Abu Dhabi,24434132,http://www.erm.com,,,low=56,Tecnoconsult International (UK) Ltd  -  Abu Dhabi Branch,1013395,3039073
Arab Bank P.L.C.,96724630,Saeed Sultan Al Darmaki Bldg,Abu Dhabi,6392225,http://www.arabbank.ae,,,low=47,Arabian Nights,1528402,3461436
Oil Tech International,122874219,Po Box 108513,Abu Dhabi,6332975,,2400000.1,,low=65,Falcon Technologies International L.L.C.,1046493,3040655
Imagenation Abu Dhabi,104146713,P.O. Box 63,Abu Dhabi,971-2-4145666,http://www.imagenationabudhabi.com/,,,not matched=0,,,
Zelan Holdings (M) Sdn. Bhd.-Abu Dhabi,121401569,No 202 ADCB Building,Abu Dhabi,971-2-6215-667,http://www.zelan.com,,,low=61,National Holding Company Abu Dhabi,1652825,3401221
Al Jaber Transport & General Contracting Co.,121745662,,Abu Dhabi,971-25554300,,,,high=84,Al Rafeh Transport and General Contracting Est.,343597,63943
Xtramix Concrete Solution Mix LLC,139493938,,Abu Dhabi,971-2-5511118,http://www.xtramix.ae,,,low=58,Trionix Internet Solutions,1665407,3500378
GIBCA Petroleum Services LLC,122968782,,Abu Dhabi,971-2-6260222,http://www.gibca.com,,,not matched=0,,,
NMC Holistic Health Centre,124754460,,Abu Dhabi,971-26332255,http://www.nmc.ae,,,low=65,We Care Home Health Center,1574877,3484878
International Engineering Technology,43523277,"PO Box 6037, Sheraton Residence Bldg., Khalidiya St.",Abu Dhabi,971-02 6655446,http://www.alhamed.com/ietinfo.htm,,,high=97,International engineering Technology,262874,59165
Ubs Ag,48584135,Adnic Building Shaikh Khalifa Street,Abu Dhabi,24069200,http://www.ubs.com,,,not matched=0,,,
Al Yah Satellite Communications Co PJSC,111192730,Al Falah City,Abu Dhabi,971-2-5100000,http://www.yahsat.ae/,,,low=58,Spectrum Communications,1700731,3382241
Abu Dhabi International Exhibitns Co WLL,111192687,"Al Khaleej Al Arabi Street,",Abu Dhabi,971-2-4446900,http://www.adnec.ae,,,low=49,Al Rawafid Engineering and Contracting Co. - (WLL),1628308,234642
Luxury Real Estate Development,120011385,"Mo Floor, Sultan Bakery Building Besides Emirates Discount Marke",Abu Dhabi,26411833,http://www.luxurydevelopment.ae,,,high=82,Luxury Real Estate Development (Al fakhama),350647,318304
Salem Freight International Est,92460743,Po Box 44256,Abu Dhabi,6265888,http://www.sfi.com,,,low=44,Al Marzouqi & BinSalem Fire Fighting Coatings LLC (MBS),1058396,183786
Al Ghaith Group Est,126194546,"Tourist Club Area,",Abu Dhabi,26723800,,,,low=57,Al Ghaith Oilfield Supplies,489549,306854
JC Maclean International FZCO,111088141,"NA02, HAMDAN BIN MOHAMMED STREET,",Abu Dhabi,971-2-6272427,http://www.jcmaclean.com/,,,not matched=0,,,
Mediterranean Building Materials,122048019,Po Box 44694,Abu Dhabi,24483232,,24000000.0,,high=91,Mediterranean Building Materials (MBM),1507318,3465605
CAN Middle East L.L.C.,124753021,,Abu Dhabi,971-2-644-1338,,,,low=56,Tropicana Middle East Landscape LLC,1520707,3470428
"Langan International, LLC-Abu Dhabi Branch",137067295,Corniche Road Al Hana Tower M Level Suite 109,Abu Dhabi,971-2-6359144,http://www.langan.com,,,medium=71,Tecnoconsult International (UK) Ltd  -  Abu Dhabi Branch,1013395,3039073
Al Odaid Real Estate LLC,111192704,P.O.Box 19960,Abu Dhabi,971-2-6271322,http://www.alodaid.ae/,,,not matched=0,,,
United Group Holding LLC,111192783,161,Abu Dhabi,971-2-6677774,http://www.dasholding.ae,,,low=61,United Global Trading FZE,631599,545305
Tasameem Projects Management Co LLC,111088297,"Suite No. 206, Al-Bateen",Abu Dhabi,971-2-6656631,,,,high=87,Tasameem Project Management,674551,550283
Raseen Technologies LLC,111088243,Al Neem Building 18 Th Floor,Abu Dhabi,971-2-6266406,http://www.raseen.ae,,,not matched=0,,,
ILF Consulting Engineers,48609233,PO Box 73250,Abu Dhabi,971-2 6716500,http://www.ilf.com,,,low=35,Dolphin Oilfield Equipment Services LLC,1561694,66236
EMDAD L.L.C.,51575151,PO Box 4118,Abu Dhabi,2 6349999,http://www.emdad.ae,,,low=24,EMDAD Al Bawardi Enterprises (AE) Group,1083244,1246756
Imperial College London Diabetes Centre,111088127,PO Box 48338,Abu Dhabi,971-2-5050800,http://www.icldc.ae/,,,low=46,Brighton College Abu Dhabi,1477546,3448007
GLOBALFOUNDRIES Technologies LLC,122044408,HQ Building 13th Floor Highway E10 Channel St,Abu Dhabi,971-2-496-3900,,,,not matched=0,,,
Rotana Hotel Management Corporation Ltd,111088255,Capital Center,Abu Dhabi,971-2-6444412,http://www.rotana.com/,,,low=62,Garnet Management Consulting LLC,1746202,3514977
Action International Services L.L.C.,124484761,PO Box 41123,Abu Dhabi,971-02 5540180,http://www.action-is.com,,,low=50,Action Impact Events,441850,100294
Suwaidi Engineering Group L L C,92461298,Po Box 3333,Abu Dhabi,26727477,http://www.suwaidieng.com,,,high=89,Suwaidi Engineering Group,294471,28503
CosmoSeis Inc,111088018,"CERT Technology Park P-Block,",Abu Dhabi,971-2-4451885,http://www.cosmoseis.com/,,,not matched=0,,,
Middle East Medical Supplies,113815026,P.O Box 26143,Abu Dhabi,97126213322,http://www.memsuae.com,,,not matched=0,,,
Citibank N.A. - Musaffah,111377480,"Prestige Twr No. 17, Near Mazyad Mall, MBZ City, Musaffah",Abu Dhabi,971-2 596 7612,http://www.citigroup.com/uae,,,not matched=0,,,
Emirates Nuclear Energy Corporation,111377481,PO Box 112010,Abu Dhabi,97126595555,http://www.enec.gov.ae,,,high=91,Emirates Nuclear Energy Corporation (ENEC),1575219,3126849
Arabian Company For Furniture L L C,126266891,,Abu Dhabi,4465659,,,,low=55,Arabian International Company for Steel Strucure,851151,3035155
DHS Oil International Pty Ltd,121700504,,Abu Dhabi,971-4-815-3817,http://www.vesinternational.com,,,medium=72,DHS International FZE,1709853,3506194
Zari Zardozi,121418088,Al Raha Mall - Ground Floor,Abu Dhabi,971-25565188,http://www.zarizardozi.com,,,not matched=0,,,
Descon Engineering Abu Dhabi,125630936,Mussafah Industrial Area ME-14 United Bank Limited Building,Abu Dhabi,971-25555807,http://www.descon.com,,,not matched=0,,,
Abu Dhabi Land General Contracting LLC,138450022,Villa 3 Muroor Road Hadbat Al Zaafran,Abu Dhabi,971-2-4488900,,,,low=49,Arts Island Contracting General Maintenance and Decor L.L.C,1732621,3509306
Al Mazroui Group,42385983,PO Box 97,Abu Dhabi,971-02 6729988,http://www.mazroui.com,,,high=100,Al Mazroui Group,1440796,104464
Emirates Pre-insulated Pipes Industries LLC,124718838,Industrial city of Abu Dhabi Musafah,Abu Dhabi,971-25501991,http://www.eppi.ae,,,high=89,Emirates Preinsulated Pipes Industries (EPPI),1539910,82092
Liwa Energy Limited LLC,139493555,Al Mubadala Building New Airport Road,Abu Dhabi,971-24132222,,,,low=50,energy associates Ltf,992645,3037463
AMEC (United Arab Emirates),126325333,Shk Sultan Bin Hamdan Al Nahyan Building Building No E48-C8 5th Floor,Abu Dhabi,971-2-622-1155,,,,low=62,"Presidential Flight, United Arab Emirates",1613757,25393
EMC Computer Systems Middle East,145686449,Bainuna Street 34,Abu Dhabi,+971 2 406 9743,http://www.emc.com/,,,low=59,Americana Computer Systems,1462033,3387870
Injaz Mena Investment Company PSC,98191420,PO Box 107394,Abu Dhabi,971-04 6728400,http://www.injazmena.com,,,low=49,Injazat Data Systems LLC,500650,3515257
Gulf Petrochemical Services L.L.C.,42385910,PO Box 17960,Abu Dhabi,971-03 7512341,,,,low=62,Gulf Marine Services co.,883290,53798
Mubarak & Brothers Financial & Property,111088202,P.O.Box 39996,Abu Dhabi,971-2-4443522,http://www.mbiuae.com/,,,low=61,Mubarak And Brothers Property And Financial Investments LLC,1670558,3124499
DAS Holding,111088028,"4th floor, Office Twr Dusit Thani Cmplx",Abu Dhabi,971-2-4141111,http://www.dasholding.ae,,,high=82,Das Holding,749251,558933
Union Autoline Spare Parts LLC,111192652,MUBARAK HAMAD MUBARAK AL MANSOURY BLDG.,Abu Dhabi,971-2-4477636,http://www.autolineind.com/,,,low=52,Union Gulf Services Est.,1398798,3396057
Mubadala Capitaland Real Estate LLC,111192778,"Capitala Site Building, Al Moroor Street",Abu Dhabi,971-2-4121111,http://www.capitala.ae,,,low=59,Mubadala GE Capital,1547853,3457583
Petro Middle East Recruitment,123249451,Po Box 802,Abu Dhabi,6212140,http://www.pme.ae/,40000000.0,,medium=74,Petro Middle East,278772,54010
Al Babtain Leblanc Emirates For Telecommunication Systems Limited Liability Company,122967481,Po Box 51074,Abu Dhabi,6431828,,94642700.0,,low=51,Emirates Telecommunications Corporation - Etisalat,389949,27747
Talal Abu Ghazaleh and Company International,42386092,PO Box 4295,Abu Dhabi,971-02 6724425,http://tagi.com/?lang=ar,,,low=65,Talal Abu Ghazaleh & Co.,173567,26707
Deutsche Babcock Middle East FZE,126344363,,Abu Dhabi,971-2-49959-99,http://www.babcock.bilfinger.com,,,low=43,Integra Technologies FZE,1590208,3387772
White Aluminum Extrusion LLC,139495015,ICAD1 Mussafa,Abu Dhabi,971-2-5500947,http://www.whiteextrusion.com,,,medium=70,White Aluminium Enterprise,268280,80532
Al Waha Capital PJSC,51208265,Etihad Towers 42nd Floor Tower 3,Abu Dhabi,971-2-6677343,http://www.wahacapital.ae,144479000.0,,low=69,Al Ramz Capital,334796,28352
Mohamed Abdulrahman Al Bahar Company L.L.C. - Abu Dhabi,42385789,PO Box 441,Abu Dhabi,971-02 5554200,http://www.albahar.com,,,not matched=0,,,
Eads,92460901,P.O. Box 72186,Abu Dhabi,26812878,http://www.eads.com,,,not matched=0,,,
Cosmo Oil Company Limited,92460807,Almasaood Bldg Hamdan Bin Mohammed St,Abu Dhabi,,http://www.cosmo-oil.co.jp,,,low=47,cosmos real estate,968842,3035667
Kotak Mahindra International Ltd,111088154,"KHALIFA BIN ZAYED STREET,",Abu Dhabi,971-2-6229042,http://www.kotak.com/,,,not matched=0,,,
RSK Environment L.L.C.,107936501,PO Box 46112,Abu Dhabi,971-02 6118500,http://www.rsk.co.uk,,,low=62,Bauer Environment,1426746,3375678
Khidmah LLC,137702353,"Mazyad Mall Tower 3, 10th Floor",Abu Dhabi,971-2-4080888,http://www.khidmah.com,,,not matched=0,,,
Abu Dhabi Securities Exchange,111192785,"Al Ghaith Tower, Ground and 1st Floor",Abu Dhabi,971-2-6277777,http://www.adx.ae,,,high=91,Abu Dhabi Securities Exchange (ADX),1515000,3471582
Bank Saderat Iran - Abu Dhabi,42385798,"PO Box 700, Hamdan St.",Abu Dhabi,971-02 6225155,http://www.banksaderat.ae,,,not matched=0,,,
Tamas Project Company L L C,120011297,Po Box 46447,Abu Dhabi,6266277,http://www.tamaspro.com,35000000.0,,low=63,Tamas Projects,357947,91393
MarCap LLC.,92500573,PO Box 30175,Abu Dhabi,971-02 6225100,http://www.marcap.ae,,,low=52,MARCAP L.L.C,211220,26836
Noble Denton and Associates WLL,48871575,PO Box 27510,Abu Dhabi,971-02 6440739,http://www.nobledenton.com,,,low=59,Nonweiler Associates,1452552,3424584
Bin Jabr Group Limited,111192630,Bin Jabr Group Limited Building,Abu Dhabi,971-2-6419660,http://www.binjabr.com/,,,high=78,Bin Jabr Group,417050,60447
New Medical Centre Group-Dubai,138774656,"PO Box 6222, Al Quoz",Abu Dhabi,971-02 6332255,http://www.nmcgroup.net,,,medium=71,New Medical Center Specialty Hospital Dubai,224681,80227
Al Jaber Aluminum Extrusion L.L.C.,123156930,,Abu Dhabi,971-25553707,,,,low=58,Al Jaber Group LLC,21232,89867
Al Jaber Building L.L.C.,124718381,Sector 6 & 7 St,Abu Dhabi,971-25554376,http://www.aljaber.com,,,low=69,Al Qabdah Building Contracting L.L.C.,1416473,3116338
UAE Sponsorship Centre,124754435,,Abu Dhabi,971-26334383,http://www.nmc.ae/04_business_sectors/03_financial_services/uae_sponsorship.htm,,,low=50,UAE University,205973,29451
Al Batin Business Centre L.L.C.,139495145,C6 Tower First Floor Bainuna St 34,Abu Dhabi,971-2-406-9444,,,,low=69,Arabic Business Center- ABC,1569563,3488202
Al Ain Capital LLC,127706357,6th Floor Al Ain Tower,Abu Dhabi,971-2-6515555,,,,medium=73,Al Ain Hospital,1073046,3383663
Emirates Business Group L.L.C.,126201414,Po Box 45662,Abu Dhabi,26658844,,,,low=67,Emirates Advanced Investments Group LLC,306786,82562
John Buck International,111088145,"Al Wifaq Finance Building, 8th Floor",Abu Dhabi,,,,,high=100,John Buck International,943341,612698
Amana Steel Building Contracting LLC,111087957,5643,Abu Dhabi,971-2-6428383,http://www.amanabuildings.com/,,,low=53,Consolidation Steel Construction,859801,611033
Business Communications LLC,122787992,PO Box 2354,Abu Dhabi,971-2 6348495,http://www.bcluae.com,,,medium=71,KBS Communications,1668488,3485577
New Medical Centre Trading L.L.C,98409054,Po Box 6222,Abu Dhabi,26332255,http://www.nmcgroup.net,900000000.0,,low=63,Life Medical Centre,422552,31645
Methaq Takaful Insurance Co,99262216,Building C54,Abu Dhabi,971-2-6565333,http://www.methaq.ae,284484800.0,,low=50,Takaful Funds,1593049,3483027
Arab Banking Corporation BSC,46490317,PO Box 6689,Abu Dhabi,971-02 6447666,http://www.arabbanking.com,,,low=54,Arab Trade Financing Program,414099,100204
Emirates Management Services Corp,111192842,UAE University Building,Abu Dhabi,971-2-7135039,http://www.khadamatuae.ae,,,high=76,Emirates Engineering Services LLC,1561008,3481880
Pivot Engineering & General Contracting,111088232,Al Wahda Commercial Tower,Abu Dhabi,971-2-6947999,http://www.pivot.ae/,,,high=92,Pivot Engineering & General Contracting Co WLL,1442347,29598
Oger Abu Dhabi LLC,123167644,Al Sahel Towes Mezzanine Floor Khalidiya,Abu Dhabi,971-2-635-9777,,,,low=45,Saudi Oger Emirates Limited LLC,343347,549065
Al Geemi and Partners Contracting Company L.L.C.,42385761,PO Box 2877,Abu Dhabi,971-02 6328438,http://www.algeemi.com,,,low=48,algeemi contracting,781151,537674
Emirates Management Assistance Company EMASCO,48609244,PO Box 94,Abu Dhabi,971-02 6673535,http://www.alhamed.com/emascoinfo.htm,,,low=68,Emirates Insurance Company P.S.C,980350,3035713
Khalidia International Group Of Companies Llc,126194818,Po Box 46446,Abu Dhabi,6810000,,,,not matched=0,,,
Al Aqeel Spare Parts,96740618,PO Box 70506,Abu Dhabi,971-02 4456568,,,,low=50,Malta Auto Parts,1491125,3456909
Agility Abu Dhabi PJSC,111087940,PO Box 93971,Abu Dhabi,971-2-5099599,http://mubadala.ae,,,low=42,Agility Global Integrated Logistics,1494112,3473218
Denholm Yam,139493552,,Abu Dhabi,971-2-659-3333,,,,low=24,Taryam American Private School,1698978,3503675
Tourism Development & Investment Company P.J.S.C,122874194,Po Box 126888,Abu Dhabi,4061400,,3582252900.0,,high=85,Tourism Development and Investment Company (TDIC),1528405,3383678
Atlas Medical,113814835,Al Masaood Towers,Abu Dhabi,97126217732,http://www.atlasmedical-uae.com,,,medium=72,Nova Medical,1484745,3452176
Al Tamimi and Co.,42386093,PO Box 44046,Abu Dhabi,971-02 6744535,http://www.tamimi.com,,,not matched=0,,,
GAC MARINE L.L.C.,42385890,PO Box 8101,Abu Dhabi,971-25014900,http://www.gac.com/marine,,,low=36,Blue Marine Computers L.L.C,1619665,3494492
Jenan Hotels and Resorts,111088142,P.O. Box 869,Abu Dhabi,971-2-6211661,http://www.jinanhotelsandresorts.com,,,not matched=0,,,
Abu Dhabi Airports Company,111192669,Abu Dhabi Airports Company Building,Abu Dhabi,971-2-5055000,http://www.adac.ae/,,,high=88,ADAC (Abu Dhabi Airports Company),964643,3035547
Warid Telecom International LLC,134213417,"NA02, Khalifa Bin Zayed Street,",Abu Dhabi,971-2-6266406,http://www.waridtel.com,,,high=75,Dhabi group (Warid Telecom International),269625,64049
Abdul Azeez Yousuf Electronics,96740620,PO Box 25346,Abu Dhabi,971-02 6327059,,,,low=51,Hayat Electronics,1580016,31859
Royal Group Property Management,125228684,"Salam Street,",Abu Dhabi,971-2-8111111,http://www.royalgroupuae.com,,,low=55,Royal Green Flowers and Plants LLC,1736308,3510647
Allied Projects (Overseas) Ltd.,42385765,"PO Box 4543, Khalifa Bin Zayed St.",Abu Dhabi,971-02 6265679,,,,low=60,PLM Overseas Ltd,311034,86138
Pannell Kerr Forster,120010525,Blue Tower Bldg,Abu Dhabi,,http://www.pkfuae.com,,,not matched=0,,,
Habib Bank Limited,92461058,Skh.Saeed Bin Mohammed Alnahyan Bldg,Abu Dhabi,,http://www.habibbank.com,,,low=51,Bin Shabib and Associates,1458582,3430877
Cargotec (ARE) GULF WLL,125218606,Plot No 50 Shop Nos 12 & 13 M-9 Mussafah Industrial Area n a,Abu Dhabi,971-25541690,,,,low=37,Xervon Gulf LLC,1590359,80255
Citibank N.A. - Abu Dhabi,42385831,PO Box 999,Abu Dhabi,971-02 6982304,http://online.citibank.com/US/,,,not matched=0,,,
Ducont LLC,48261557,PO Box 500073,Dubai,971-43913000,http://www.ducont.ae,,,not matched=0,,,
Finance House P.J.S.C.,51457805,PO Box 7878,Abu Dhabi,971-2-6194000,http://www.financehouse.ae,310260010.0,,medium=74,Finance House,1438146,28694
Emirates CMS Power Company PJSC,107923708,Taweelah A2 IWPP,Abu Dhabi,971-2-6780848,http://www.adwea.ae,,,medium=70,Emirates Insurance Company P.S.C,980350,3035713
Bin Salem Group LLC,111192752,"khalidiya,",Abu Dhabi,971-2-4122222,http://binsalem.ae,,,high=78,Bin Salmeen Group,1484068,3450645
National Takaful Co PJSC,125093243,PO Box 6457,Abu Dhabi,971-2-6138888,http://www.watania.ae,113581000.0,,medium=74,National Takaful Company PSC - Watania,1460711,3432841
National Bank of Umm Al Qaiwain,124752784,NBQ Building King Faisal Street Near Sh Zayed Mosque 1st Floor,Abu Dhabi,971-67066666,http://www.nbq.ae,129134200.0,,low=30,Northrop Grumman Electronic Systems,894244,63783
Abu Dhabi Terminals PJSC,125714867,PO Box 422,Abu Dhabi,971-02 6730600,http://www.adterminals.ae,,,high=88,Abu Dhabi Terminals,1557042,3373541
Maximus Air LLC,111088182,Maximus Air Building,Abu Dhabi,971-2-4474900,http://www.maximus.aero/,,,low=69,Maximus AIR CARGO,287823,83034
Business Enterprises Services,98191437,PO Box 30514,Abu Dhabi,971-02 6420520,http://www.bes.ae,,,high=91,Business Enterprises Services (BES),226570,309749
Travelex Emirates LLC.,137782415,Sheikh Ahmed bin Hamid Al Hamid Building Sheikh Zayed I Street,Abu Dhabi,971-25759660,http://www.travelexae.com,,,medium=70,PF Emirates LLC,1484074,3034701
Hard Walls Cafe and Restaurant,48609241,"PO Box 43695, Marina Mall",Abu Dhabi,971-02 6814200,http://www.adcecogroup.com/associates/hardwalls.htm,,,low=68,Jar Al Qamar Restaurant,1743856,3514062
Al Mazroui Engineering Company Llc,123284550,Po Box 97,Abu Dhabi,6724422,,200000000.0,,low=56,Al Mazroui Group,1440796,104464
Al Ghaith Holding Company PJSC,111192716,P.O. Box 32323,Abu Dhabi,971-2-6262525,,,,low=49,Al Ghaith Oilfield Supplies,489549,306854
Multi Chemical Establishment,111088203,AL MUSAFAH AREA,Abu Dhabi,971-2-5588000,http://www.alhamid-group.com,,,low=45,Multiply Marketing Consultancy,1479071,549273
Fortune Super Equity Management LLC,111088083,Saeed Bin Saif Al Nahyan Building,Abu Dhabi,971-2-6817777,http://www.fortune-management.com,,,low=69,Demar Property Management LLC,1417278,1306745
Cristal Hotels and Resorts,113824979,PO Box 72898,Abu Dhabi,971-02 6520000,http://www.cristalhotelsandresorts.com,,,not matched=0,,,
Abu Dhabi Investment House PJSC,107923723,"Corniche Road,  106699",Abu Dhabi,971-2-6811233,,,,not matched=0,,,
Fugro Global Environmental and Ocean Sciences,48609214,PO Box 43088,Abu Dhabi,971-2 5545101,http://www.geos.com,,,low=62,Veolia Environmental Services,1204599,3373312
Abu Dhabi National Oil Company for Distribution,123860299,,Abu Dhabi,971-26771300,http://www.adnoc-dist.com.ae,,,low=64,Abu Dhabi Company for Onshore Oil Operations,11279,26680
Cegelec Abu Dhabi,123157944,Al Ain Ahlia Insurance Building 2nd Floor,Abu Dhabi,971-2-403-0600,,,,high=100,Cegelec Abu Dhabi,209929,27805
Cadelta Group,121414676,Minafree Port Area Minazayad,Abu Dhabi,971-6732111,,,,not matched=0,,,
Barclays Bank PLC - Abu Dhabi,42385804,PO Box 1891,Abu Dhabi,971-02 4958555,http://www.barclays.ae,,,not matched=0,,,
Germanischer Lloyd Se - Abu Dhabi,92460994,Po Box 36941,Abu Dhabi,24439870,http://www.gl-group.com,,,medium=71,Germanischer Lloyd,1056617,1311915
Dewan Architects and Engineers,111088031,"Villa B21, Marina Village,",Abu Dhabi,971-2-6655599,http://www.dewan-architects.com,,,not matched=0,,,
Emirate Safety Services LLC,111192642,Salem Almehairaby Building,Abu Dhabi,971-5-06340812,http://www.emisafe.ae,,,medium=73,Emirates Engineering Services LLC,1561008,3481880
Matajer LLC,111088178,"NA02, Al Nasr Street,",Abu Dhabi,971-2-4476678,http://www.matajer.ae/,,,high=78,Matajer,878192,555424
Al Brooge Shares And Bonds Co WLL,111192890,Al Sayegh Tower,Abu Dhabi,971-2-6333116,http://www.brooge.com,,,low=64,Al Wathba Shares and Bonds Center,1595503,3444390
Al Qudra Holding PJSC,98487042,Meena Towers,Abu Dhabi,971-2-6992222,http://www.alqudraholding.ae,,,high=84,Al Qudra Holdings,1483866,80493
Dussmann Gulf LLC,137782470,AL Najda St,Abu Dhabi,971-2-4433120,,,,high=87,Dussmann Gulf,1430546,216384
Enerflex MENA Ltd,138933939,Al Gaith Tower Airport Road 14 Floor,Abu Dhabi,971-2-443-0015,,,,low=39,The Crewing Company MENA,1733870,3509072
ADCB Finance (Cayman) Limited,121396501,Al Salam St,Abu Dhabi,971-26962222,,,,low=53,Al Wifaq Finance Company,883890,557874
CAPM Investment PJSC,111088001,P.O.Box 105447,Abu Dhabi,971-2-6194661,http://www.capminv.com,,,not matched=0,,,
Abu Dhabi National Properties LLC,125643599,Muroor Road Street 4 Opposite Madinat Zayed Shopping Centre,Abu Dhabi,971-2-659-4888,http://www.nbad.com/investment/adnp/,,,not matched=0,,,
Al Fardan Exchange,48584054,"PO Box 498, Liwa St.",Abu Dhabi,971-02 6223222,http://www.alfardanexchange.com,,,not matched=0,,,
Hobas Gulf Pipe Factory L.L.C.,48584005,PO Box 46231,Abu Dhabi,971-02 5826288,http://www.hobas.com,,,low=63,Gulf Prefab Houses Factory LLC,1527038,26000
Halliburton KBR,42385916,"PO Box 57, 11th Fl. Lulu Centre",Abu Dhabi,971-02 6442212,http://www.halliburton.com,,,not matched=0,,,
Standard Chartered Bank - Abu Dhabi,42386085,PO Box 240,Abu Dhabi,971-02 6777400,http://www.standardchartered.ae,,,low=68,Standard Chartered,1004698,233476
Tüv Süd Middle East Llc,92461545,Po Box 45117,Abu Dhabi,26767600,http://www.tuvusudme.com,,,not matched=0,,,
National Health Insurance Co,104248334,"Airport Road,",Abu Dhabi,971-2-6149555,http://www.damanhealth.ae,,,high=84,Daman National Health Insurance Company,310588,81473
SEG Middle East LLC,111088263,P.O. Box 42278,Abu Dhabi,971-2-5549544,,,,low=55,SEG Emirates Contracting LLC,1224000,3032641
UAE Exchange Centre LLC,111192659,Al Sayegh Center,Abu Dhabi,971-2-6105555,http://www.uaeexchange.com/,,,low=54,Epta UAE Technical Services L.L.C,1575440,3484741
National Central Air Condition Company - P S C - Abu Dhabi,123262655,Po Box 29478,Abu Dhabi,6455007,,1128738000.0,,low=55,"Tabreed, National Central Cooling Co. (PJSC)",506599,62846
Mashreqbank P.S.C - Mashreq Al Islami Division,121405034,Ground Floor Blue Tower Khalifa Street,Abu Dhabi,971-4-424-4411,http://www.mashreqalislami.com,,,low=39,General Authority of Islamic Affairs,902595,613514
PAL Technology Services LLC,111088222,"2nd Floor, Royal Group Building",Abu Dhabi,971-2-6428777,http://www.paltechnology.com/,,,low=53,PAL Group of Companies LLC,1385948,1250487
Spectrum Light Block LLC,111088280,ICAD 1 Mussafah,Abu Dhabi,971-2-5500702,http://slb-uae.com/,,,low=52,Derma Light Center,1570522,3488805
Al Tamouh Investments Company LLC,111192806,"6th Floor, East Wing Tower,, P.O. Box 10",Abu Dhabi,971-2-6442218,,,,not matched=0,,,
Arab German International Broker  Finance Brokers Llc,120012190,Po Box 4475,Abu Dhabi,6518888,http://www.agib.ae,,,low=66,General International Insurance Brokers Company,76748,23913
The Housing Bank For Trade & Finance - (Representative Office) - Abu Dhabi,120010945,Shk.Khalifa Bin Zayed Street,Abu Dhabi,,http://www.hbtf.com,,,low=65,The Housing Bank for Trade & Finance - HBTF,1406135,1256152
Campenon Bernard Sge - Abu Dhabi,92460877,Blue Tower Bldg,Abu Dhabi,26264370,http://www.vinci.net,,,not matched=0,,,
MENACORP,100971477,PO Box 108377,Abu Dhabi,971-2 6271215,http://www.wafafs.com,,,not matched=0,,,
Austin-Smith:Lord Abu Dhabi,125630991,Al Nasr Street Qasr Al Hosn Cultural Quarter,Abu Dhabi,971-2-631-7072,http://www.austinsmithlord.com,,,not matched=0,,,
Cemex Super Mix L L C,92461535,Pobox:72071Abudhabi,Abu Dhabi,25515501,http://www.cemex.com,,,low=46,Super Sign Company,422901,101096
Higher Corporation for Specialized Econ.,111088111,P.O.Box: 36000,Abu Dhabi,971-2-5500000,http://www.zonescorp.com,,,medium=73,Zonecorp - Higher Corporation for Special Economic Zones,164368,27615
Al Marjan Geoservices LLC,111192772,Z14 P19 Abu Dhabi Municipality Building,Abu Dhabi,971-2-5553388,http://www.alfahim.com,,,not matched=0,,,
Enviromena Power Systems LLC,111088062,"SAF Block 5, Opp, Presidential Flight",Abu Dhabi,971-2-6353213,http://www.enviromena.com,,,high=92,Enviromena Power Systems,1491664,543874
Emirates Crown Lube Company Ltd,111192755,P.O.Box 9200,Abu Dhabi,971-2-5542444,http://www.emicrown.com/,,,low=69,Emirates Driving Company,1091351,3123271
Danway Fusion Glass LLC,111192862,P.O. Box 105638,Abu Dhabi,971-2-5501665,http://www.danway.ae/,,,low=57,Emirates Float Glass L.L.C,644450,535577
Patchi L.L.C.,126967640,PO Box 35497,Abu Dhabi,971-02 6666748,http://www.patchi.com,,,not matched=0,,,
Bin Hamoodah Automotives L.L.C.,127979943,PO Box 203,Abu Dhabi,971-02 4448888,http://www.binhamoodahauto.com,,,medium=71,Bin Hamoodah Auto,934841,223356
Emsons L L C,92461486,Po Box 321,Abu Dhabi,26731660,http://www.emsons.com,,,not matched=0,,,
Emirates EMI,50835922,PO Box 42802,Abu Dhabi,971-02 6713500,http://www.alhamed.com,,,low=69,Emirates Dates,222769,26897
Abu Dhabi Finance PJSC,107377819,Abu Dhabi Finance Building,Abu Dhabi,971-2-4018555,http://www.adf.ae,,,low=57,Al Wifaq Finance Company,883890,557874
Al Rayan Investment PJSC,111192856,Crossing of Al Khaleej Al Arabi Road,Abu Dhabi,971-2-6666332,http://www.alrayan.ae,,,not matched=0,,,
Dragomar International AG,42385858,PO Box 27297,Abu Dhabi,971-02 6327600,,,,not matched=0,,,
Target Engineering Construction Company L L C,120010749,Po Box 960,Abu Dhabi,26714700,http://www.target.ae,387000000.0,,low=42,Target Electrical,266822,80512
SHUAA Securities LLC,121406073,Corniche Road Abu Dhabi National Islamic Finance Building,Abu Dhabi,971-24090700,http://www.shuaasecurities.com,,,not matched=0,,,
Menacorp Financial Services L.L.C.,126967659,PO Box 108377,Abu Dhabi,971-02 6271215,http://www.menacorpfinance.com,,,medium=70,Makaseb Financial Services,338196,84584
Future Pipe Industries Group Ltd.,127668768,,Abu Dhabi,971-2-627-0008,http://www.futurepipe.com,,,low=55,RAF OIL Industries LLC,1685553,3509662
Abu Dhabi National Carpet Factory,98191431,PO Box 30085,Abu Dhabi,971-02 5515100,http://www.adnc.ae,,,high=83,Abu Dhabi Carpets Factory,1402452,3398964
Max Rock LLC,120029369,"Ali & Sons Building,",Abu Dhabi,971-2-6713993,http://www.maxrock.ae,,,high=92,Max Rock L.L.C,738252,220707
Detecon International Gmbh - Abu Dhabi,120011361,Tourist Club,Abu Dhabi,,http://www.detecon.com,,,medium=71,Detecon International,1493870,3458738
Lufthansa German Airlines,92461166,Al Dhafra Street,Abu Dhabi,,http://www.uae.lufthansa.com,,,low=51,Midex Airlines,843951,608993
Group 3 Engineers and Contractors,92500571,PO Box 4390,Abu Dhabi,971-2 6222760,http://www.adcecogroup.com,,,high=100,Group 3 Engineers and Contractors,653699,93808
Zawaya Decor L.L.C.,92500585,PO Box 47780,Abu Dhabi,971-02 6270327,http://www.adcecogroup.com,,,low=56,Samaya Decoration,271722,64891
Al Rumaithy General Trading Establishment,42751316,PO Box 4356,Abu Dhabi,971-02 6724472,http://www.alrumaithy.com,,,low=48,Al Rumaithy Group,1381246,64437
Al Ramz Securities LLC,137784416,"Sky Tower, 22nd Floor, Al Reem Street,",Abu Dhabi,971-2-6262626,http://en.alramz.ae,,,low=54,Al Ramz Capital,334796,28352
Central Bank Of The United Arab Emirates,98460543,Po Box 854,Abu Dhabi,26652220,http://www.centralbank.ae,4533000000.0,,low=69,"Presidential Flight, United Arab Emirates",1613757,25393
Abu Dhabi Transmission & Despatch Company,92461558,,Abu Dhabi,971-2-4164000,http://www.transco.ae,,,high=81,Abu Dhabi Transmission & Despatch Co. ( TRANSCO),49997,27104
Mitsubishi Heavy Industries Limited,92461190,Po Box 912,Abu Dhabi,26447373,http://www.mitsubishicorp.com,,,low=56,Abu Dhabi Gas Industries Ltd (Gasco),1644260,23841
National Bank of Ras Al Khaimah PSC - Abu Dhabi,138505729,"PO Box 2289, Hamdan St.",Abu Dhabi,971-02 6448227,,,,low=52,American University of Ras Al Khaimah,1179003,3335977
Associated Construction & Trading Group,126201412,Po Box 526,Abu Dhabi,26678888,,,,low=56,Associated Insurance Consultants,798451,564403
National Horticultural Co.,43523278,"PO Box 43832, Mezzanine Fl., Falcon Tours Bldg., Khalidiya",Abu Dhabi,971-03 7347373,http://www.alhamed.com/NHC.htm,,,not matched=0,,,
United Eastern Group LLC,92461055,"Liberty Tower, 4th Floor,",Abu Dhabi,971-2-6272737,http://www.ueg.ae,,,high=91,United Eastern Group,8715,89378
Paris-Sorbonne University Abu Dhabi,125228686,Paris-Sorbonne University Abu Dhabi,Abu Dhabi,971-2-6569555,http://www.sorbonne.ae,,,not matched=0,,,
Al Mirfa Power Company,92461561,,Abu Dhabi,971-2-8952200,http://www.ampc.ae,,,medium=73,Taweelah Asia Power Company,316937,57097
Al Khazna Insurance Company - Al Mussafah Light Vehicle,123860285,,Abu Dhabi,971-25544561,,,,low=63,Al Khazna Insurance Company P.S.C.,1339242,3034857
AJECOBOND - Al Jaber Aluminium Composite LLC,123332898,,Abu Dhabi,971-2-5501777,,,,low=54,Al Fanous Al Fadhi Glass and Aluminium Cont. LLC,1425102,3420487
Ian Banham & Associates- Consulting Engineers,121405667,PO Box 2853,Abu Dhabi,971-24439961,http://www.ianbanham.com,,,low=51,Dhabian security Consultancy services,10279,27627
Transport Telematic Systems LLC,137383486,Al Nasr Street,Abu Dhabi,971-2-633-2564,,,,low=62,Injazat Data Systems LLC,500650,3515257
Waagner-Biro Emirates Contracting L.L.C.,139494106,8th floor Office no 083 United Arab Bank Building Khalifa Street,Abu Dhabi,971-2-6260416,,,,not matched=0,,,
KazStroyService Middle East,138777838,302 Al Otaiba Building Airport Road,Abu Dhabi,971-2-622-75-66,,,,not matched=0,,,
Bin Hamoodah Properties L.L.C.,127979944,PO Box 203,Abu Dhabi,971-2 6176781,http://www.binhamoodahproperties.ae,,,low=67,Bin Hamoodah Group,1636804,3425582
Fugro Middle East B.V.,48609213,PO Box 4447,Abu Dhabi,971-02 5542891,http://www.fugrome.com,,,low=64,Fugro Survey Middle East LTD (ADH),977543,1311921
Contax Partners,92507438,"P/1057, Muroor Street",Abu Dhabi,97126222966,http://www.contaxpartners.com,,,not matched=0,,,
Abu Dhabi National Hotels Company - Compass Middle East - L L C,92461403,Po Box 46806,Abu Dhabi,24447228,http://www.adnh.com,,,low=69,Abu Dhabi National Hotels Company,161819,26632
International Capital Trading,113815100,Villas B9 - B13,Abu Dhabi,971-2-6525555,http://www.ict.ae/,,,low=53,The Investor Capital,319234,87571
Idemitsu Kosan Company Limited,92461632,Khalaf Alotaiba Bldg,Abu Dhabi,26334740,http://www.idemitsu.co.jp,,,not matched=0,,,
Anadrill International,92460700,P.O. Box 21,Abu Dhabi,25554824,http://www.slb.com,,,not matched=0,,,
Enviromena Power Systems,107923719,Masdar City SAF Block 5,Abu Dhabi,97126353213,http://www.enviromena.com,,,high=100,Enviromena Power Systems,1491664,543874
Abu Dhabi National Islamique Financ PJSC,111192885,Golden Beach Tower Building,Abu Dhabi,971-2-4104444,http://www.adnif.ae/,,,low=44,Arab Trade Financing Program,414099,100204
Falcon Private Financial Advisory LLC.,139496992,Das Tower Suite 1802 Khalidiyah Corniche Road,Abu Dhabi,971-2-222-6655,,,,low=56,Falcon Scaffolding Factory L.L.C.,1092297,216460
Emirates Aluminium,111192661,Emirates Aluminium Complex,Abu Dhabi,971-2-5092222,http://www.emal.ae/,,,high=100,Emirates Aluminium,588100,537973
Al Khazna Insurance Company - Abu Dhabi Traffic,123784239,Najda Street,Abu Dhabi,971-24493497,http://www.alkhazna.com/medical/medauhph.htm,,,low=69,Al Khazna Insurance Company P.S.C.,1339242,3034857
Al Jaber Iron & Steel Foundry LLC,139493415,,Abu Dhabi,971-2-5541524,,,,low=63,Al Jaber Group LLC,21232,89867
Mechanical & Civil Engineering Contractors Ltd,120011176,Po Box 2307,Abu Dhabi,26666462,http://www.macecontractors.com,,,low=61,Mace Contractors Ltd,937844,3032982
International Bechtel Company Ltd.,42385935,PO Box 2661,Abu Dhabi,971-02 6998400,http://www.bechtel.com,,,not matched=0,,,
AL AHLIA MONEY EXCHANGE BUREAU,111192896,Omeir Bin Yousuf Building,Abu Dhabi,971-2-6229666,http://www.ahaliaexchange.com,,,low=21,AlDar Copy Bureau,1537170,3476385
Tek Signals,48584163,PO Box 47520,Abu Dhabi,971-2 6272701,http://www.teksignals.com,,,low=59,Tek Signals SAL (Offshore),1522056,57650
Gulf Oil and Gas,48584164,PO Box 7539,Abu Dhabi,971-2 6393848,http://www.gogas-me.com,,,low=65,Emirates Global Oil and Gas,1534767,3475532
Abu Dhabi Gas Development Co. Ltd.,123114706,,Abu Dhabi,971-2-654-2222,http://www.alhosngas.com,,,low=69,Abu Dhabi Fund for Development,1235848,238416
Sheikh Khalifa Medical City,107923712,P.O. Box 51900,Abu Dhabi,9728190000,http://www.skmc.ae,,,low=61,Swedish Medical Centre,1578651,3484565
Capital Investment LLC,111088000,PO Box 35666,Abu Dhabi,971-2-6523999,http://www.capitalinvestment.ae/,,,low=53,Capital Health Screening Center,1469870,3441596
Caracal International LLC,111088002,Tawazun Industrial Park Ajban,Abu Dhabi,971-2-4927111,,,,high=91,Caracal International,1745273,3475354
Mott MacDonald Limited - Abu Dhabi,42385996,"Al Hashmi Twr., Airport Rd.",Abu Dhabi,971-02 4120200,http://www.mottmac.com,,,low=57,Mott MacDonalds,242124,29665
Mubadala Petroleum LLC,123227546,Sowwah Square Al Maryah Island Al Maqam Tower 27 28 & 29 Floor,Abu Dhabi,971-2-818-6000,http://www.mubadalapetroleum.com,,,low=54,Mubadala GE Capital,1547853,3457583
Danzas Abu Dhabi LLC,125631266,Mezzanine Fl Mafco Bldg Muroor E Rd,Abu Dhabi,971-2-4452788,,,,not matched=0,,,
Mubadala Infrastructure Partners Ltd,120029354,ADNIC Building,Abu Dhabi,971-2-4174200,http://www.mip.ae,,,low=58,INCON Infrastructure Contracting LLC,1561412,3482090
Al Qudra Real Estate LLC,111192633,P.O.Box 48111,Abu Dhabi,971-2-6992222,http://www.alqudrare.ae/,,,low=68,Al Qudra Health Care,817603,566523
Abu Dhabi Sewerage Services Co - PJSC,111192692,"Sky tower,  108801 Reem Island",Abu Dhabi,971-2-6962694,http://www.adssc.ae,,,high=84,Abu Dhabi Sewerage Services,412149,95996
Ajmal Khan Mohammad Music Centre L L C,126201410,Po Box 8227,Abu Dhabi,4444333,,986299.99,,low=38,Abu Dhabi Music & Arts Foundation - ADMAF,1336242,264326
Al Ahli Bank of Kuwait KSC - Abu Dhabi,123762052,PO Box 7941,Abu Dhabi,971-02 4015111,http://abk.eahli.com/abk,,,low=43,Al Ahli General Trading,477899,215672
Gulf International Bank BSC,42385909,"PO Box 27051, Arab Monetary Fund Bldg., Corniche Rd.",Abu Dhabi,971-02 6214747,http://www.gib.com,,,low=69,Gulf International Private Academy,1581189,3489180
Al Farida Investments,111192839,P.O. Box 11,Abu Dhabi,971-2-6675599,http://www.alfaridainvst.com,,,high=100,Al Farida Investments,637250,226301
Al Wathba Marionnet L L C,111192838,41522,Abu Dhabi,971-2-6661522,http://www.awm-datepalm.com/,,,low=62,Al Wathba National Insurance Co. PSC,1577458,3029047
Al Tamimi & Partners Advocacy & Legal,111192670,Murabah Al Sw Bldg Al Sila Twr Lvl 26,Abu Dhabi,971-2-8130444,http://www.tamimi.com/,,,low=57,Alma Atef Advocacy and Legal Consultancy,1559754,3481574
Prestige Jet,111088237,"NA02, NA02,",Abu Dhabi,,http://www.prestige-jet.com/,,,low=50,Fame Jet,1591281,3491406
Stream FZC,111088285,RAK Free Zone Promotion Centre 1 st Fl,Abu Dhabi,971-2-6994725,http://www.stream-systems.net/,,,low=67,Sharwah FZC,1492877,3458025
International Golden Group PJSC,123278912,Bani Yas Tower Corniche Road,Abu Dhabi,971-2-626-6661,http://www.iggroup.ae,,,high=91,International Golden Group,901792,28410
Nippon Oil-Dhabi,92461211,,Abu Dhabi,971-2314991,http://www.eneos.co.jp,,,not matched=0,,,
Spaceage General Cont. Co. W.L.L,107923709,P.O.Box No 43693,Abu Dhabi,97125500150,http://www.spaceage-electrical.com,,,low=69,Stars General Contracting Co. L.L.C,512200,82321
Toxido Pest Control LLC,139494069,Mussafah Industrial Area,Abu Dhabi,971-2-5828454,,,,low=63,GREEN Pest Control,1574529,3484509
VARANGIS TURNKEY INTERIOR PROJECTS L.L.C,139493507,Level 4 The Union National Bank Building Corniche Road West,Abu Dhabi,971-2-6281600,,,,low=57,ARCANE INTERIOR DECORATIONS,282972,81621
Gulf Automation Services and Oilfield Supplies Co.,51575147,PO Box 6203,Abu Dhabi,971-2 6276600,http://www.gasos.com,,,low=57,Al Ghaith Oilfield Supplies,489549,306854
Etisalat Facilities Management L.L.C.,121647229,"PO Box 3838, Airport Rd.",Abu Dhabi,971-2 6182731,http://www.etisalatservices.com,,,low=34,Emirates Telecommunications Corporation - Etisalat,389949,27747
The Royal Bank of Scotland N.V. - Abu Dhabi,111377493,PO Box 43821,Abu Dhabi,971-4-408-4005,http://www.rbsbank.ae,,,low=39,Royal Green Flowers and Plants LLC,1736308,3510647
Abu Dhabi Investment Company,42385730,Capital Tower,Abu Dhabi,971-2-6926101,http://www.investad.com/,,,not matched=0,,,
Emirates Ship Investment Co LLC,48584004,"Al Neem Tower, 4th Floor,",Abu Dhabi,971-2-4941800,http://www.eships.ae/,,,medium=74,Emirates Advanced Investments Group LLC,306786,82562
Al Masaood Mowlem L.L.C.,48609189,PO Box 322,Abu Dhabi,971-02 6726224,http://www.masaood.com,,,low=63,Al Masaood Bergum,1204703,23759
Masdar Initiative,107923725,Opposite Presidential Flight,Abu Dhabi,97126533333,http://www.masdar.ae,,,low=47,Masdar Institute of Science and Technology,1168399,3374301
Etisalat Information Services L.L.C.,121647228,PO Box 3838,Abu Dhabi,971-2 6182731,http://www.etisalatservices.com,,,low=40,Emirates Telecommunications Corporation - Etisalat,389949,27747
MEC,126926622,3rd Floor AMF Building Corniche Road,Abu Dhabi,971-2-633-1811,http://www.mecglobal.com,,,low=15,Electromechanical Co LLC,1697359,3503018
YSI Abu Dhabi Co. Ltd.,125631050,Office 2 Building 130 New Shahama,Abu Dhabi,971-2-563-1316,,,,not matched=0,,,
Al Masaood Automobiles,120012612,PO Box 322,Abu Dhabi,971-02 6722300,http://www.nissan-almasaoodautomobiles.com,,,low=67,Al Masaood Bergum,1204703,23759
Emirates Palace Hotel,111192835,"Emirates Palace Abu Dhabi,",Abu Dhabi,971-2-6909000,http://www.emiratespalace.com,,,high=83,Emirates Palace,1495361,86108
ADNOC Distribution,107923721,Al Salam Street,Abu Dhabi,971-2-677-1300,http://www.adnoc.ae,,,high=100,ADNOC Distribution,98268,27604
Al Jaber Delta Energy Services & General Construction,124754277,,Abu Dhabi,971-22040350,,,,low=61,Chart General Construction,920640,1226249
Partex Gas Corporation,121394684,Sheikh Khalifa St Blue Tower 6th Fl 604,Abu Dhabi,971-26271395,,,,low=41,Oil and Gas Construction Company (OGASCO),1460421,296614
Emirates Cold Storage Company,121709337,,Abu Dhabi,971-5553455,,,,medium=72,Emirates Driving Company,1091351,3123271
New Medical Centre Group - Abu Dhabi,42386024,PO Box 6222,Abu Dhabi,971-02 6332255,http://www.nmc.ae,,,medium=74,Harley Street Medical Centre - Abu Dhabi,1569612,3472238
Sigma Engineering Works,42386075,PO Box 3555,Abu Dhabi,971-02 5510400,http://www.sigma.ae,,,low=53,6Sigma Services,1634806,3495499
Tasweek Real Estate Development&Mktg PJS,138052963,Kamala Tower,Abu Dhabi,971-2-6581856,http://www.tasweekuae.ae,,,low=43,"Tabreed, National Central Cooling Co. (PJSC)",506599,62846
White Aluminium Extrusion LLC,111192658,White Aluminium Extrusion L.L.C Building,Abu Dhabi,971-2-5500947,http://www.dubaiinvestments.com/,,,medium=73,White Aluminium Enterprise,268280,80532
Ali and Sons Industrial Projects L.L.C.,98191417,PO Box 915,Abu Dhabi,971-02 6723900,http://asip.ali-sons.com,,,medium=70,Al Nasser Industrial Ent. L.L.C.,792251,563654
Al Hassan Engineering Co Abu Dhabi Llc,111087945,47943,Abu Dhabi,971-2-5868560,http://www.al-hassan.com/,,,low=41,Hassan Al Hendasi Company,1296349,3385723
High - Point Rendel Limited - Abu Dhabi,92461261,Mohammed Abdulla Al Otaiba Bldg,Abu Dhabi,26788977,http://www.highpointrendel.com,,,low=39,Higher National Security Council,1467241,3440662
Cegelec,92460765,P.O. Box 47055,Abu Dhabi,26272680,http://www.cegelec.com,,,low=58,Cegelec Abu Dhabi,209929,27805
Toyo Kanetsu K K,92460841,Rahma Almasaood Bldg,Abu Dhabi,,http://www.toyokanetsu.co.jp,,,not matched=0,,,
BNP Paribas Abu Dhabi,42385803,Al Bateen Area Street No 32,Abu Dhabi,971-26938888,http://eau.bnpparibas.com,,,not matched=0,,,
Manazel Real Estate PJSC,107923716,,Abu Dhabi,971-2-6444466,http://www.manazel-re.com,,,not matched=0,,,
Lockheed Martin Global,92461160,P.O. Box 47796,Abu Dhabi,26451776,http://www.lockheedmartin.com,,,low=56,eternal global,1593217,3490721
Oasis International Leasing Company Pjsc,104354628,Po Box 28922,Abu Dhabi,6273880,http://www.oasisleasing.com,204645000.0,,low=43,Gulf Oasis Travel and tourism,506399,64875
"Al Jaber Trailers, Steel and Metal Works Establishment",123860295,,Abu Dhabi,971-25554300,,,,low=55,Al Aberah Electrical & Mechanical Works Est.,1560405,313693
Cameron - Middle East Operations,92460876,P.O. Box 3555,Abu Dhabi,25511313,http://www.c-a-m.com,,,high=75,Cameron Middle East,360955,28325
ELS Language Centers ME,48609246,PO Box 3079,Abu Dhabi,971-02 6651516,http://www.alhamed.com/elsinfo.htm,,,low=61,berlitz language center,221520,1310048
Emirates National Electromechanical L.L.C.,124729319,,Abu Dhabi,971-2-6711141,http://www.ene-llc.com,,,medium=71,Emirates Electromechanical and Industry LLC,902040,2625701
Al Mutawa Marine Work Establishment,111192736,P.O.Box 35440,Abu Dhabi,971-2-5552800,http://www.mutawamarine.com,,,low=50,Auto Tune Maint. Workshop,955703,3035032
Rohde & Schwarz Emirates LLC,122873636,HQ Aldar Building 2nd Floor Al Raha Beach,Abu Dhabi,971-2-4926-299,,,,low=60,PF Emirates LLC,1484074,3034701
Ghanem Ali Bin Hamoodah and Sons L.L.C.,126967658,PO Box 27273,Abu Dhabi,971-2 6229988,http://www.ghanemandsons.com,,,low=58,Ali and Sons LLC,213821,27020
Electra Abu Dhabi,48609253,PO Box 121,Abu Dhabi,971-02 6666548,http://www.alhamed.com/electrainfo.htm,,,high=85,Electra Abu Dhabi W.L.L,1459813,235509
Deutsche Bank - Abu Dhabi,92461518,Baniyas Street,Abu Dhabi,4192200,http://www.db.com,,,not matched=0,,,
Dolphin Energy Limited,92461546,PO Box 33777,Abu Dhabi,97126995500,http://www.dolphinenergy.com,,,high=80,Dolphin Energy LTD,119661,26988
Abu Dhabi Distribution Company,92461562,,Abu Dhabi,971-26423000,http://www.addc.ae,,,high=97,Abu Dhabi Distribution company,287724,30231
Tourism Development & Investment Co LLC,102157208,"Sheikh Zayed Street,",Abu Dhabi,971-2-4061400,http://www.tdic.ae/,,,high=82,Tourism Development and Investment Company (TDIC),1528405,3383678
National Holding LLC,111192789,P.O. Box 111966,Abu Dhabi,971-2-6577000,http://www.nh.ae/,,,not matched=0,,,
Aabar Properties LLC,139494968,IPIC Square  21st Floor 4th Street Muroor Road,Abu Dhabi,971-2-222-2233,http://www.aabarproperties.com,,,high=89,Aabar Properties,1595516,3435405
Albert Abela Company ( Abu Dhabi ) W L L,92461472,Po Box 143,Abu Dhabi,66674610,,,,not matched=0,,,
Keo International Consultants,92461099,Po Box P.O. Box 27594,,26451512,http://www.keoic.com,,,high=93,KEO International Consultants,1485130,29473
Al Nasr Contracting Company LLC,111192690,Hamad Bhyan Al Amri Building,Abu Dhabi,971-2-6420002,http://www.alnasruae.com,,,low=54,Al Nasr Middle East General Contracting,616150,91855
Abu Dhabi Mafraq Hotel,111192855,Mafraq Hotel,Abu Dhabi,971-2-6596666,http://www.mafraq-hotel.com/,,,medium=71,Mafraq Hotel,1187598,88337
Al Ghaith Holdings,100971491,PO Box 32323,Abu Dhabi,971-02 6262525,,,,low=62,Al Ghaith Oilfield Supplies,489549,306854
National Cement Factory - L L C,120029830,Po Box 106077,Abu Dhabi,5500933,http://www.ncfuae.com,,,medium=74,Teba Cement Factory LLC,1748724,3515930
Tamouh Ambitions Unlimited,111088295,"18th Floor, Tamouh Tower",Abu Dhabi,971-2-4177777,http://www.tamouh.com/,,,not matched=0,,,
Clariant Oil Services,49409845,"ESNAAD Mussafah Offshore Supply Base, Mussasfah Industrial Estate",Abu Dhabi,971-02 5549299,http://www.clariant.com/en/Solutions/Business-Units/Industrial-and-Consumer-Specialties,,,medium=71,Atlantic oil services,449199,28224
KARL STORZ Endoscopy Gulf & Near East,121410670,Villa #7 Mushrif Business Park,Abu Dhabi,971-2-4477593,,,,low=46,Union Gulf Services Est.,1398798,3396057
Safar-Al Baharie Oilfield Services,107923707,"Office 1-03, Building 2",Abu Dhabi,97144230922,http://www.safaroil.com,,,not matched=0,,,
Crypto Ag Middle East,120010928,"Al Yaziah Building, Mezzanine 01 Murour Road, Street No. 4",Abu Dhabi,4455737,http://www.crypto.ch,,,not matched=0,,,
Exeed Industries L.L.C.,126967664,PO Box 38970,Abu Dhabi,971-2 4996999,http://www.exeed.ae,,,high=82,Exeed Industries,1080492,3122828
Yateem Optician Limited,111088329,Yateem Group Building,Abu Dhabi,971-2-6776222,http://www.yateemgroup.com/,,,not matched=0,,,
"Northrop Grumman Electronic Systems International, Inc.,",101788432,Shaik: Srour Bin Mohammed Al Nahyyan Buldg-Tourist Club,Abu Dhabi,6455677,http://www.northropgrumman.co.uk,,,high=77,Northrop Grumman Electronic Systems,894244,63783
Capitala,102157213,"Capitl Ste Bldg Zyd Sprts Cty Twr,Grnd F",Abu Dhabi,971-2-4121111,http://www.capitala.ae,,,not matched=0,,,
Etisalat Services Holding L.L.C.,121647227,PO Box 3838,Abu Dhabi,971-02 6182731,http://etisalatservices.com,,,low=34,Emirates Telecommunications Corporation - Etisalat,389949,27747
Al Jaber Heavy Lift,123029217,Corniche Side 5th R/A,Abu Dhabi,971-2-5825454,http://www.ajhl.com,,,low=59,Al Jaber Group LLC,21232,89867
Ados Sparrows Offshore Services Ltd.,120011130,Po Box 4015,Abu Dhabi,25544401,http://www.sparrowsgroup.com,,,low=43,VAP Offshore Engineering and Trade FZE,1289450,1193139
Eshraq Properties Co PJSC,111088069,P.O. Box 108737,Abu Dhabi,971-2-6354854,http://www.eshraquae.com,268263000.0,,not matched=0,,,
LeasePlan Emirates Ltd,111192819,Al Fhm Emrts Mtr Co Bdg Ofc Ste 115-119,Abu Dhabi,971-2-4046444,http://www.leaseplan.ae,,,low=65,PF Emirates LLC,1484074,3034701
Al Hamed Cercon,51575145,PO Box 42148,Abu Dhabi,971-2 6672200,http://www.alhamed.com,,,not matched=0,,,
Telefonaktiebolaget L M Ericcson,50094128,Po Box 3704,Abu Dhabi,26968600,http://www.ericsson.com,,,not matched=0,,,
The Boston Consulting Group - Abu Dhabi,120011164,Al Niyadi Building 1st Floor Airport Rd,Abu Dhabi,971-2-6529-600,http://www.bcgmiddleeast.com,,,not matched=0,,,
"Dck International, LLC",125518440,,Abu Dhabi,971-50-848-5106,,,,not matched=0,,,
Al Jaber Tunneling & Mechanical Works Est,125630772,,Abu Dhabi,971-25553335,http://www.aljaber.com,,,low=37,Al Jaber Group LLC,21232,89867
Gulf Air Conditioning Manufacturing Industries L.L.C,138782916,Plot No 36D14 ICAD-1 Industrial City,Abu Dhabi,971-25506777,http://www.gami.ae,,,high=87,Gulf Airconditioning Manufacturing Industries (GAMI),1466470,3439312
Taweelah A2 Operating Company,111192693,"Tawila AQ Station,  AL Tawila Zone",Abu Dhabi,971-2-5067100,http://www.adwea.ae,,,high=75,Taweelah Asia Power Company,316937,57097
Falcon General Services,48609252,PO Box 41698,Abu Dhabi,971-02 6815100,http://www.alhamed.com/falcongeninfo.htm,,,low=56,Falcon Aviation Services / Corporation,1176353,550854
Abu Dhabi Petroleum Company Ltd.,42385742,PO Box 26696,Abu Dhabi,971-02 6274288,,,,low=61,Abu Dhabi Petroleum Ports Operating Company (IRSHAD) ex. ADPPOC,49198,27103
Kudsi Law Firm,42385958,PO Box 46010,Abu Dhabi,971-02 6336500,http://www.kudsilawfirm.ae,,,low=69,MIO Law Firm,1675588,89708
United Bank Limited-Abu Dhabi,42386109,PO Box 3052,Abu Dhabi,971-02 5996505,http://www.ubl.com.pk,,,low=66,Nascon Engineering Limited - Abu Dhabi,1534060,3475255
AlMansoori Special Eng Co LLC,111192719,"17th Floor, Mussafah Industrial Area,",Abu Dhabi,971-2-8157000,http://www.almansoori.biz,,,low=69,Al Mansoori Specialized Engineering,1530156,54327
Green Crescent Insurance Company PJSC,102157223,Corniche Tower,Abu Dhabi,971-2-4084700,http://www.green-crescent.com,73706001.0,,high=93,Green Crescent Insurance Company,1509605,548444
"Bilfinger Berger Construction, LLC",121413540,Massionan Office 2 Bldg 129 4th St,Abu Dhabi,971-26324005,http://www.bilfingerberger.com,,,low=35,Louis Berger,1455030,551623
Etihad Rail,127978265,PO Box 989,Abu Dhabi,971-02 4999999,http://www.etihadrail.ae,,,high=88,Etihad Rail Db,1668080,3496230
Al Wifaq Finance Company PJSC,111192667,"Al Odaid Offices Tower, Airport Road,",Abu Dhabi,971-2-4035600,,,,high=91,Al Wifaq Finance Company,883890,557874
Awraq Islamic Shares and bonds Company,111087979,RAK Ceramics Building,Abu Dhabi,971-2-6819366,https://www.awraqislamic.com,,,low=62,Al Wathba Shares and Bonds Center,1595503,3444390
El Nilein Bank Plc,120012196,Po Box 46013,Abu Dhabi,26729300,http://www.nileinuae.com,,,not matched=0,,,
Pacific Middle East LLC (Abu Dhabi),125630766,,Abu Dhabi,971-24146665,,,,not matched=0,,,
Al Wathba Concrete Blocks Factory,48609181,PO Box 4781,Abu Dhabi,971-02 5821158,,,,low=58,Al Wathba Shares and Bonds Center,1595503,3444390
Commercial Bank of Dubai PSC - Abu Dhabi,42385832,PO Box 2466,Abu Dhabi,971-2 6268400,http://www.cbd.ae,,,low=51,Abu Dhabi Commercial Bank ADCB,246670,31488
Foster Wheeler International,42385887,PO Box 26702,Abu Dhabi,971-02 6222117,http://www.fwc.com/contact/ec.cfm,,,not matched=0,,,
The Offset Program Bureau,48609228,PO Box 908,Abu Dhabi,971-02 6160000,http://www.offset.ae,,,low=49,Hotel Restaurant Program,1377002,3393268
Exova Limited - Abu Dhabi,50089044,Po Box 9191,Abu Dhabi,25582345,http://www.exova.com,,,not matched=0,,,
Mitsui Sumitomo Insurance Company Limited,92461401,Skh. Maryam Bint Rashed Al Otaibah Bldg,Abu Dhabi,26458060,http://www.msig.com,,,not matched=0,,,
Reem Investments PSC,111088249,Reem Investments Building,Abu Dhabi,971-2-4438900,http://reeminvestments.com/,,,low=51,Reem Developers,1672613,220454
Abu Dhabi Holding,111192688,"Al Ghaith Tower, 11th Floor,",Abu Dhabi,971-2-6267000,http://www.adh.ae,,,high=81,Abu Dhabi Holding Company,1511256,57946
United Alsaqer Heavy Equipment L.L.C.,123166324,PO Box 46468,Abu Dhabi,971-02 5545900,http://www.alsaqerheavyequipment.com,,,low=60,Al Sanaya Technical Equipments L.L.C,1588489,219457
Insurance House,113833841,PO Box 129921,Abu Dhabi,971-2-4934444,http://www.insurancehouse.ae/,88059601.0,,not matched=0,,,
NBAD Securities LLC,111192718,Sultan Bin Zayed Al Nahyan Building,Abu Dhabi,971-2-6161600,http://www.nbad.com,,,not matched=0,,,
Awe Middle East Llc,120010414,Po Box 46995,Abu Dhabi,,,,,low=30,Taweelah Asia Power Company,316937,57097
Al Nasser Holding Company,111192731,Falcon Tower,Abu Dhabi,971-2-6391100,http://www.anholdings.com,,,low=53,Al Nasser Industrial Ent. L.L.C.,792251,563654
Escan Real Estate PJSC,111192694,P.O.Box 93888,Abu Dhabi,971-2-4474202,http://www.escan.ae,16007000.0,,high=87,Escan Real Estate,810051,58058
Emirates Stallions Properties LLC,136967196,Silver wave Tower 4th Floor - unit 404 Meena Street,Abu Dhabi,971-2-6448090,,,,low=67,Emirates National Holdings LLC,821051,81596
Al Hamed Development and Construction L.L.C.,48609250,PO Box 45885,Abu Dhabi,971-02 6672200,http://www.alhamed.com/ahdcinfo.htm,,,not matched=0,,,
Al Qudra Sports Management,111192649,"Al Saada Street, P.O.Box. 42612",Abu Dhabi,971-2-4488012,http://www.alqudrasm.com/,,,low=61,Barari Forest Management L.L.C,1492316,3035580
Universal Trading Company,92461417,Po Box 4399,Abu Dhabi,26335331,http://www.universal-uae.ae,,,low=68,Universal Group of Companies,293072,83060
Al Badr Money Exchange,111192889,33391,Abu Dhabi,971-2-6344100,http://www.albaderexchange.com,,,not matched=0,,,
Arabian Power Company,107923710,Sas Al Nakhl Island,Abu Dhabi,97125588899,http://www.arabianpower.ae,,,medium=71,Taweelah Asia Power Company,316937,57097
Abu Dhabi Basic Industries Corporation,99413950,PO Box 7063,Abu Dhabi,971-2-6988444,http://www.adbic.com,,,high=90,Abu Dhabi Basic Industries Corporation (ADBIC),484399,94040
Sheraton Abu Dhabi,42386072,"P.O. Box 640, Corniche Road,  Abu Dhabi, United Arab Emirates",Abu Dhabi,26773333,http://www.sheraton.com,,,not matched=0,,,
C4 Advanced Solutions LLC,111087997,"1st Floor, Khalifa A Trading Center",Abu Dhabi,971-2-8157600,http://www.c4as.ae/,,,high=91,C4 Advanced Solutions,1056708,101544
Horizon Energy LLC,111088116,"Offices 403 & 404, 4th Floor",Abu Dhabi,971-2-6715544,http://www.horizonenergy.ae/,,,low=67,Dolphin Energy LTD,119661,26988
Emirates Computers Ltd,111192807,Emirates Computers Building,Abu Dhabi,971-2-6914100,http://www.emiratescomputers.ae,,,high=90,Emirates Computers,14880,26774
Tamani General Contracting,96740624,PO Box 43665,Abu Dhabi,971-02 6270560,http://www.tamani.ae,,,high=95,Tamani General Contracting Co,657601,56611
Noor Capital PSC,111192678,Ministry of Energy Bldg Dar El Salam Twr,Abu Dhabi,971-2-6266888,http://noor-capital.ae,,,high=86,Noor Capital,288022,66055
Hafilat Industries L.L.C.,102157211,PO Box 91207,Abu Dhabi,971-02 6733336,http://www.hafilat.ae,,,high=84,Hafilat Industries,902494,610494
Al Hikma Development Company PSC,111192639,"Almamoura Building, Almoroor Road,",Abu Dhabi,971-2-4130000,,,,low=47,Dar Al Hikmah Medical Laboratory,1595188,3493296
Power Economy Middle East Company L.L.C.,127979950,PO Box 6072,Abu Dhabi,971-02 5501077,http://www.powereconomy.net,,,low=52,Power House Electricals L.L.C,1546105,3478543
Schiavello Systems International Pty. Ltd.,137782861,Level 20 Sultan International Tower Corniche Road,Abu Dhabi,971-2-622-4411,,,,low=56,Abu Dhabi Systems Integration (ADSI),1026344,224332
Dussmann Middle East GmbH,137783567,,Abu Dhabi,971-2-6-44-41-51,http://www.dussmann-service.ae,,,low=53,Dussmann Gulf,1430546,216384
Al Jaber Lighting LLC,139493624,,Abu Dhabi,971-2-5557810,http://www.aljaber.com,,,low=67,Al Jaber Group LLC,21232,89867
"Marubeni - Itochu Steel Inc., Abu Dhabi",92461148,Shk. Zayed Ii,Abu Dhabi,,http://www.marubeni.com,,,low=41,Emirates Steel Industries,1497454,3383670
Abu Dhabi Medical Devices Co L L C,98191435,PO Box 30485,Abu Dhabi,971-2-5510111,http://www.medeco-uae.com/,,,high=79,Abu Dhabi Medical Devices Co. l.l.c Medeco,1087196,3124326
Amana Steel Buildings Company L.L.C.,42385768,PO Box 5643,Abu Dhabi,971-02 6428383,http://www.amanabuildings.com,,,low=56,Reba Steel Company,585799,90036
ABB Transmission & Distribution Ltd.,42385784,Al Ghaith Tower 15th Floor Hamdan Street,Abu Dhabi,971-24171333,http://www.mena.abb.com,,,low=61,International Distribution Est,716701,31310
United Printing & Publishing Company,111192728,P.O.Box 39955,Abu Dhabi,971-2-5039999,http://www.upp.ae/,,,low=56,BIRTH Advertising and Publishing LLC,1479889,3449241
Valentine Maritime Gulf LLC,111192883,45877,Abu Dhabi,971-2-5555868,http://www.vmgulf.com/,,,high=100,Valentine Maritime Gulf LLC,87607,27115
Sky News Arabia FZ L.L.C.,123840768,PO Box 77845,Abu Dhabi,971-02 5091500,http://www.skynewsarabia.com,,,high=75,Sky News Arabia,1465073,3437248
